{
"type": "FeatureCollection",
"name": "chiba_current_6targets",
"crs": { "type": "name", "properties": { "name": "urn:ogc:def:crs:OGC:1.3:CRS84" } },
"features": [
{"type":"Feature","properties":{"現象":1,"区分":1,"箇所番号":"Ⅱ-6688","箇所名":"金谷4"},"geometry":{"type":"Polygon","coordinates":[[[139.818829310000012,35.18074783],[139.818741100000011,35.18077567],[139.81871751,35.18078284],[139.818633549999987,35.18077121],[139.818628460000014,35.1807699],[139.81860072,35.18076272],[139.81857459,35.18075174],[139.81855027,35.18073427],[139.81853204,35.1807163],[139.818509549999987,35.18068335],[139.818465010000011,35.1806073],[139.81838617,35.18047271],[139.81824423,35.18023035],[139.81837662,35.18017899],[139.81852909,35.18011837],[139.81864818,35.18008441],[139.81876327,35.18013025],[139.81885484,35.18003141],[139.819076380000013,35.17997985],[139.819191350000011,35.17995299],[139.81921423,35.18030021],[139.81922017,35.18039045],[139.819225350000011,35.18046904],[139.819234279999989,35.18051717],[139.8192443,35.18057369],[139.81925485,35.18062931],[139.81926741,35.18069557],[139.81927171000001,35.18071822],[139.81916965,35.18071667],[139.81905183,35.180719],[139.81900803,35.18071016],[139.81897597,35.18070827],[139.81894127000001,35.18071187],[139.818914260000014,35.18072052],[139.818829310000012,35.18074783]]]}},
{"type":"Feature","properties":{"現象":1,"区分":1,"箇所番号":"Ⅲ-0675","箇所名":"黄和田畑1"},"geometry":{"type":"Polygon","coordinates":[[[140.132928170000014,35.22492223],[140.13328132,35.22501749],[140.13320379000001,35.22510892],[140.13312222,35.22519936],[140.13311289,35.22523248],[140.1331217,35.2252566],[140.13313181,35.22527314],[140.1331409,35.22527857],[140.133033790000013,35.22540573],[140.133002479999988,35.2254429],[140.13295624,35.22551457],[140.13289554,35.22562282],[140.13286298,35.22571877],[140.13285381,35.22577149],[140.1328517,35.22578361],[140.13283872,35.22586078],[140.13280763,35.22585524],[140.13277392,35.22585066],[140.13264299,35.22584135],[140.132508730000012,35.22584579],[140.132289179999987,35.22586954],[140.13214674,35.22563327],[140.13205674,35.22560511],[140.131943979999988,35.22543936],[140.13191514,35.22543982],[140.131839469999989,35.22563297],[140.13167707,35.225693],[140.131522600000011,35.22580213],[140.13142928,35.22581739],[140.13135699,35.22586802],[140.13107168,35.22593984],[140.13099684,35.22602713],[140.13093084,35.22611236],[140.130936319999989,35.22617889],[140.13090347,35.22624925],[140.1309429,35.22642496],[140.13099268,35.22652226],[140.13099281,35.22663937],[140.130945919999988,35.22665637],[140.13088767,35.22666156],[140.13082218,35.22666739],[140.130718089999988,35.22667665],[140.13069833,35.22656226],[140.130650300000013,35.22637842],[140.13063241,35.22625325],[140.130621670000011,35.22617886],[140.13060149,35.2261734],[140.13059474,35.22610551],[140.13067386,35.226034],[140.13073275,35.22590405],[140.13080143,35.22578955],[140.13078403,35.22556044],[140.130962469999986,35.22545262],[140.13107417,35.22534219],[140.131330100000014,35.22523866],[140.13150166,35.2251531],[140.13188735,35.22518789],[140.131980160000012,35.22520325],[140.132190470000012,35.22505777],[140.132315330000011,35.22507194],[140.13242208,35.22495004],[140.13250946,35.2249594],[140.132622090000012,35.22496515],[140.13269778,35.2249699],[140.132928170000014,35.22492223]]]}},
{"type":"Feature","properties":{"現象":1,"区分":1,"箇所番号":"Ⅱ-6099","箇所名":"芋窪1"},"geometry":{"type":"Polygon","coordinates":[[[140.05754792,35.27953053],[140.05754851,35.27953176],[140.05755987,35.27955578],[140.0575996,35.27963983],[140.05738156000001,35.27971229],[140.05737681,35.27970609],[140.05733085,35.27963234],[140.05731791,35.27961156],[140.057316109999988,35.27960816],[140.05727250000001,35.27952541],[140.05750758,35.27944668],[140.05754792,35.27953053]]]}},
{"type":"Feature","properties":{"現象":1,"区分":1,"箇所番号":"Ⅱ-6089","箇所名":"大坂1"},"geometry":{"type":"Polygon","coordinates":[[[140.04524576,35.25973232],[140.04524118,35.25976961],[140.04523063,35.25985543],[140.04522617,35.25990374],[140.045224139999988,35.25993266],[140.04522409,35.25996725],[140.04522402,35.25996831],[140.0452224,35.25999273],[140.04521528,35.260022],[140.04520961,35.26003306],[140.045198340000013,35.26005504],[140.04511416,35.26012771],[140.04492417,35.26028915],[140.0448122,35.26038057],[140.044821610000014,35.26031242],[140.04482457,35.260291],[140.044826769999986,35.26027504],[140.04482396,35.26023927],[140.04481689,35.26017945],[140.044798719999989,35.26010596],[140.044767940000014,35.26005831],[140.0447258,35.26002367],[140.04443801,35.25978716],[140.04433762,35.25970466],[140.04473633,35.25945233],[140.04492283,35.25949921],[140.04527619000001,35.25948458],[140.04524576,35.25973232]]]}},
{"type":"Feature","properties":{"現象":1,"区分":1,"箇所番号":"Ⅱ-6089","箇所名":"大坂1"},"geometry":{"type":"Polygon","coordinates":[[[140.04372097000001,35.25944544],[140.043716960000012,35.25966035],[140.04381329,35.25974302],[140.04382911,35.25974941],[140.04391189,35.25978283],[140.04392413,35.25978777],[140.04394152,35.25979304],[140.04396336,35.25979914],[140.04398214,35.25980331],[140.04399591,35.25980637],[140.044010680000014,35.25981049],[140.04402484,35.25981527],[140.04403839,35.25982321],[140.04407753000001,35.2598461],[140.04402542,35.26015298],[140.04403037,35.26020034],[140.044034970000013,35.26029372],[140.04403541,35.26033719],[140.044029130000013,35.26038246],[140.044021070000014,35.26040987],[140.04401614,35.26042167],[140.0440101,35.2604361],[140.04399854,35.26045613],[140.043987539999989,35.26047163],[140.04396621,35.26050171],[140.04361701,35.26061156],[140.04359527,35.26061354],[140.0430431,35.26088721],[140.04305131000001,35.26082906],[140.04305574,35.26079767],[140.04306268,35.26074855],[140.04308832000001,35.26064271],[140.04312152,35.26052911],[140.043149699999987,35.26043894],[140.04316913,35.26039178],[140.043188789999988,35.26033006],[140.0432069,35.26027457],[140.043224439999989,35.26021594],[140.04324913,35.2601298],[140.04325748,35.26010247],[140.04328754,35.26000283],[140.04330947,35.2599428],[140.0433217,35.25989687],[140.04332556,35.25988339],[140.04340141,35.25961886],[140.043451370000014,35.25944465],[140.04357579,35.25942209],[140.04372097000001,35.25944544]]]}},
{"type":"Feature","properties":{"現象":1,"区分":1,"箇所番号":"Ⅱ-6428","箇所名":"亀沢32"},"geometry":{"type":"Polygon","coordinates":[[[139.9112347,35.2696107],[139.911214230000013,35.26965589],[139.91119642000001,35.2696952],[139.9111658,35.2697628],[139.911162069999989,35.26977102],[139.91115219,35.2697871],[139.91114683,35.26979363],[139.91113218000001,35.26981321],[139.91112214,35.26982475],[139.91111834,35.26983051],[139.911115740000014,35.26983504],[139.91111091,35.26984056],[139.91097704,35.26990151],[139.910827329999989,35.26984441],[139.910815539999987,35.26971811],[139.910790100000014,35.26945577],[139.910795580000013,35.26944527],[139.910793969999986,35.26937951],[139.9107975,35.26937382],[139.91084383,35.26929917],[139.910845560000013,35.26929638],[139.91085046,35.2692851],[139.91085517,35.26926833],[139.91085712,35.26926128],[139.91086121,35.26925575],[139.91086633,35.26925137],[139.910872360000013,35.26924796],[139.910875190000013,35.26924662],[139.91088776,35.26924182],[139.91094712,35.26921912],[139.911009299999989,35.26919535],[139.911160849999987,35.2693436],[139.91117652,35.26939212],[139.91126237,35.26941888],[139.911380220000012,35.26934738],[139.91138931,35.26938542],[139.9112347,35.2696107]]]}},
{"type":"Feature","properties":{"現象":1,"区分":2,"箇所番号":"Ⅱ-6688","箇所名":"金谷4"},"geometry":{"type":"Polygon","coordinates":[[[139.81866298,35.18068822],[139.81857259,35.1807503],[139.81855027,35.18073427],[139.81853204,35.1807163],[139.818509549999987,35.18068335],[139.818465010000011,35.1806073],[139.81841544,35.18052268],[139.81854504,35.18047849],[139.81865919,35.18042899],[139.81878064,35.18040517],[139.81886236,35.18038784],[139.81898153,35.18035231],[139.81913635,35.18031357],[139.819213850000011,35.18029453],[139.81921423,35.18030021],[139.81922017,35.18039045],[139.819225350000011,35.18046904],[139.819234279999989,35.18051717],[139.8192443,35.18057369],[139.81924594,35.18058231],[139.81920526,35.18058646],[139.81908786,35.18061729],[139.81895044,35.1806119],[139.81887444,35.18065826],[139.81875326,35.1806536],[139.81866298,35.18068822]]]}},
{"type":"Feature","properties":{"現象":1,"区分":2,"箇所番号":"Ⅲ-0675","箇所名":"黄和田畑1"},"geometry":{"type":"Polygon","coordinates":[[[140.13248778,35.22570636],[140.13223321000001,35.22572633],[140.13211668,35.225488],[140.132029960000011,35.2254499],[140.13202963,35.22544711],[140.13204448,35.22537552],[140.13207158,35.22531655],[140.13210641,35.22524073],[140.13220454,35.22527441],[140.132273559999987,35.22527841],[140.13247164,35.22530597],[140.132630619999986,35.22531327],[140.132812159999986,35.22530505],[140.13292658,35.2252716],[140.13310371,35.22532273],[140.133033790000013,35.22540573],[140.133002479999988,35.2254429],[140.13295624,35.22551457],[140.13289554,35.22562282],[140.13286473,35.22571362],[140.132828600000011,35.22570807],[140.13279051,35.2257081],[140.13264224,35.22570304],[140.13248778,35.22570636]]]}},
{"type":"Feature","properties":{"現象":1,"区分":2,"箇所番号":"Ⅲ-0675","箇所名":"黄和田畑1"},"geometry":{"type":"Polygon","coordinates":[[[140.13082442000001,35.2265469],[140.13080022,35.22654985],[140.13073596000001,35.22655768],[140.13072265,35.22644793],[140.13077439,35.22644253],[140.13078439,35.22644149],[140.13082442000001,35.2265469]]]}},
{"type":"Feature","properties":{"現象":1,"区分":2,"箇所番号":"Ⅲ-0675","箇所名":"黄和田畑1"},"geometry":{"type":"Polygon","coordinates":[[[140.13176943,35.22549442],[140.13158433000001,35.22557269],[140.131408310000012,35.22570106],[140.131281660000013,35.22575371],[140.131175539999987,35.22585059],[140.1309354,35.22588008],[140.13085743,35.22597442],[140.13079208,35.22607136],[140.13077392,35.22615041],[140.130735969999989,35.22625127],[140.13073024,35.22625199],[140.13067779,35.22625859],[140.13068661,35.22612853],[140.130753129999988,35.22605905],[140.130805220000013,35.22594495],[140.13087518,35.22583938],[140.130967450000014,35.22571116],[140.13112565,35.22561475],[140.1312519,35.22553088],[140.13145728,35.22540778],[140.131632380000013,35.22531762],[140.13189241,35.22524045],[140.131965,35.22525628],[140.13195291,35.22529856],[140.13195176,35.22530261],[140.131897360000011,35.22529198],[140.13176943,35.22549442]]]}},
{"type":"Feature","properties":{"現象":1,"区分":2,"箇所番号":"Ⅱ-6099","箇所名":"芋窪1"},"geometry":{"type":"Polygon","coordinates":[[[140.05754792,35.27953053],[140.057316109999988,35.27960816],[140.05730495,35.27958699],[140.05753758,35.27950904],[140.05754792,35.27953053]]]}},
{"type":"Feature","properties":{"現象":1,"区分":2,"箇所番号":"Ⅱ-6089","箇所名":"大坂1"},"geometry":{"type":"Polygon","coordinates":[[[140.0430656,35.26073652],[140.04308832000001,35.26064271],[140.04312152,35.26052911],[140.043149699999987,35.26043894],[140.04316913,35.26039178],[140.043188789999988,35.26033006],[140.0432069,35.26027457],[140.043224439999989,35.26021594],[140.04324913,35.2601298],[140.04325748,35.26010247],[140.04328754,35.26000283],[140.04330947,35.2599428],[140.0433217,35.25989687],[140.04332556,35.25988339],[140.04335419,35.25978355],[140.04353591,35.25976726],[140.04371451,35.25979101],[140.04380772,35.25980534],[140.04386481,35.25976382],[140.04391189,35.25978283],[140.043950239999987,35.25996802],[140.04396402,35.25998499],[140.043986319999988,35.26001602],[140.04399858,35.26003673],[140.04401166,35.2600654],[140.04402084,35.26010911],[140.04403037,35.26020034],[140.044034970000013,35.26029372],[140.04403541,35.26033719],[140.04403192,35.26036238],[140.04369144,35.26048002],[140.043631,35.26047004],[140.0430656,35.26073652]]]}},
{"type":"Feature","properties":{"現象":1,"区分":2,"箇所番号":"Ⅱ-6089","箇所名":"大坂1"},"geometry":{"type":"Polygon","coordinates":[[[140.04524576,35.25973232],[140.04524118,35.25976961],[140.04523063,35.25985543],[140.04522617,35.25990374],[140.045226039999989,35.25990564],[140.04512767,35.2599885],[140.04495173,35.26014745],[140.044824369999986,35.26024446],[140.04482396,35.26023927],[140.04481689,35.26017945],[140.044798719999989,35.26010596],[140.044767940000014,35.26005831],[140.0447258,35.26002367],[140.04463942000001,35.25995269],[140.04485840000001,35.25979144],[140.04502478,35.25974413],[140.04525138,35.25968653],[140.04524576,35.25973232]]]}},
{"type":"Feature","properties":{"現象":1,"区分":2,"箇所番号":"Ⅱ-6428","箇所名":"亀沢32"},"geometry":{"type":"Polygon","coordinates":[[[139.910983210000012,35.26938545],[139.91102353,35.26942171],[139.91109409,35.26952324],[139.91114427,35.2695828],[139.91116029,35.26965127],[139.91121429,35.26965576],[139.911214230000013,35.26965589],[139.91119642000001,35.2696952],[139.91103766,35.26979259],[139.91090865000001,35.26973079],[139.9109287,35.26961702],[139.91093447,35.26943806],[139.9109201,35.26940031],[139.910873470000013,35.26924744],[139.910875190000013,35.26924662],[139.91088776,35.26924182],[139.91094295,35.26922071],[139.910983210000012,35.26938545]]]}},
{"type":"Feature","properties":{"現象":2,"区分":1,"箇所番号":"Ⅰ-22500701","箇所名":"四ノ宮沢"},"geometry":{"type":"Polygon","coordinates":[[[140.057833749999986,35.26968122],[140.05777576,35.27002424],[140.057709139999986,35.27036621],[140.05763393,35.27070698],[140.057550139999989,35.27104639],[140.05745783,35.27138432],[140.05735703,35.27172061],[140.057247780000012,35.27205513],[140.05713013,35.27238772],[140.05700413,35.27271825],[140.056869830000011,35.27304657],[140.05672729,35.27337255],[140.05657657,35.27369604],[140.05641773,35.27401692],[140.05625085,35.27433503],[140.056076,35.27465025],[140.055893239999989,35.27496244],[140.05570265,35.27527147],[140.05550433,35.2755772],[140.05529834,35.27587951],[140.05446749,35.27488823],[140.05437741,35.27484118],[140.05424776000001,35.27479715],[140.05408214,35.27476204],[140.05390577,35.2747417],[140.05377259,35.27472424],[140.05348829,35.27471],[140.05319903,35.27472823],[140.053109009999986,35.27470478],[140.0529723,35.27471388],[140.05283569,35.2747584],[140.05270264,35.2747911],[140.05249759,35.27481212],[140.05228023,35.27480071],[140.052046280000013,35.27478048],[140.05192041,35.27480431],[140.05188093000001,35.27484274],[140.051740599999988,35.27484299],[140.0515787,35.27485214],[140.05145353,35.27487302],[140.05131612,35.27488802],[140.05105781,35.27490619],[140.05061881,35.27490402],[140.050374119999987,35.27490151],[140.04998186,35.2748845],[140.04973716,35.27487609],[140.04935877,35.27473263],[140.04910240000001,35.27468459],[140.04886744,35.27463651],[140.04869677,35.27469609],[140.04851315,35.27483112],[140.04837525,35.2748583],[140.0480993,35.27485879],[140.04778414,35.27494017],[140.047390009999987,35.27497319],[140.04716013,35.27500593],[140.04689066,35.27496868],[140.0467399,35.27510904],[140.04659575,35.27526016],[140.046147569999988,35.27471674],[140.04583559,35.27461573],[140.04557329,35.27438963],[140.04542749,35.27423487],[140.04534709,35.27406807],[140.04517972,35.27400278],[140.04493976,35.27398531],[140.04460524000001,35.27394416],[140.044357780000013,35.27383131],[140.044211890000014,35.27364078],[140.044023790000011,35.27354404],[140.04388155,35.2733716],[140.04373931,35.27319917],[140.04359709,35.27302674],[140.043454849999989,35.2728543],[140.04331262,35.27268187],[140.04317039,35.27250943],[140.04302816,35.272337],[140.04288594,35.27216455],[140.04274371,35.27199212],[140.04260148,35.27181968],[140.04245925,35.27164725],[140.042317020000013,35.27147481],[140.0421748,35.27130238],[140.04203257,35.27112994],[140.041890349999989,35.27095751],[140.04174812,35.27078507],[140.04160589,35.27061263],[140.041463670000013,35.2704402],[140.04132145,35.27026776],[140.041179230000012,35.27009533],[140.04103701,35.26992288],[140.04089478,35.26975044],[140.040752559999987,35.269578],[140.04061034,35.26940557],[140.040468120000014,35.26923313],[140.04031297,35.26908251],[140.040170749999987,35.26891007],[140.04008872,35.26885436],[140.03996138,35.26885093],[140.0398162,35.2688906],[140.039647699999989,35.26896776],[140.03951837,35.26897755],[140.03937492,35.26901559],[140.03930401,35.26901369],[140.03914884,35.26898466],[140.03901694000001,35.26904101],[140.03890816,35.26914553],[140.03890855,35.26930352],[140.0380846,35.26830328],[140.03781332,35.26806692],[140.03763937,35.26791529],[140.03746529,35.26776354],[140.03754425,35.26754829],[140.03779153,35.26750051],[140.0379044,35.26746294],[140.038025299999987,35.26748905],[140.03819514,35.26745052],[140.038191649999987,35.26750717],[140.038215650000012,35.26759594],[140.03825016,35.26765016],[140.03830484,35.26771267],[140.0383937,35.26778441],[140.038519619999988,35.26784645],[140.03859288000001,35.26786074],[140.03884607,35.26784594],[140.03909926,35.26783115],[140.03935245,35.26781637],[140.041187150000013,35.26771373],[140.04126725,35.26776725],[140.04137644,35.26782669],[140.046259639999988,35.26758798],[140.046314310000014,35.26768929],[140.04624039,35.26779083],[140.04615677000001,35.26796539],[140.046167020000013,35.26810734],[140.046177770000014,35.26843587],[140.04625779,35.26878051],[140.04643646,35.26901951],[140.046496319999989,35.26921816],[140.04661048,35.26937615],[140.04676157,35.26946918],[140.0468952,35.26950545],[140.047103,35.26953753],[140.047320539999987,35.26950876],[140.04755304,35.26952863],[140.04779058,35.26958094],[140.051380669999986,35.26937578],[140.05147503,35.26952569],[140.05161872,35.26962278],[140.05178218,35.26971578],[140.051955459999988,35.26978442],[140.05212376,35.26983685],[140.05238103,35.26986883],[140.05272702,35.26979114],[140.05292006,35.26984757],[140.05311304,35.26988373],[140.05328619,35.26989964],[140.057833749999986,35.26968122]]]}},
{"type":"Feature","properties":{"現象":2,"区分":2,"箇所番号":"Ⅰ-22500701","箇所名":"四ノ宮沢"},"geometry":{"type":"Polygon","coordinates":[[[140.0375061,35.26765285],[140.037518940000012,35.26761783],[140.03774101,35.26763825],[140.03769775,35.26775618],[140.0374914,35.2676929],[140.0375061,35.26765285]]]}},
{"type":"Feature","properties":{"現象":1,"区分":2,"箇所番号":"Ⅰ-150008","箇所名":"久留里市場2"},"geometry":{"type":"Polygon","coordinates":[[[140.08353624854999,35.298152803026802],[140.08347433341001,35.297922128031303],[140.083264273053004,35.2979593734171],[140.083264200553998,35.297959752165099],[140.083037108181003,35.297983855386398],[140.082774648874988,35.2980211649705],[140.082735284052006,35.298308241552],[140.082750355755991,35.298328632184301],[140.082785372941004,35.298376010813101],[140.082898620213996,35.298367914653802],[140.083139226722011,35.298296670830098],[140.083351492831014,35.298250249107603],[140.083351469498012,35.298250170732103],[140.083558380179994,35.298235259082396],[140.083551989629996,35.2982114485945],[140.08353624854999,35.298152803026802]]]}},
{"type":"Feature","properties":{"現象":1,"区分":2,"箇所番号":"Ⅰ-150008","箇所名":"久留里市場2"},"geometry":{"type":"Polygon","coordinates":[[[140.082647410887006,35.297702278578797],[140.082595674726008,35.297433383355902],[140.082587590147995,35.2974334847734],[140.082536443891996,35.297434125754201],[140.082549220196,35.297707413807302],[140.082599007157995,35.297900390641999],[140.082635876781012,35.298126864877403],[140.082782590530996,35.298180078591201],[140.082780412145013,35.298138300296699],[140.082778694262004,35.298105368524901],[140.082773941314002,35.298014210144501],[140.082721568040995,35.2979975175571],[140.082672511888006,35.297886576947],[140.082647410887006,35.297702278578797]]]}},
{"type":"Feature","properties":{"現象":1,"区分":2,"箇所番号":"Ⅰ-150008","箇所名":"久留里市場2"},"geometry":{"type":"Polygon","coordinates":[[[140.082567799477005,35.295928820036004],[140.082482659698002,35.295913511918997],[140.082375099638995,35.295997466113803],[140.082449455947,35.296239319906199],[140.082409594810997,35.296533863084697],[140.082469934854998,35.296802463047598],[140.082473327972991,35.296993459670503],[140.082472567833008,35.297184345866],[140.082521434954998,35.297377998913902],[140.082572764464004,35.297377963318297],[140.082582540413995,35.297377956666701],[140.082625455981997,35.297188009300498],[140.08260777049901,35.297007263432199],[140.082677118660001,35.296751383618698],[140.082624578685994,35.2965468787391],[140.082661446620989,35.296258909447602],[140.082628371330003,35.296025716213698],[140.082714538633013,35.295955203829998],[140.082567799477005,35.295928820036004]]]}},
{"type":"Feature","properties":{"現象":1,"区分":1,"箇所番号":"Ⅰ-150008","箇所名":"久留里市場2"},"geometry":{"type":"Polygon","coordinates":[[[140.083237219983999,35.298596849532402],[140.083428365396003,35.298506637843701],[140.083635021404007,35.2985207938953],[140.083551989629996,35.2982114485945],[140.08353624854999,35.298152803026802],[140.083454856045989,35.297849564091898],[140.083431226295005,35.297761527694398],[140.08321547682101,35.297796479833899],[140.083215251473007,35.297796854391002],[140.082987195308988,35.297830954498203],[140.082766481235012,35.297860626544498],[140.082645591382999,35.298186838181998],[140.082645516735994,35.298186877998702],[140.082534044061987,35.298284821473501],[140.082547793814001,35.298301564994098],[140.082595448924991,35.298359597670199],[140.082622029107995,35.298391964320103],[140.082660220160989,35.298438471968801],[140.082683434133997,35.298466740469699],[140.082833528532007,35.2984411636074],[140.082833548405006,35.298441189707503],[140.083089690688013,35.298688667216197],[140.083237219983999,35.298596849532402]]]}},
{"type":"Feature","properties":{"現象":1,"区分":1,"箇所番号":"Ⅰ-150008","箇所名":"久留里市場2"},"geometry":{"type":"Polygon","coordinates":[[[140.082802640891998,35.297694159848902],[140.082756138153997,35.297431372752399],[140.082756084278003,35.297431372863699],[140.082741375512001,35.297377791052298],[140.082813742926987,35.297192520687098],[140.082794836777992,35.297026469677697],[140.082851465628011,35.2967083997545],[140.082804013864006,35.296557741821097],[140.082838950996006,35.296275311209897],[140.082818814903987,35.296077251348002],[140.082878958110996,35.296051450947502],[140.082792316516986,35.295995951653303],[140.082734231989008,35.295958744527702],[140.082567799477005,35.295928820036004],[140.082316494698006,35.295883634304197],[140.082288562551014,35.295878612352297],[140.082161062435006,35.295973592208],[140.082250126645988,35.2962209000912],[140.082209542019996,35.296521751061],[140.082280430985008,35.296849183356699],[140.082358703089994,35.296981690882198],[140.082342368031988,35.297181225899401],[140.082440821576,35.297378054322103],[140.082440820767999,35.297378148973202],[140.082460055066008,35.297434956698098],[140.082460058753014,35.297435082889798],[140.082421889777009,35.2977140738667],[140.082462084490999,35.297926123033598],[140.082555133293994,35.298248744447598],[140.08279013425701,35.298324754139898],[140.082780412145013,35.298138300296699],[140.082778694262004,35.298105368524901],[140.08277062820801,35.297950680132097],[140.082769312316003,35.297925447490897],[140.082805353587986,35.297871044243998],[140.082813953119995,35.297859995759097],[140.082802640891998,35.297694159848902]]]}}
]
}
