{
"type": "FeatureCollection",
"name": "evacuation",
"crs": { "type": "name", "properties": { "name": "urn:ogc:def:crs:OGC:1.3:CRS84" } },
"xy_coordinate_resolution": 1e-07,
"features": [
{ "type": "Feature", "properties": { "NO": "487", "共通ID": "E1222500001201", "施設・場所名": "外箕輪小学校", "住所": "千葉県君津市外箕輪1-34-1", "洪水": "1", "崖崩れ、土石流及び地滑り": "1", "高潮": "1", "地震": "1", "津波": "1", "大規模な火事": "", "内水氾濫": "", "火山現象": "", "指定避難所との住所同一": "1", "備考": "", "name": "外箕輪小学校", "address": "千葉県君津市外箕輪1-34-1", "hazard_landslide": "1", "layer": "evacuation" }, "geometry": { "type": "Point", "coordinates": [ 139.922163, 35.315448 ] } },
{ "type": "Feature", "properties": { "NO": "488", "共通ID": "E1222500002201", "施設・場所名": "生涯学習交流センター", "住所": "千葉県君津市久保2-13-2", "洪水": "1", "崖崩れ、土石流及び地滑り": "1", "高潮": "1", "地震": "1", "津波": "1", "大規模な火事": "", "内水氾濫": "", "火山現象": "", "指定避難所との住所同一": "1", "備考": "", "name": "生涯学習交流センター", "address": "千葉県君津市久保2-13-2", "hazard_landslide": "1", "layer": "evacuation" }, "geometry": { "type": "Point", "coordinates": [ 139.901343, 35.329958 ] } },
{ "type": "Feature", "properties": { "NO": "489", "共通ID": "E1222500003201", "施設・場所名": "君津中央公園", "住所": "千葉県君津市久保5-1-1", "洪水": "1", "崖崩れ、土石流及び地滑り": "1", "高潮": "1", "地震": "1", "津波": "1", "大規模な火事": "", "内水氾濫": "", "火山現象": "", "指定避難所との住所同一": "", "備考": "", "name": "君津中央公園", "address": "千葉県君津市久保5-1-1", "hazard_landslide": "1", "layer": "evacuation" }, "geometry": { "type": "Point", "coordinates": [ 139.907172, 35.32794 ] } },
{ "type": "Feature", "properties": { "NO": "490", "共通ID": "E1222500004202", "施設・場所名": "上総小学校", "住所": "千葉県君津市久留里474", "洪水": "1", "崖崩れ、土石流及び地滑り": "1", "高潮": "1", "地震": "1", "津波": "1", "大規模な火事": "", "内水氾濫": "", "火山現象": "", "指定避難所との住所同一": "1", "備考": "", "name": "上総小学校", "address": "千葉県君津市久留里474", "hazard_landslide": "1", "layer": "evacuation" }, "geometry": { "type": "Point", "coordinates": [ 140.082265, 35.296319 ] } },
{ "type": "Feature", "properties": { "NO": "491", "共通ID": "E1222500004201", "施設・場所名": "旧久留里中学校", "住所": "千葉県君津市久留里474", "洪水": "1", "崖崩れ、土石流及び地滑り": "1", "高潮": "1", "地震": "1", "津波": "1", "大規模な火事": "", "内水氾濫": "", "火山現象": "", "指定避難所との住所同一": "1", "備考": "", "name": "旧久留里中学校", "address": "千葉県君津市久留里474", "hazard_landslide": "1", "layer": "evacuation" }, "geometry": { "type": "Point", "coordinates": [ 140.082321, 35.297703 ] } },
{ "type": "Feature", "properties": { "NO": "492", "共通ID": "E1222500005201", "施設・場所名": "上総地域交流センター", "住所": "千葉県君津市久留里市場192-5", "洪水": "1", "崖崩れ、土石流及び地滑り": "1", "高潮": "1", "地震": "1", "津波": "1", "大規模な火事": "", "内水氾濫": "", "火山現象": "", "指定避難所との住所同一": "1", "備考": "", "name": "上総地域交流センター", "address": "千葉県君津市久留里市場192-5", "hazard_landslide": "1", "layer": "evacuation" }, "geometry": { "type": "Point", "coordinates": [ 140.07655, 35.295348 ] } },
{ "type": "Feature", "properties": { "NO": "493", "共通ID": "E1222500006201", "施設・場所名": "久留里スポーツ広場", "住所": "千葉県君津市久留里市場368-1", "洪水": "1", "崖崩れ、土石流及び地滑り": "1", "高潮": "1", "地震": "1", "津波": "1", "大規模な火事": "", "内水氾濫": "", "火山現象": "", "指定避難所との住所同一": "", "備考": "", "name": "久留里スポーツ広場", "address": "千葉県君津市久留里市場368-1", "hazard_landslide": "1", "layer": "evacuation" }, "geometry": { "type": "Point", "coordinates": [ 140.073704, 35.296463 ] } },
{ "type": "Feature", "properties": { "NO": "494", "共通ID": "E1222500007201", "施設・場所名": "周南中学校", "住所": "千葉県君津市宮下1-4-1", "洪水": "1", "崖崩れ、土石流及び地滑り": "1", "高潮": "1", "地震": "1", "津波": "1", "大規模な火事": "", "内水氾濫": "", "火山現象": "", "指定避難所との住所同一": "1", "備考": "", "name": "周南中学校", "address": "千葉県君津市宮下1-4-1", "hazard_landslide": "1", "layer": "evacuation" }, "geometry": { "type": "Point", "coordinates": [ 139.927691, 35.300909 ] } },
{ "type": "Feature", "properties": { "NO": "495", "共通ID": "E1222500008201", "施設・場所名": "周南小学校", "住所": "千葉県君津市宮下2-25-5", "洪水": "1", "崖崩れ、土石流及び地滑り": "1", "高潮": "1", "地震": "1", "津波": "1", "大規模な火事": "", "内水氾濫": "", "火山現象": "", "指定避難所との住所同一": "1", "備考": "", "name": "周南小学校", "address": "千葉県君津市宮下2-25-5", "hazard_landslide": "1", "layer": "evacuation" }, "geometry": { "type": "Point", "coordinates": [ 139.930523, 35.298575 ] } },
{ "type": "Feature", "properties": { "NO": "496", "共通ID": "E1222500009201", "施設・場所名": "旧松丘小学校", "住所": "千葉県君津市広岡1000", "洪水": "1", "崖崩れ、土石流及び地滑り": "1", "高潮": "1", "地震": "1", "津波": "1", "大規模な火事": "", "内水氾濫": "", "火山現象": "", "指定避難所との住所同一": "1", "備考": "", "name": "旧松丘小学校", "address": "千葉県君津市広岡1000", "hazard_landslide": "1", "layer": "evacuation" }, "geometry": { "type": "Point", "coordinates": [ 140.059757, 35.253064 ] } },
{ "type": "Feature", "properties": { "NO": "497", "共通ID": "E1222500010201", "施設・場所名": "松丘コミュニティセンター", "住所": "千葉県君津市広岡1840-1", "洪水": "1", "崖崩れ、土石流及び地滑り": "1", "高潮": "1", "地震": "1", "津波": "1", "大規模な火事": "", "内水氾濫": "", "火山現象": "", "指定避難所との住所同一": "1", "備考": "", "name": "松丘コミュニティセンター", "address": "千葉県君津市広岡1840-1", "hazard_landslide": "1", "layer": "evacuation" }, "geometry": { "type": "Point", "coordinates": [ 140.057557, 35.259748 ] } },
{ "type": "Feature", "properties": { "NO": "498", "共通ID": "E1222500011201", "施設・場所名": "かずさあけぼの保育園", "住所": "千葉県君津市広岡955-3", "洪水": "1", "崖崩れ、土石流及び地滑り": "1", "高潮": "1", "地震": "1", "津波": "1", "大規模な火事": "", "内水氾濫": "", "火山現象": "", "指定避難所との住所同一": "1", "備考": "", "name": "かずさあけぼの保育園", "address": "千葉県君津市広岡955-3", "hazard_landslide": "1", "layer": "evacuation" }, "geometry": { "type": "Point", "coordinates": [ 140.057614, 35.252712 ] } },
{ "type": "Feature", "properties": { "NO": "499", "共通ID": "E1222500012201", "施設・場所名": "旧松丘中学校", "住所": "千葉県君津市広岡994", "洪水": "1", "崖崩れ、土石流及び地滑り": "1", "高潮": "1", "地震": "1", "津波": "1", "大規模な火事": "", "内水氾濫": "", "火山現象": "", "指定避難所との住所同一": "1", "備考": "", "name": "旧松丘中学校", "address": "千葉県君津市広岡994", "hazard_landslide": "1", "layer": "evacuation" }, "geometry": { "type": "Point", "coordinates": [ 140.058633, 35.252913 ] } },
{ "type": "Feature", "properties": { "NO": "500", "共通ID": "E1222500072201", "施設・場所名": "生きがい支援センター", "住所": "千葉県君津市糠田103-1", "洪水": "1", "崖崩れ、土石流及び地滑り": "1", "高潮": "1", "地震": "1", "津波": "1", "大規模な火事": "", "内水氾濫": "", "火山現象": "", "指定避難所との住所同一": "1", "備考": "", "name": "生きがい支援センター", "address": "千葉県君津市糠田103-1", "hazard_landslide": "1", "layer": "evacuation" }, "geometry": { "type": "Point", "coordinates": [ 139.968949, 35.304479 ] } },
{ "type": "Feature", "properties": { "NO": "501", "共通ID": "E1222500013201", "施設・場所名": "小糸公民館", "住所": "千葉県君津市糠田55", "洪水": "1", "崖崩れ、土石流及び地滑り": "1", "高潮": "1", "地震": "", "津波": "1", "大規模な火事": "", "内水氾濫": "", "火山現象": "", "指定避難所との住所同一": "1", "備考": "", "name": "小糸公民館", "address": "千葉県君津市糠田55", "hazard_landslide": "1", "layer": "evacuation" }, "geometry": { "type": "Point", "coordinates": [ 139.969501, 35.305331 ] } },
{ "type": "Feature", "properties": { "NO": "502", "共通ID": "E1222500014201", "施設・場所名": "旧香木原小学校", "住所": "千葉県君津市香木原269", "洪水": "1", "崖崩れ、土石流及び地滑り": "1", "高潮": "1", "地震": "", "津波": "1", "大規模な火事": "", "内水氾濫": "", "火山現象": "", "指定避難所との住所同一": "1", "備考": "", "name": "旧香木原小学校", "address": "千葉県君津市香木原269", "hazard_landslide": "1", "layer": "evacuation" }, "geometry": { "type": "Point", "coordinates": [ 140.059634, 35.173604 ] } },
{ "type": "Feature", "properties": { "NO": "507", "共通ID": "E1222500019201", "施設・場所名": "旧亀山中学校", "住所": "千葉県君津市坂畑223-1", "洪水": "1", "崖崩れ、土石流及び地滑り": "1", "高潮": "1", "地震": "1", "津波": "1", "大規模な火事": "", "内水氾濫": "", "火山現象": "", "指定避難所との住所同一": "1", "備考": "", "name": "旧亀山中学校", "address": "千葉県君津市坂畑223-1", "hazard_landslide": "1", "layer": "evacuation" }, "geometry": { "type": "Point", "coordinates": [ 140.097289, 35.234426 ] } },
{ "type": "Feature", "properties": { "NO": "508", "共通ID": "E1222500020201", "施設・場所名": "旧坂畑小学校", "住所": "千葉県君津市坂畑223-2", "洪水": "1", "崖崩れ、土石流及び地滑り": "1", "高潮": "1", "地震": "1", "津波": "1", "大規模な火事": "", "内水氾濫": "", "火山現象": "", "指定避難所との住所同一": "1", "備考": "", "name": "旧坂畑小学校", "address": "千葉県君津市坂畑223-2", "hazard_landslide": "1", "layer": "evacuation" }, "geometry": { "type": "Point", "coordinates": [ 140.097541, 35.234132 ] } },
{ "type": "Feature", "properties": { "NO": "509", "共通ID": "E1222500021201", "施設・場所名": "亀山コミュニティセンター", "住所": "千葉県君津市坂畑321-1", "洪水": "1", "崖崩れ、土石流及び地滑り": "1", "高潮": "1", "地震": "1", "津波": "1", "大規模な火事": "", "内水氾濫": "", "火山現象": "", "指定避難所との住所同一": "1", "備考": "", "name": "亀山コミュニティセンター", "address": "千葉県君津市坂畑321-1", "hazard_landslide": "1", "layer": "evacuation" }, "geometry": { "type": "Point", "coordinates": [ 140.096615, 35.232885 ] } },
{ "type": "Feature", "properties": { "NO": "510", "共通ID": "E1222500022201", "施設・場所名": "八重原中学校", "住所": "千葉県君津市三直1305", "洪水": "1", "崖崩れ、土石流及び地滑り": "1", "高潮": "1", "地震": "1", "津波": "1", "大規模な火事": "", "内水氾濫": "", "火山現象": "", "指定避難所との住所同一": "1", "備考": "", "name": "八重原中学校", "address": "千葉県君津市三直1305", "hazard_landslide": "1", "layer": "evacuation" }, "geometry": { "type": "Point", "coordinates": [ 139.937207, 35.323816 ] } },
{ "type": "Feature", "properties": { "NO": "511", "共通ID": "E1222500023201", "施設・場所名": "君津市民文化ホール", "住所": "千葉県君津市三直622", "洪水": "1", "崖崩れ、土石流及び地滑り": "1", "高潮": "1", "地震": "1", "津波": "1", "大規模な火事": "", "内水氾濫": "", "火山現象": "", "指定避難所との住所同一": "", "備考": "", "name": "君津市民文化ホール", "address": "千葉県君津市三直622", "hazard_landslide": "1", "layer": "evacuation" }, "geometry": { "type": "Point", "coordinates": [ 139.934347, 35.317717 ] } },
{ "type": "Feature", "properties": { "NO": "512", "共通ID": "E1222500024201", "施設・場所名": "君津高等学校上総キャンパス", "住所": "千葉県君津市上957", "洪水": "1", "崖崩れ、土石流及び地滑り": "1", "高潮": "1", "地震": "1", "津波": "1", "大規模な火事": "", "内水氾濫": "", "火山現象": "", "指定避難所との住所同一": "1", "備考": "", "name": "君津高等学校上総キャンパス", "address": "千葉県君津市上957", "hazard_landslide": "1", "layer": "evacuation" }, "geometry": { "type": "Point", "coordinates": [ 139.961563, 35.308335 ] } },
{ "type": "Feature", "properties": { "NO": "513", "共通ID": "E1222500025201", "施設・場所名": "貞元コミュニティセンター", "住所": "千葉県君津市上湯江1287-3", "洪水": "1", "崖崩れ、土石流及び地滑り": "1", "高潮": "1", "地震": "1", "津波": "1", "大規模な火事": "", "内水氾濫": "", "火山現象": "", "指定避難所との住所同一": "1", "備考": "", "name": "貞元コミュニティセンター", "address": "千葉県君津市上湯江1287-3", "hazard_landslide": "1", "layer": "evacuation" }, "geometry": { "type": "Point", "coordinates": [ 139.900158, 35.319624 ] } },
{ "type": "Feature", "properties": { "NO": "514", "共通ID": "E1222500026201", "施設・場所名": "貞元小学校", "住所": "千葉県君津市上湯江1655", "洪水": "1", "崖崩れ、土石流及び地滑り": "1", "高潮": "1", "地震": "1", "津波": "1", "大規模な火事": "", "内水氾濫": "", "火山現象": "", "指定避難所との住所同一": "1", "備考": "", "name": "貞元小学校", "address": "千葉県君津市上湯江1655", "hazard_landslide": "1", "layer": "evacuation" }, "geometry": { "type": "Point", "coordinates": [ 139.899881, 35.320849 ] } },
{ "type": "Feature", "properties": { "NO": "515", "共通ID": "E1222500027201", "施設・場所名": "上湯江保育園", "住所": "千葉県君津市上湯江1716-1", "洪水": "1", "崖崩れ、土石流及び地滑り": "1", "高潮": "1", "地震": "", "津波": "1", "大規模な火事": "", "内水氾濫": "", "火山現象": "", "指定避難所との住所同一": "1", "備考": "", "name": "上湯江保育園", "address": "千葉県君津市上湯江1716-1", "hazard_landslide": "1", "layer": "evacuation" }, "geometry": { "type": "Point", "coordinates": [ 139.901345, 35.32047 ] } },
{ "type": "Feature", "properties": { "NO": "516", "共通ID": "E1222500028201", "施設・場所名": "常代保育園", "住所": "千葉県君津市常代2-15-1", "洪水": "1", "崖崩れ、土石流及び地滑り": "1", "高潮": "1", "地震": "", "津波": "1", "大規模な火事": "", "内水氾濫": "", "火山現象": "", "指定避難所との住所同一": "1", "備考": "", "name": "常代保育園", "address": "千葉県君津市常代2-15-1", "hazard_landslide": "1", "layer": "evacuation" }, "geometry": { "type": "Point", "coordinates": [ 139.921511, 35.309143 ] } },
{ "type": "Feature", "properties": { "NO": "523", "共通ID": "E1222500034201", "施設・場所名": "旧三島小学校", "住所": "千葉県君津市正木149", "洪水": "1", "崖崩れ、土石流及び地滑り": "1", "高潮": "1", "地震": "1", "津波": "1", "大規模な火事": "", "内水氾濫": "", "火山現象": "", "指定避難所との住所同一": "1", "備考": "", "name": "旧三島小学校", "address": "千葉県君津市正木149", "hazard_landslide": "1", "layer": "evacuation" }, "geometry": { "type": "Point", "coordinates": [ 140.025462, 35.218683 ] } },
{ "type": "Feature", "properties": { "NO": "524", "共通ID": "E1222500075201", "施設・場所名": "清和地域拠点複合施設", "住所": "千葉県君津市西粟倉36", "洪水": "1", "崖崩れ、土石流及び地滑り": "1", "高潮": "1", "地震": "1", "津波": "1", "大規模な火事": "", "内水氾濫": "", "火山現象": "", "指定避難所との住所同一": "1", "備考": "", "name": "清和地域拠点複合施設", "address": "千葉県君津市西粟倉36", "hazard_landslide": "1", "layer": "evacuation" }, "geometry": { "type": "Point", "coordinates": [ 139.996218, 35.253881 ] } },
{ "type": "Feature", "properties": { "NO": "526", "共通ID": "E1222500039201", "施設・場所名": "君津青葉高等学校", "住所": "千葉県君津市青柳48", "洪水": "1", "崖崩れ、土石流及び地滑り": "1", "高潮": "1", "地震": "1", "津波": "1", "大規模な火事": "", "内水氾濫": "", "火山現象": "", "指定避難所との住所同一": "1", "備考": "", "name": "君津青葉高等学校", "address": "千葉県君津市青柳48", "hazard_landslide": "1", "layer": "evacuation" }, "geometry": { "type": "Point", "coordinates": [ 140.071904, 35.301166 ] } },
{ "type": "Feature", "properties": { "NO": "528", "共通ID": "E1222500041201", "施設・場所名": "久保保育園", "住所": "千葉県君津市台2-15-16", "洪水": "1", "崖崩れ、土石流及び地滑り": "1", "高潮": "1", "地震": "", "津波": "1", "大規模な火事": "", "内水氾濫": "", "火山現象": "", "指定避難所との住所同一": "1", "備考": "", "name": "久保保育園", "address": "千葉県君津市台2-15-16", "hazard_landslide": "1", "layer": "evacuation" }, "geometry": { "type": "Point", "coordinates": [ 139.901841, 35.326415 ] } },
{ "type": "Feature", "properties": { "NO": "529", "共通ID": "E1222500042201", "施設・場所名": "旧小糸小学校", "住所": "千葉県君津市大井戸1061", "洪水": "1", "崖崩れ、土石流及び地滑り": "1", "高潮": "1", "地震": "1", "津波": "1", "大規模な火事": "", "内水氾濫": "", "火山現象": "", "指定避難所との住所同一": "1", "備考": "", "name": "旧小糸小学校", "address": "千葉県君津市大井戸1061", "hazard_landslide": "1", "layer": "evacuation" }, "geometry": { "type": "Point", "coordinates": [ 139.987407, 35.29062 ] } },
{ "type": "Feature", "properties": { "NO": "530", "共通ID": "E1222500043201", "施設・場所名": "小糸保育園", "住所": "千葉県君津市大井戸467-2", "洪水": "1", "崖崩れ、土石流及び地滑り": "1", "高潮": "1", "地震": "", "津波": "1", "大規模な火事": "", "内水氾濫": "", "火山現象": "", "指定避難所との住所同一": "1", "備考": "", "name": "小糸保育園", "address": "千葉県君津市大井戸467-2", "hazard_landslide": "1", "layer": "evacuation" }, "geometry": { "type": "Point", "coordinates": [ 139.985351, 35.290798 ] } },
{ "type": "Feature", "properties": { "NO": "531", "共通ID": "E1222500044201", "施設・場所名": "周南公民館", "住所": "千葉県君津市大山野26", "洪水": "1", "崖崩れ、土石流及び地滑り": "1", "高潮": "1", "地震": "", "津波": "1", "大規模な火事": "", "内水氾濫": "", "火山現象": "", "指定避難所との住所同一": "1", "備考": "", "name": "周南公民館", "address": "千葉県君津市大山野26", "hazard_landslide": "1", "layer": "evacuation" }, "geometry": { "type": "Point", "coordinates": [ 139.93018, 35.295541 ] } },
{ "type": "Feature", "properties": { "NO": "534", "共通ID": "E1222500047201", "施設・場所名": "中保育園", "住所": "千葉県君津市中島252-1", "洪水": "1", "崖崩れ、土石流及び地滑り": "1", "高潮": "1", "地震": "", "津波": "1", "大規模な火事": "", "内水氾濫": "", "火山現象": "", "指定避難所との住所同一": "1", "備考": "", "name": "中保育園", "address": "千葉県君津市中島252-1", "hazard_landslide": "1", "layer": "evacuation" }, "geometry": { "type": "Point", "coordinates": [ 139.956608, 35.30483 ] } },
{ "type": "Feature", "properties": { "NO": "535", "共通ID": "E1222500048201", "施設・場所名": "学校給食共同調理場", "住所": "千葉県君津市中島364-1", "洪水": "1", "崖崩れ、土石流及び地滑り": "1", "高潮": "1", "地震": "1", "津波": "1", "大規模な火事": "", "内水氾濫": "", "火山現象": "", "指定避難所との住所同一": "", "備考": "", "name": "学校給食共同調理場", "address": "千葉県君津市中島364-1", "hazard_landslide": "1", "layer": "evacuation" }, "geometry": { "type": "Point", "coordinates": [ 139.962412, 35.306445 ] } },
{ "type": "Feature", "properties": { "NO": "536", "共通ID": "E1222500049201", "施設・場所名": "小糸小学校", "住所": "千葉県君津市中島678", "洪水": "1", "崖崩れ、土石流及び地滑り": "1", "高潮": "1", "地震": "1", "津波": "1", "大規模な火事": "", "内水氾濫": "", "火山現象": "", "指定避難所との住所同一": "1", "備考": "", "name": "小糸小学校", "address": "千葉県君津市中島678", "hazard_landslide": "1", "layer": "evacuation" }, "geometry": { "type": "Point", "coordinates": [ 139.958342, 35.304385 ] } },
{ "type": "Feature", "properties": { "NO": "537", "共通ID": "E1222500050201", "施設・場所名": "周西南中学校", "住所": "千葉県君津市中野2-30-1", "洪水": "1", "崖崩れ、土石流及び地滑り": "1", "高潮": "1", "地震": "1", "津波": "1", "大規模な火事": "", "内水氾濫": "", "火山現象": "", "指定避難所との住所同一": "1", "備考": "", "name": "周西南中学校", "address": "千葉県君津市中野2-30-1", "hazard_landslide": "1", "layer": "evacuation" }, "geometry": { "type": "Point", "coordinates": [ 139.897089, 35.32706 ] } },
{ "type": "Feature", "properties": { "NO": "538", "共通ID": "E1222500051201", "施設・場所名": "周西小学校", "住所": "千葉県君津市中野3-14-1", "洪水": "1", "崖崩れ、土石流及び地滑り": "1", "高潮": "1", "地震": "1", "津波": "1", "大規模な火事": "", "内水氾濫": "", "火山現象": "", "指定避難所との住所同一": "1", "備考": "", "name": "周西小学校", "address": "千葉県君津市中野3-14-1", "hazard_landslide": "1", "layer": "evacuation" }, "geometry": { "type": "Point", "coordinates": [ 139.888908, 35.32954 ] } },
{ "type": "Feature", "properties": { "NO": "539", "共通ID": "E1222500052201", "施設・場所名": "周東中学校", "住所": "千葉県君津市塚原120", "洪水": "1", "崖崩れ、土石流及び地滑り": "1", "高潮": "1", "地震": "1", "津波": "1", "大規模な火事": "", "内水氾濫": "", "火山現象": "", "指定避難所との住所同一": "1", "備考": "", "name": "周東中学校", "address": "千葉県君津市塚原120", "hazard_landslide": "1", "layer": "evacuation" }, "geometry": { "type": "Point", "coordinates": [ 139.979604, 35.299998 ] } },
{ "type": "Feature", "properties": { "NO": "540", "共通ID": "E1222500053201", "施設・場所名": "小糸スポーツ広場", "住所": "千葉県君津市塚原51", "洪水": "1", "崖崩れ、土石流及び地滑り": "1", "高潮": "1", "地震": "1", "津波": "1", "大規模な火事": "", "内水氾濫": "", "火山現象": "", "指定避難所との住所同一": "", "備考": "", "name": "小糸スポーツ広場", "address": "千葉県君津市塚原51", "hazard_landslide": "1", "layer": "evacuation" }, "geometry": { "type": "Point", "coordinates": [ 139.980286, 35.300854 ] } },
{ "type": "Feature", "properties": { "NO": "541", "共通ID": "E1222500054201", "施設・場所名": "貞元グラウンド", "住所": "千葉県君津市貞元290-1", "洪水": "1", "崖崩れ、土石流及び地滑り": "1", "高潮": "1", "地震": "1", "津波": "1", "大規模な火事": "", "内水氾濫": "", "火山現象": "", "指定避難所との住所同一": "", "備考": "", "name": "貞元グラウンド", "address": "千葉県君津市貞元290-1", "hazard_landslide": "1", "layer": "evacuation" }, "geometry": { "type": "Point", "coordinates": [ 139.903857, 35.322109 ] } },
{ "type": "Feature", "properties": { "NO": "542", "共通ID": "E1222500055201", "施設・場所名": "旧福野小学校", "住所": "千葉県君津市怒田923", "洪水": "1", "崖崩れ、土石流及び地滑り": "", "高潮": "1", "地震": "", "津波": "1", "大規模な火事": "", "内水氾濫": "", "火山現象": "", "指定避難所との住所同一": "1", "備考": "", "name": "旧福野小学校", "address": "千葉県君津市怒田923", "hazard_landslide": "", "layer": "evacuation" }, "geometry": { "type": "Point", "coordinates": [ 140.117066, 35.267127 ] } },
{ "type": "Feature", "properties": { "NO": "543", "共通ID": "E1222500056201", "施設・場所名": "清和保育園", "住所": "千葉県君津市東日笠515", "洪水": "1", "崖崩れ、土石流及び地滑り": "1", "高潮": "1", "地震": "", "津波": "1", "大規模な火事": "", "内水氾濫": "", "火山現象": "", "指定避難所との住所同一": "1", "備考": "", "name": "清和保育園", "address": "千葉県君津市東日笠515", "hazard_landslide": "1", "layer": "evacuation" }, "geometry": { "type": "Point", "coordinates": [ 140.00277, 35.234078 ] } },
{ "type": "Feature", "properties": { "NO": "544", "共通ID": "E1222500057201", "施設・場所名": "清和小学校", "住所": "千葉県君津市東日笠522", "洪水": "1", "崖崩れ、土石流及び地滑り": "1", "高潮": "1", "地震": "1", "津波": "1", "大規模な火事": "", "内水氾濫": "", "火山現象": "", "指定避難所との住所同一": "1", "備考": "", "name": "清和小学校", "address": "千葉県君津市東日笠522", "hazard_landslide": "1", "layer": "evacuation" }, "geometry": { "type": "Point", "coordinates": [ 140.001544, 35.234679 ] } },
{ "type": "Feature", "properties": { "NO": "545", "共通ID": "E1222500058201", "施設・場所名": "内みのわ運動公園", "住所": "千葉県君津市内箕輪1-1-1", "洪水": "1", "崖崩れ、土石流及び地滑り": "1", "高潮": "1", "地震": "1", "津波": "1", "大規模な火事": "", "内水氾濫": "", "火山現象": "", "指定避難所との住所同一": "1", "備考": "", "name": "内みのわ運動公園", "address": "千葉県君津市内箕輪1-1-1", "hazard_landslide": "1", "layer": "evacuation" }, "geometry": { "type": "Point", "coordinates": [ 139.927077, 35.325135 ] } },
{ "type": "Feature", "properties": { "NO": "546", "共通ID": "E1222500060201", "施設・場所名": "旧内箕輪保育園", "住所": "千葉県君津市内蓑輪61-1", "洪水": "1", "崖崩れ、土石流及び地滑り": "1", "高潮": "1", "地震": "1", "津波": "1", "大規模な火事": "", "内水氾濫": "", "火山現象": "", "指定避難所との住所同一": "", "備考": "", "name": "旧内箕輪保育園", "address": "千葉県君津市内蓑輪61-1", "hazard_landslide": "1", "layer": "evacuation" }, "geometry": { "type": "Point", "coordinates": [ 139.931948, 35.322684 ] } },
{ "type": "Feature", "properties": { "NO": "547", "共通ID": "E1222500061201", "施設・場所名": "旧南子安保育園", "住所": "千葉県君津市南子安3-27-1", "洪水": "1", "崖崩れ、土石流及び地滑り": "1", "高潮": "1", "地震": "", "津波": "1", "大規模な火事": "", "内水氾濫": "", "火山現象": "", "指定避難所との住所同一": "1", "備考": "", "name": "旧南子安保育園", "address": "千葉県君津市南子安3-27-1", "hazard_landslide": "1", "layer": "evacuation" }, "geometry": { "type": "Point", "coordinates": [ 139.915997, 35.326003 ] } },
{ "type": "Feature", "properties": { "NO": "548", "共通ID": "E1222500062201", "施設・場所名": "南子安小学校", "住所": "千葉県君津市南子安5-10-1", "洪水": "1", "崖崩れ、土石流及び地滑り": "1", "高潮": "1", "地震": "1", "津波": "1", "大規模な火事": "", "内水氾濫": "", "火山現象": "", "指定避難所との住所同一": "1", "備考": "", "name": "南子安小学校", "address": "千葉県君津市南子安5-10-1", "hazard_landslide": "1", "layer": "evacuation" }, "geometry": { "type": "Point", "coordinates": [ 139.916162, 35.324924 ] } },
{ "type": "Feature", "properties": { "NO": "549", "共通ID": "E1222500063201", "施設・場所名": "八重原小学校", "住所": "千葉県君津市南子安9-17-1", "洪水": "1", "崖崩れ、土石流及び地滑り": "1", "高潮": "1", "地震": "1", "津波": "1", "大規模な火事": "", "内水氾濫": "", "火山現象": "", "指定避難所との住所同一": "1", "備考": "", "name": "八重原小学校", "address": "千葉県君津市南子安9-17-1", "hazard_landslide": "1", "layer": "evacuation" }, "geometry": { "type": "Point", "coordinates": [ 139.928679, 35.327908 ] } },
{ "type": "Feature", "properties": { "NO": "550", "共通ID": "E1222500064201", "施設・場所名": "八重原公民館", "住所": "千葉県君津市南子安9-17-2", "洪水": "1", "崖崩れ、土石流及び地滑り": "1", "高潮": "1", "地震": "1", "津波": "1", "大規模な火事": "", "内水氾濫": "", "火山現象": "", "指定避難所との住所同一": "1", "備考": "", "name": "八重原公民館", "address": "千葉県君津市南子安9-17-2", "hazard_landslide": "1", "layer": "evacuation" }, "geometry": { "type": "Point", "coordinates": [ 139.929993, 35.327942 ] } },
{ "type": "Feature", "properties": { "NO": "551", "共通ID": "E1222500065201", "施設・場所名": "上総小櫃中学校", "住所": "千葉県君津市俵田1110", "洪水": "1", "崖崩れ、土石流及び地滑り": "1", "高潮": "1", "地震": "1", "津波": "1", "大規模な火事": "", "内水氾濫": "", "火山現象": "", "指定避難所との住所同一": "1", "備考": "", "name": "上総小櫃中学校", "address": "千葉県君津市俵田1110", "hazard_landslide": "1", "layer": "evacuation" }, "geometry": { "type": "Point", "coordinates": [ 140.053378, 35.322781 ] } },
{ "type": "Feature", "properties": { "NO": "552", "共通ID": "E1222500066201", "施設・場所名": "小櫃小学校", "住所": "千葉県君津市俵田1416", "洪水": "1", "崖崩れ、土石流及び地滑り": "1", "高潮": "1", "地震": "1", "津波": "1", "大規模な火事": "", "内水氾濫": "", "火山現象": "", "指定避難所との住所同一": "1", "備考": "", "name": "小櫃小学校", "address": "千葉県君津市俵田1416", "hazard_landslide": "1", "layer": "evacuation" }, "geometry": { "type": "Point", "coordinates": [ 140.059133, 35.322079 ] } },
{ "type": "Feature", "properties": { "NO": "554", "共通ID": "E1222500068201", "施設・場所名": "小櫃スポーツ広場", "住所": "千葉県君津市末吉1005-1", "洪水": "1", "崖崩れ、土石流及び地滑り": "1", "高潮": "1", "地震": "1", "津波": "1", "大規模な火事": "", "内水氾濫": "", "火山現象": "", "指定避難所との住所同一": "", "備考": "", "name": "小櫃スポーツ広場", "address": "千葉県君津市末吉1005-1", "hazard_landslide": "1", "layer": "evacuation" }, "geometry": { "type": "Point", "coordinates": [ 140.058236, 35.324493 ] } },
{ "type": "Feature", "properties": { "NO": "555", "共通ID": "E1222500073201", "施設・場所名": "老人憩いの家　すえよし", "住所": "千葉県君津市末吉1068-3", "洪水": "1", "崖崩れ、土石流及び地滑り": "1", "高潮": "1", "地震": "1", "津波": "1", "大規模な火事": "", "内水氾濫": "", "火山現象": "", "指定避難所との住所同一": "1", "備考": "", "name": "老人憩いの家　すえよし", "address": "千葉県君津市末吉1068-3", "hazard_landslide": "1", "layer": "evacuation" }, "geometry": { "type": "Point", "coordinates": [ 140.057394, 35.324324 ] } },
{ "type": "Feature", "properties": { "NO": "556", "共通ID": "E1222500069201", "施設・場所名": "小櫃公民館", "住所": "千葉県君津市末吉128", "洪水": "1", "崖崩れ、土石流及び地滑り": "1", "高潮": "1", "地震": "", "津波": "1", "大規模な火事": "", "内水氾濫": "", "火山現象": "", "指定避難所との住所同一": "1", "備考": "", "name": "小櫃公民館", "address": "千葉県君津市末吉128", "hazard_landslide": "1", "layer": "evacuation" }, "geometry": { "type": "Point", "coordinates": [ 140.059175, 35.327811 ] } },
{ "type": "Feature", "properties": { "NO": "557", "共通ID": "E1222500070201", "施設・場所名": "小櫃保育園", "住所": "千葉県君津市末吉437-1", "洪水": "1", "崖崩れ、土石流及び地滑り": "1", "高潮": "1", "地震": "1", "津波": "1", "大規模な火事": "", "内水氾濫": "", "火山現象": "", "指定避難所との住所同一": "1", "備考": "", "name": "小櫃保育園", "address": "千葉県君津市末吉437-1", "hazard_landslide": "1", "layer": "evacuation" }, "geometry": { "type": "Point", "coordinates": [ 140.064123, 35.330097 ] } },
{ "type": "Feature", "properties": { "NO": "558", "共通ID": "E1222500071201", "施設・場所名": "君津中学校", "住所": "千葉県君津市杢師1-10-1", "洪水": "1", "崖崩れ、土石流及び地滑り": "1", "高潮": "1", "地震": "1", "津波": "1", "大規模な火事": "", "内水氾濫": "", "火山現象": "", "指定避難所との住所同一": "1", "備考": "", "name": "君津中学校", "address": "千葉県君津市杢師1-10-1", "hazard_landslide": "1", "layer": "evacuation" }, "geometry": { "type": "Point", "coordinates": [ 139.910483, 35.326785 ] } },
{ "type": "Feature", "properties": { "NO": "2499", "共通ID": "E1222600007201", "施設・場所名": "旧天神山小学校（運動場）", "住所": "千葉県富津市花輪104", "洪水": "1", "崖崩れ、土石流及び地滑り": "1", "高潮": "1", "地震": "1", "津波": "1", "大規模な火事": "", "内水氾濫": "", "火山現象": "", "指定避難所との住所同一": "1", "備考": "", "name": "旧天神山小学校（運動場）", "address": "千葉県富津市花輪104", "hazard_landslide": "1", "layer": "evacuation" }, "geometry": { "type": "Point", "coordinates": [ 139.88876, 35.212733 ] } },
{ "type": "Feature", "properties": { "NO": "2500", "共通ID": "E1222600008201", "施設・場所名": "天羽中学校（運動場）", "住所": "千葉県富津市岩坂109", "洪水": "1", "崖崩れ、土石流及び地滑り": "1", "高潮": "1", "地震": "1", "津波": "1", "大規模な火事": "", "内水氾濫": "", "火山現象": "", "指定避難所との住所同一": "1", "備考": "", "name": "天羽中学校（運動場）", "address": "千葉県富津市岩坂109", "hazard_landslide": "1", "layer": "evacuation" }, "geometry": { "type": "Point", "coordinates": [ 139.877203, 35.224574 ] } },
{ "type": "Feature", "properties": { "NO": "2501", "共通ID": "E1222600009201", "施設・場所名": "地域交流支援センター「カナリエ」（駐車場）", "住所": "千葉県富津市岩坂487-5", "洪水": "1", "崖崩れ、土石流及び地滑り": "1", "高潮": "1", "地震": "1", "津波": "1", "大規模な火事": "", "内水氾濫": "", "火山現象": "", "指定避難所との住所同一": "1", "備考": "", "name": "地域交流支援センター「カナリエ」（駐車場）", "address": "千葉県富津市岩坂487-5", "hazard_landslide": "1", "layer": "evacuation" }, "geometry": { "type": "Point", "coordinates": [ 139.886399, 35.231464 ] } },
{ "type": "Feature", "properties": { "NO": "2505", "共通ID": "E1222600013201", "施設・場所名": "佐貫コミュニティセンター（駐車場）", "住所": "千葉県富津市亀田368-1", "洪水": "1", "崖崩れ、土石流及び地滑り": "", "高潮": "1", "地震": "1", "津波": "1", "大規模な火事": "", "内水氾濫": "", "火山現象": "", "指定避難所との住所同一": "1", "備考": "", "name": "佐貫コミュニティセンター（駐車場）", "address": "千葉県富津市亀田368-1", "hazard_landslide": "", "layer": "evacuation" }, "geometry": { "type": "Point", "coordinates": [ 139.879832, 35.262966 ] } },
{ "type": "Feature", "properties": { "NO": "2510", "共通ID": "E1222600018201", "施設・場所名": "吉野保育所（園庭）", "住所": "千葉県富津市絹656-2", "洪水": "1", "崖崩れ、土石流及び地滑り": "1", "高潮": "1", "地震": "1", "津波": "1", "大規模な火事": "", "内水氾濫": "", "火山現象": "", "指定避難所との住所同一": "1", "備考": "", "name": "吉野保育所（園庭）", "address": "千葉県富津市絹656-2", "hazard_landslide": "1", "layer": "evacuation" }, "geometry": { "type": "Point", "coordinates": [ 139.875653, 35.290784 ] } },
{ "type": "Feature", "properties": { "NO": "2511", "共通ID": "E1222600019201", "施設・場所名": "佐貫保育所（園庭）", "住所": "千葉県富津市佐貫143-2", "洪水": "1", "崖崩れ、土石流及び地滑り": "1", "高潮": "1", "地震": "1", "津波": "1", "大規模な火事": "", "内水氾濫": "", "火山現象": "", "指定避難所との住所同一": "1", "備考": "", "name": "佐貫保育所（園庭）", "address": "千葉県富津市佐貫143-2", "hazard_landslide": "1", "layer": "evacuation" }, "geometry": { "type": "Point", "coordinates": [ 139.883988, 35.262372 ] } },
{ "type": "Feature", "properties": { "NO": "2512", "共通ID": "E1222600020201", "施設・場所名": "旧佐貫中学校（運動場）", "住所": "千葉県富津市佐貫26", "洪水": "1", "崖崩れ、土石流及び地滑り": "", "高潮": "1", "地震": "1", "津波": "1", "大規模な火事": "", "内水氾濫": "", "火山現象": "", "指定避難所との住所同一": "", "備考": "", "name": "旧佐貫中学校（運動場）", "address": "千葉県富津市佐貫26", "hazard_landslide": "", "layer": "evacuation" }, "geometry": { "type": "Point", "coordinates": [ 139.890777, 35.263301 ] } },
{ "type": "Feature", "properties": { "NO": "2513", "共通ID": "E1222600021201", "施設・場所名": "旧環南小学校（運動場）", "住所": "千葉県富津市志駒1189", "洪水": "1", "崖崩れ、土石流及び地滑り": "1", "高潮": "1", "地震": "1", "津波": "1", "大規模な火事": "", "内水氾濫": "", "火山現象": "", "指定避難所との住所同一": "1", "備考": "", "name": "旧環南小学校（運動場）", "address": "千葉県富津市志駒1189", "hazard_landslide": "1", "layer": "evacuation" }, "geometry": { "type": "Point", "coordinates": [ 139.924986, 35.175687 ] } },
{ "type": "Feature", "properties": { "NO": "2514", "共通ID": "E1222600022201", "施設・場所名": "消防団第１１分団第２部詰所（詰所前広場）", "住所": "千葉県富津市志駒531-1", "洪水": "1", "崖崩れ、土石流及び地滑り": "1", "高潮": "1", "地震": "1", "津波": "1", "大規模な火事": "", "内水氾濫": "", "火山現象": "", "指定避難所との住所同一": "", "備考": "", "name": "消防団第１１分団第２部詰所（詰所前広場）", "address": "千葉県富津市志駒531-1", "hazard_landslide": "1", "layer": "evacuation" }, "geometry": { "type": "Point", "coordinates": [ 139.931711, 35.186116 ] } },
{ "type": "Feature", "properties": { "NO": "2517", "共通ID": "E1222600025201", "施設・場所名": "峰上保育所（園庭）", "住所": "千葉県富津市上後305", "洪水": "1", "崖崩れ、土石流及び地滑り": "1", "高潮": "1", "地震": "1", "津波": "1", "大規模な火事": "", "内水氾濫": "", "火山現象": "", "指定避難所との住所同一": "1", "備考": "", "name": "峰上保育所（園庭）", "address": "千葉県富津市上後305", "hazard_landslide": "1", "layer": "evacuation" }, "geometry": { "type": "Point", "coordinates": [ 139.931153, 35.214499 ] } },
{ "type": "Feature", "properties": { "NO": "2518", "共通ID": "E1222600026201", "施設・場所名": "環小学校（運動場）", "住所": "千葉県富津市上後328", "洪水": "1", "崖崩れ、土石流及び地滑り": "1", "高潮": "1", "地震": "1", "津波": "1", "大規模な火事": "", "内水氾濫": "", "火山現象": "", "指定避難所との住所同一": "1", "備考": "", "name": "環小学校（運動場）", "address": "千葉県富津市上後328", "hazard_landslide": "1", "layer": "evacuation" }, "geometry": { "type": "Point", "coordinates": [ 139.930814, 35.215858 ] } },
{ "type": "Feature", "properties": { "NO": "2519", "共通ID": "E1222600027201", "施設・場所名": "旧天羽東中学校（運動場）", "住所": "千葉県富津市上後395", "洪水": "1", "崖崩れ、土石流及び地滑り": "1", "高潮": "1", "地震": "1", "津波": "1", "大規模な火事": "", "内水氾濫": "", "火山現象": "", "指定避難所との住所同一": "1", "備考": "", "name": "旧天羽東中学校（運動場）", "address": "千葉県富津市上後395", "hazard_landslide": "1", "layer": "evacuation" }, "geometry": { "type": "Point", "coordinates": [ 139.932625, 35.214952 ] } },
{ "type": "Feature", "properties": { "NO": "2525", "共通ID": "E1222600033201", "施設・場所名": "天羽高等学校（運動場）", "住所": "千葉県富津市数馬229", "洪水": "", "崖崩れ、土石流及び地滑り": "1", "高潮": "1", "地震": "1", "津波": "", "大規模な火事": "", "内水氾濫": "", "火山現象": "", "指定避難所との住所同一": "1", "備考": "", "name": "天羽高等学校（運動場）", "address": "千葉県富津市数馬229", "hazard_landslide": "1", "layer": "evacuation" }, "geometry": { "type": "Point", "coordinates": [ 139.880465, 35.216677 ] } },
{ "type": "Feature", "properties": { "NO": "2526", "共通ID": "E1222600034201", "施設・場所名": "中央保育所（園庭）", "住所": "千葉県富津市数馬579", "洪水": "1", "崖崩れ、土石流及び地滑り": "1", "高潮": "1", "地震": "1", "津波": "1", "大規模な火事": "", "内水氾濫": "", "火山現象": "", "指定避難所との住所同一": "1", "備考": "", "name": "中央保育所（園庭）", "address": "千葉県富津市数馬579", "hazard_landslide": "1", "layer": "evacuation" }, "geometry": { "type": "Point", "coordinates": [ 139.883188, 35.218552 ] } },
{ "type": "Feature", "properties": { "NO": "2527", "共通ID": "E1222600035201", "施設・場所名": "天羽小学校（運動場）", "住所": "千葉県富津市数馬581-1", "洪水": "1", "崖崩れ、土石流及び地滑り": "1", "高潮": "1", "地震": "1", "津波": "1", "大規模な火事": "", "内水氾濫": "", "火山現象": "", "指定避難所との住所同一": "1", "備考": "", "name": "天羽小学校（運動場）", "address": "千葉県富津市数馬581-1", "hazard_landslide": "1", "layer": "evacuation" }, "geometry": { "type": "Point", "coordinates": [ 139.884155, 35.218996 ] } },
{ "type": "Feature", "properties": { "NO": "2534", "共通ID": "E1222600041201", "施設・場所名": "消防団第８分団第１部機庫（機庫前広場）", "住所": "千葉県富津市相川1497-3", "洪水": "1", "崖崩れ、土石流及び地滑り": "1", "高潮": "1", "地震": "1", "津波": "1", "大規模な火事": "", "内水氾濫": "", "火山現象": "", "指定避難所との住所同一": "", "備考": "", "name": "消防団第８分団第１部機庫（機庫前広場）", "address": "千葉県富津市相川1497-3", "hazard_landslide": "1", "layer": "evacuation" }, "geometry": { "type": "Point", "coordinates": [ 139.878147, 35.199412 ] } },
{ "type": "Feature", "properties": { "NO": "2552", "共通ID": "E1222600059201", "施設・場所名": "佐貫小学校（運動場）", "住所": "千葉県富津市鶴岡989-1", "洪水": "1", "崖崩れ、土石流及び地滑り": "", "高潮": "1", "地震": "1", "津波": "1", "大規模な火事": "", "内水氾濫": "", "火山現象": "", "指定避難所との住所同一": "1", "備考": "", "name": "佐貫小学校（運動場）", "address": "千葉県富津市鶴岡989-1", "hazard_landslide": "", "layer": "evacuation" }, "geometry": { "type": "Point", "coordinates": [ 139.88196, 35.259976 ] } },
{ "type": "Feature", "properties": { "NO": "2555", "共通ID": "E1222600062201", "施設・場所名": "天神山コミュニティセンター（駐車場）", "住所": "千葉県富津市不入斗1697-1", "洪水": "1", "崖崩れ、土石流及び地滑り": "1", "高潮": "1", "地震": "1", "津波": "1", "大規模な火事": "", "内水氾濫": "", "火山現象": "", "指定避難所との住所同一": "1", "備考": "", "name": "天神山コミュニティセンター（駐車場）", "address": "千葉県富津市不入斗1697-1", "hazard_landslide": "1", "layer": "evacuation" }, "geometry": { "type": "Point", "coordinates": [ 139.897061, 35.214083 ] } },
{ "type": "Feature", "properties": { "NO": "2563", "共通ID": "E1222600069201", "施設・場所名": "関豊ふれあいシニア館（駐車場）", "住所": "千葉県富津市豊岡1355-1", "洪水": "", "崖崩れ、土石流及び地滑り": "1", "高潮": "1", "地震": "1", "津波": "1", "大規模な火事": "", "内水氾濫": "", "火山現象": "", "指定避難所との住所同一": "1", "備考": "", "name": "関豊ふれあいシニア館（駐車場）", "address": "千葉県富津市豊岡1355-1", "hazard_landslide": "1", "layer": "evacuation" }, "geometry": { "type": "Point", "coordinates": [ 139.954087, 35.191129 ] } },
{ "type": "Feature", "properties": { "NO": "2564", "共通ID": "E1222600070201", "施設・場所名": "わかあゆの郷（体育館）", "住所": "千葉県富津市豊岡1432-1", "洪水": "1", "崖崩れ、土石流及び地滑り": "1", "高潮": "1", "地震": "1", "津波": "1", "大規模な火事": "", "内水氾濫": "", "火山現象": "", "指定避難所との住所同一": "1", "備考": "", "name": "わかあゆの郷（体育館）", "address": "千葉県富津市豊岡1432-1", "hazard_landslide": "1", "layer": "evacuation" }, "geometry": { "type": "Point", "coordinates": [ 139.954973, 35.186881 ] } },
{ "type": "Feature", "properties": { "NO": "2565", "共通ID": "E1222600071201", "施設・場所名": "天羽養護老人ホーム（駐車場）", "住所": "千葉県富津市豊岡1728-1", "洪水": "1", "崖崩れ、土石流及び地滑り": "1", "高潮": "1", "地震": "1", "津波": "1", "大規模な火事": "", "内水氾濫": "", "火山現象": "", "指定避難所との住所同一": "", "備考": "", "name": "天羽養護老人ホーム（駐車場）", "address": "千葉県富津市豊岡1728-1", "hazard_landslide": "1", "layer": "evacuation" }, "geometry": { "type": "Point", "coordinates": [ 139.954383, 35.186565 ] } },
{ "type": "Feature", "properties": { "NO": "2566", "共通ID": "E1222600072201", "施設・場所名": "市民の森（芝生広場）", "住所": "千葉県富津市豊岡2785-1", "洪水": "1", "崖崩れ、土石流及び地滑り": "1", "高潮": "1", "地震": "1", "津波": "1", "大規模な火事": "", "内水氾濫": "", "火山現象": "", "指定避難所との住所同一": "1", "備考": "", "name": "市民の森（芝生広場）", "address": "千葉県富津市豊岡2785-1", "hazard_landslide": "1", "layer": "evacuation" }, "geometry": { "type": "Point", "coordinates": [ 139.956822, 35.175937 ] } },
{ "type": "Feature", "properties": { "NO": "2567", "共通ID": "E1222600073201", "施設・場所名": "飯野児童遊園地", "住所": "千葉県富津市本郷803-1", "洪水": "", "崖崩れ、土石流及び地滑り": "", "高潮": "1", "地震": "1", "津波": "1", "大規模な火事": "", "内水氾濫": "", "火山現象": "", "指定避難所との住所同一": "", "備考": "", "name": "飯野児童遊園地", "address": "千葉県富津市本郷803-1", "hazard_landslide": "", "layer": "evacuation" }, "geometry": { "type": "Point", "coordinates": [ 139.879745, 35.310393 ] } },
{ "type": "Feature", "properties": { "NO": "2568", "共通ID": "E1222600082201", "施設・場所名": "富津浅間山バスストップ駐車場", "住所": "千葉県富津市湊1246-1", "洪水": "1", "崖崩れ、土石流及び地滑り": "1", "高潮": "1", "地震": "1", "津波": "1", "大規模な火事": "", "内水氾濫": "", "火山現象": "", "指定避難所との住所同一": "", "備考": "", "name": "富津浅間山バスストップ駐車場", "address": "千葉県富津市湊1246-1", "hazard_landslide": "1", "layer": "evacuation" }, "geometry": { "type": "Point", "coordinates": [ 139.888227, 35.234412 ] } },
{ "type": "Feature", "properties": { "NO": "2569", "共通ID": "E1222600074201", "施設・場所名": "浅間山運動公園（駐車場）", "住所": "千葉県富津市湊1247-2", "洪水": "1", "崖崩れ、土石流及び地滑り": "1", "高潮": "1", "地震": "1", "津波": "1", "大規模な火事": "", "内水氾濫": "", "火山現象": "", "指定避難所との住所同一": "", "備考": "", "name": "浅間山運動公園（駐車場）", "address": "千葉県富津市湊1247-2", "hazard_landslide": "1", "layer": "evacuation" }, "geometry": { "type": "Point", "coordinates": [ 139.888985, 35.235323 ] } }
]
}
