{"type":"FeatureCollection","name":"A46-a-21_12","crs":{"type":"name","properties":{"name":"urn:ogc:def:crs:EPSG::6668"}},"features":[{"type":"Feature","properties":{"A46-a_001":"12","A46-a_002":"12226","A46-a_003":"富津市","A46-a_004":"上畑","A46-a_005":"富津市山中","A46-a_006":"1981/03/17","A46-a_007":"建第545号","A46-a_008":25.6,"A46-a_009":1},"geometry":{"type":"MultiPolygon","coordinates":[[[[139.91118590810333,35.14263426555908],[139.91585862807335,35.14409593008327],[139.92073594021167,35.14478959426452],[139.92404145325065,35.1427613127845],[139.9229426067161,35.14098982641951],[139.92277169775582,35.140944501487695],[139.92260230145519,35.14090681269943],[139.92256048387935,35.14090094642171],[139.92252078780427,35.14090340336952],[139.9224620953496,35.14091454776832],[139.92209224556086,35.14101941411485],[139.92204537469445,35.14102638655868],[139.92186926945135,35.14103380056963],[139.92175186026031,35.1410331926279],[139.92162052596666,35.14104439008668],[139.92146851266193,35.14106843795821],[139.92135366563934,35.141094539881294],[139.92131439224556,35.141098037344705],[139.9212683568494,35.141096682965724],[139.92122569391086,35.14109046954968],[139.92117077501143,35.14107559206508],[139.9208353368815,35.140977310554604],[139.9207284461611,35.140939921240545],[139.92068662049132,35.14092572814002],[139.92065620272172,35.140916383284605],[139.92062916640305,35.14090981103914],[139.92058734792795,35.1409029033465],[139.9205560919902,35.1409001505217],[139.92052230536024,35.14090017480339],[139.92047796428676,35.14090367586414],[139.9203787276963,35.140914848141904],[139.92034494916027,35.14092250496981],[139.92024826664442,35.14095206208816],[139.92016973874263,35.140976402239346],[139.9200924779857,35.14100074149121],[139.92001436826865,35.14102195919622],[139.91993752299845,35.1410400535558],[139.91981464952664,35.141064078044906],[139.91963308270078,35.14109924603355],[139.9195072666472,35.141136455483206],[139.91932994462138,35.141192087544994],[139.91914756660708,35.14125847819639],[139.9190534192801,35.141290807924634],[139.9189630706893,35.14132035874775],[139.91889636257724,35.14133983356663],[139.9187477496091,35.141387119020465],[139.91868484293138,35.141407630757726],[139.9186109627259,35.141434742619424],[139.9185472088867,35.14145247994816],[139.9183960526359,35.141490746101226],[139.91828922846526,35.141516839930375],[139.91820225323158,35.14154222599308],[139.91814440793826,35.14155579586344],[139.91808402295942,35.1415648574324],[139.9180134999233,35.141571498925714],[139.91792946817054,35.141584393405196],[139.91785261930306,35.14160005779661],[139.9177664921301,35.14162856450679],[139.91768375270317,35.14166643585747],[139.91762760982647,35.14169318799043],[139.91756976992917,35.141712654715434],[139.91750939124563,35.1417276140383],[139.91745913712964,35.14173215921193],[139.91741774223522,35.141725596858976],[139.91735732847815,35.14170655821124],[139.9172998698932,35.141686477249266],[139.91725085144583,35.14166049223809],[139.91720182400513,35.14162444741049],[139.91715405201808,35.141577993829515],[139.9171138820002,35.141530840576024],[139.9170538288713,35.14145109229423],[139.91702041635926,35.14140428168241],[139.9170035001116,35.14138243804922],[139.91697476407433,35.141365111710684],[139.9169418102166,35.14135403386172],[139.91689787563666,35.14134261606904],[139.91684845249426,35.14133293576651],[139.91678890118703,35.14133020182754],[139.91667318182203,35.14133132238277],[139.916548174259,35.141334530264544],[139.91641092332566,35.14134225634024],[139.91632857060722,35.14134474116702],[139.91618033265638,35.14134657758268],[139.9161085307843,35.14134176980701],[139.91605362087807,35.14133556268621],[139.91600461861844,35.141324494729815],[139.91594842717836,35.1413033714536],[139.91587237421084,35.14127081329758],[139.9157996954997,35.14123409038115],[139.91573546412053,35.14119770740842],[139.91568939275146,35.14116165988287],[139.91564838366617,35.141118670490414],[139.91561709355415,35.14108157165737],[139.91558029239673,35.141024008751174],[139.91556125284967,35.14098967713204],[139.91554304247757,35.14093973418153],[139.9155277791839,35.14088042209397],[139.91551460771313,35.14080168105289],[139.91550525746186,35.14074305874533],[139.9154933909074,35.14070213149836],[139.91547265883628,35.14066433209342],[139.91544517825253,35.14063624986318],[139.91541052197817,35.14061060209775],[139.9153750239384,35.14058842391677],[139.9153306567846,35.140566598270084],[139.91527868856076,35.14054477711994],[139.91519334559655,35.14051291953575],[139.91512406272545,35.14049249773075],[139.9150606946955,35.14047415425898],[139.91501422582598,35.1404613497117],[139.91497367359636,35.14045305076786],[139.91493439120939,35.140447179993544],[139.91489257723083,35.14044373918739],[139.91486090490696,35.14044618894064],[139.91482121242916,35.14045315329054],[139.91476928017835,35.14046741204157],[139.91473042946598,35.14047125394541],[139.9144958269211,35.14026014079303],[139.91443961119933,35.1402143859853],[139.91438044480185,35.14017348931526],[139.9142198528641,35.140065012190746],[139.91417083711463,35.14003937341852],[139.9140960521912,35.14000577294826],[139.9140145115606,35.13997460424474],[139.91393213635922,35.13995245664074],[139.9138725724614,35.139937232017814],[139.91382695345135,35.13992928380958],[139.91378387502596,35.139928618311274],[139.9136892825345,35.13993770056459],[139.91358075864525,35.13995234332617],[139.91350094831034,35.13996141568697],[139.91343886990808,35.13996596715583],[139.91334934059978,35.139969495196226],[139.91314535547394,35.1399692829562],[139.91309932277568,35.139970354048785],[139.9130575213877,35.13997940122857],[139.9130195259305,35.13999399632604],[139.9129811140873,35.140014142938526],[139.91293763996032,35.140041230518534],[139.9129127458267,35.14006449058394],[139.9129013667049,35.14008947554902],[139.9128845349935,35.140152625043754],[139.91281434200846,35.14043884417748],[139.9127625905213,35.14069882019459],[139.91274869059976,35.140736816551],[139.91271324741865,35.140770663435546],[139.9126353931091,35.140838362600505],[139.91255754869212,35.140917510135125],[139.9125100932664,35.14097634378339],[139.91246648064373,35.14107836467497],[139.91245639294834,35.14112780670308],[139.91243020828767,35.14123359755263],[139.9124128513722,35.14130372039057],[139.9123919718122,35.1413307935814],[139.91234703358896,35.14137245287657],[139.9122793056456,35.14143129911531],[139.9122090542047,35.14150159462304],[139.9119976739537,35.14171976745348],[139.91181413941115,35.141909302272666],[139.9117793392453,35.1419535561119],[139.91173505932568,35.1420217535013],[139.91166105861112,35.14214669001791],[139.91160413422358,35.14224247590971],[139.91155982822363,35.1422841343055],[139.91136424456442,35.142463267565915],[139.91118590810333,35.14263426555908]]]]}},{"type":"Feature","properties":{"A46-a_001":"12","A46-a_002":"12234","A46-a_003":"南房総市","A46-a_004":"二部・検儀谷","A46-a_005":"南房総市二部,検儀谷","A46-a_006":"1968/03/31","A46-a_007":"建第252号","A46-a_008":61.0,"A46-a_009":1},"geometry":{"type":"MultiPolygon","coordinates":[[[[139.8561207303876,35.10614213225375],[139.8590671567241,35.10730475690917],[139.86172895212962,35.10736783086088],[139.86857969339826,35.10781702783373],[139.86999954214537,35.106025114267766],[139.86902526790197,35.104718553118914],[139.86631218505943,35.104103456409575],[139.8625875825511,35.10230073569056],[139.85766962645232,35.10202976546145],[139.8561207303876,35.10614213225375]]]]}},{"type":"Feature","properties":{"A46-a_001":"12","A46-a_002":"12223","A46-a_003":"鴨川市","A46-a_004":"今平","A46-a_005":"鴨川市西","A46-a_006":"1960/06/01","A46-a_007":"建第1007号","A46-a_008":42.1,"A46-a_009":1},"geometry":{"type":"MultiPolygon","coordinates":[[[[140.00027422757375,35.095483808930794],[139.99968151678877,35.095687740996595],[140.00017744253512,35.096499527531364],[140.00059823981712,35.09682393547638],[140.00106917610174,35.09749357067193],[140.00228242719243,35.09858871739556],[140.0028779690432,35.0997456529397],[140.00310275998459,35.10088279260697],[140.00366921776038,35.10138818191922],[140.00519107031187,35.10208562774966],[140.0054742155628,35.10234162336741],[140.00571062934227,35.10266713478063],[140.0060740381865,35.10295657348723],[140.00620490213475,35.10326995034808],[140.00627434958176,35.10365323780684],[140.00659120681894,35.10409467363047],[140.00670317780964,35.10418311116183],[140.00764415375488,35.104697851624735],[140.00790376824443,35.10480918679468],[140.00810795122118,35.10491520966934],[140.0086172004236,35.10438560161441],[140.00885411332683,35.10446256739374],[140.00896169922316,35.10454728442977],[140.00920066437936,35.104887087868974],[140.00923112711496,35.104904002317994],[140.00920985545065,35.10461305634766],[140.00932370332646,35.10449685674473],[140.00966667417788,35.104137175590324],[140.00968125938277,35.10378314397707],[140.00960068192614,35.1037026123858],[140.00959283354257,35.10359016025785],[140.0097555730614,35.10347210445423],[140.0097941926481,35.10320623967641],[140.00968087717092,35.10306359371003],[140.00972277658502,35.10284128309888],[140.00994934188884,35.10283041389266],[140.01031527512998,35.10247468435938],[140.0104685187074,35.10245957574898],[140.01069146873647,35.102207440021516],[140.01072892729837,35.10166463801278],[140.01046934698297,35.10138912350942],[140.0105522455898,35.10131705633722],[140.01104496345442,35.10132371671631],[140.01120563363327,35.10125277639469],[140.01166899942496,35.10022756634925],[140.01163540075333,35.10001685969047],[140.0114214268575,35.09996826752172],[140.01122723984543,35.09964890657193],[140.0115388855113,35.099419431961394],[140.0115430925399,35.09938781269756],[140.0121388493286,35.09920899330058],[140.0124477655521,35.098958481748696],[140.01272510298134,35.098920667954644],[140.0128334910729,35.09897248779026],[140.01294824096874,35.09900487417576],[140.01366886502626,35.09906065642434],[140.01380406460612,35.098672741953635],[140.01382081088184,35.09861938157934],[140.01382397649547,35.09852517309844],[140.01379507138563,35.09842011339771],[140.0136462272917,35.09820133622287],[140.01354208400016,35.09801969835058],[140.01342366397114,35.09786998281362],[140.01338209280948,35.097754367769994],[140.013340223073,35.09754570886753],[140.01317158220297,35.097240901646444],[140.01309101373943,35.097128507974446],[140.01301751124936,35.09706281339828],[140.01282831637388,35.096988138192216],[140.0125978731935,35.096874187793674],[140.0124037491339,35.09688068629481],[140.012367544227,35.096904983278534],[140.01230622665116,35.097013131251174],[140.0122683238243,35.097031889310415],[140.0121540370793,35.097035543255856],[140.01209246499548,35.09702732165374],[140.0119844726055,35.09699838866487],[140.01189160681236,35.09694657422517],[140.01174670804437,35.09671308683966],[140.01161167753708,35.09665856454126],[140.01152224715418,35.096635144396544],[140.011346870362,35.09663438536876],[140.01126262187267,35.09663160556431],[140.0111141033334,35.0966018191188],[140.0109075650323,35.09653280064839],[140.01076595148766,35.096427508922545],[140.01073207402612,35.09632474249304],[140.01072927623534,35.09613767001764],[140.01059750756906,35.09598087142024],[140.01050549073602,35.09569384019875],[140.01029456284402,35.095502726170025],[140.01027084052703,35.09545466460128],[140.01026945647038,35.09535933016912],[140.0103328433862,35.09522590045509],[140.01034677388463,35.09512957586941],[140.01032053976132,35.09498219856977],[140.01027913137693,35.09490240891921],[140.01014783935148,35.09480739194777],[140.00999806805657,35.094741310663096],[140.00990413656677,35.09466343566919],[140.00980625795262,35.09462195893644],[140.00958906448386,35.09459026592822],[140.00941702237787,35.09457744968972],[140.00930511254114,35.0945853547305],[140.00924747948773,35.09463092877451],[140.00913921190534,35.09479920092252],[140.00907450478473,35.094842849518045],[140.00888244376995,35.09492304476288],[140.00870283296956,35.09495185724256],[140.0085357011618,35.09494050150312],[140.0085413147301,35.09505533323721],[140.00870984408425,35.09517353922763],[140.0087113747303,35.09534859226386],[140.00865831562896,35.09546899889534],[140.00848550280386,35.09548320728436],[140.00832288289496,35.09542088516588],[140.00823087865228,35.09541283533423],[140.00811133447064,35.095498280821175],[140.00808161547434,35.09557437156019],[140.0080466588264,35.09569692847066],[140.00799643708604,35.09577497433577],[140.00793679045069,35.09586624832889],[140.00792349847086,35.095952423165954],[140.00790619371605,35.09608502100707],[140.00773095272143,35.09627785633819],[140.00630559472756,35.09608470624437],[140.00514396921903,35.09604573412349],[140.00435292105067,35.095945294240096],[140.0026963554526,35.095582008603],[140.00027422757375,35.095483808930794]]]]}},{"type":"Feature","properties":{"A46-a_001":"12","A46-a_002":"12234","A46-a_003":"南房総市","A46-a_004":"吉沢","A46-a_005":"南房総市吉沢","A46-a_006":"1968/03/31","A46-a_007":"建第252号","A46-a_008":65.0,"A46-a_009":1},"geometry":{"type":"MultiPolygon","coordinates":[[[[139.88637167661182,35.09501969580248],[139.88869153808423,35.09637925759682],[139.89107559856018,35.09491134188511],[139.8952992231808,35.09202972339318],[139.89806749561865,35.09173372862887],[139.89870309776995,35.08678420902419],[139.8995364320608,35.085226342222086],[139.8975925807332,35.085328828962474],[139.8904590008824,35.08848116407461],[139.88898025013862,35.091274436766014],[139.88637167661182,35.09501969580248]]]]}},{"type":"Feature","properties":{"A46-a_001":"12","A46-a_002":"12234","A46-a_003":"南房総市","A46-a_004":"外野","A46-a_005":"南房総市荒川","A46-a_006":"1968/03/31","A46-a_007":"建第252号","A46-a_008":110.0,"A46-a_009":1},"geometry":{"type":"MultiPolygon","coordinates":[[[[139.93622701696347,35.12177642784002],[139.93730231025359,35.116395868574614],[139.93548251770426,35.11288904319497],[139.9386035159397,35.11136397196992],[139.93719028890087,35.10845221359892],[139.93103240692017,35.10997368843516],[139.9238905137364,35.12309346878874],[139.93622701696347,35.12177642784002]]]]}},{"type":"Feature","properties":{"A46-a_001":"12","A46-a_002":"12234","A46-a_003":"南房総市","A46-a_004":"富山","A46-a_005":"南房総市宮谷","A46-a_006":"1960/03/04","A46-a_007":"建第315号","A46-a_008":55.9,"A46-a_009":1},"geometry":{"type":"MultiPolygon","coordinates":[[[[139.8843218212952,35.092333570138294],[139.8825483051603,35.08904970557961],[139.8816649910467,35.08583364001066],[139.87804667851162,35.085971504281645],[139.87517393363032,35.08960558013359],[139.87506134930197,35.09096037642041],[139.8805233080044,35.092418827666904],[139.8843218212952,35.092333570138294]]]]}},{"type":"Feature","properties":{"A46-a_001":"12","A46-a_002":"12226","A46-a_003":"富津市","A46-a_004":"富貴","A46-a_005":"富津市金谷","A46-a_006":"1996/03/15","A46-a_007":"建第661号","A46-a_008":12.4,"A46-a_009":1},"geometry":{"type":"MultiPolygon","coordinates":[[[[139.83176333471033,35.19104075222907],[139.83422092285753,35.19157249797257],[139.83551467676114,35.191701992253286],[139.83692114089808,35.19104458873693],[139.8374463881405,35.189360743103975],[139.8324560285231,35.18882115077565],[139.83176333471033,35.19104075222907]]]]}},{"type":"Feature","properties":{"A46-a_001":"12","A46-a_002":"12226","A46-a_003":"富津市","A46-a_004":"山中","A46-a_005":"富津市山中","A46-a_006":"2004/03/26","A46-a_007":"国第372号","A46-a_008":277.8,"A46-a_009":1},"geometry":{"type":"MultiPolygon","coordinates":[[[[139.93021092209653,35.160809763759744],[139.93015953393547,35.160798186787076],[139.93011216934133,35.16080068870099],[139.93006683811427,35.16080814857736],[139.9300225024367,35.16080816206721],[139.9300096565206,35.16080310877663],[139.92998425157214,35.16079310112087],[139.92996746302822,35.16078109876884],[139.9299438792068,35.16074447118058],[139.92998010749614,35.160630273468485],[139.92997303702623,35.160603791132246],[139.929947822734,35.160552497399976],[139.92996090786983,35.1605044996831],[139.9299890926227,35.16044739363247],[139.92998908093148,35.160419908552115],[139.92998905485115,35.16036217117744],[139.93000715370738,35.16028272956447],[139.93002022715189,35.160233903571964],[139.9300433945872,35.1601991456742],[139.93007562089338,35.16017017221583],[139.93011691596303,35.16014450466531],[139.93013504719488,35.16011471552184],[139.93016758826377,35.1600788730417],[139.93236984269424,35.15765299588924],[139.93112966230422,35.155927884864184],[139.93070426678867,35.15406013326873],[139.9307199482672,35.154044244946135],[139.93119777156005,35.153560096721264],[139.93111363278808,35.15292120035326],[139.93123241794194,35.1529136307596],[139.9397354053649,35.15282383974858],[139.94347708779753,35.15157297900993],[139.94001836355676,35.148558286935554],[139.92542365457814,35.14841269479018],[139.930821732637,35.14224683672228],[139.9240365312611,35.142761686003155],[139.920415903871,35.1449862238353],[139.9127763510479,35.149705218421275],[139.91561434792402,35.153908388861225],[139.92148361857437,35.154234045065266],[139.92164454236195,35.154334271809375],[139.9217279409919,35.154360230740224],[139.92212386212668,35.1543433342776],[139.92272574509718,35.15437180411561],[139.92290118843925,35.15447567311401],[139.92307953299428,35.1546527514235],[139.92349592629614,35.15471021990089],[139.9236776882749,35.15478249391714],[139.92402202789447,35.15490246797469],[139.9241581663665,35.154936832868714],[139.92428253271294,35.15498301935105],[139.92444227119404,35.155107685171686],[139.9245981003222,35.155282869508994],[139.92471571905537,35.155480148390325],[139.9237361460065,35.15688575547341],[139.92557381527956,35.16083732168522],[139.92551299143156,35.16107934723425],[139.92515214475588,35.16150588309017],[139.92481936052525,35.16178396066141],[139.9243953859385,35.1619880923767],[139.9237755174264,35.16213293628613],[139.9237754211989,35.1621470169714],[139.92374030896826,35.16729922937611],[139.92763894648033,35.16639343940585],[139.92764587845465,35.1663930616906],[139.92929255690615,35.166304365154474],[139.92923783315962,35.166260435970514],[139.9291783412076,35.16617940615481],[139.92911885914816,35.16611985844486],[139.9290858288481,35.166044435902165],[139.92904716879195,35.16601515307701],[139.92897223458112,35.165969280458114],[139.92893534708878,35.165913632208515],[139.92892881081616,35.16581741014551],[139.92894003795254,35.1657096839549],[139.92892256502455,35.16559692066153],[139.92891740831192,35.165522023322865],[139.92892763450288,35.16547068462455],[139.92895732382158,35.16539830089101],[139.92898292752022,35.16535958147966],[139.92901673303595,35.16532675082908],[139.929030039405,35.165289717646544],[139.92901669616379,35.16524175230518],[139.92896747716748,35.165177807809755],[139.9289510591442,35.165129843367765],[139.9289602349271,35.16501875371267],[139.92896020435012,35.16494637627443],[139.92897583906392,35.16490175011586],[139.92901085236917,35.164839233743805],[139.92902997825104,35.164795372908316],[139.92906422443457,35.16476350543161],[139.92906773628715,35.16473578472886],[139.92904202646855,35.16470807301931],[139.929008260523,35.16468408630169],[139.92898709228064,35.164650991250426],[139.92897900377818,35.164603415315526],[139.92899006184211,35.16453638884343],[139.92900670829317,35.164521023926284],[139.9290187673024,35.16450989661462],[139.92913360083514,35.16443084171016],[139.92914064702347,35.16440229093314],[139.92912501230967,35.164370437845605],[139.92909225270546,35.16433817556651],[139.92904638997913,35.16431419244617],[139.92897886887988,35.16429104479607],[139.92892443651374,35.16425134332502],[139.92889570047635,35.164206666804375],[139.9288936716058,35.16415950365831],[139.92892287439133,35.16411522463807],[139.92893344142533,35.164079642062006],[139.92893593884264,35.16404282561609],[139.92895154297946,35.164002688873154],[139.9289938434913,35.163963364218034],[139.92903918101354,35.16394142795468],[139.92910463457144,35.16385369818977],[139.9291318273721,35.1638073552254],[139.92913634196873,35.16376349888651],[139.92913592918,35.163748147459216],[139.92913531494298,35.16372543058429],[139.92911160971323,35.16366213809738],[139.92910856820606,35.16363441919327],[139.92912718776972,35.163564083216045],[139.92912768059819,35.16353470506277],[139.92910346095618,35.163476793219616],[139.92910295733577,35.16345486145286],[139.92913290835725,35.16341492795675],[139.92917924772428,35.16337519590871],[139.9292195337547,35.163323054115835],[139.9292305954158,35.16328829981535],[139.92923055404697,35.163193962731384],[139.92924061746066,35.163163347110924],[139.92926484339796,35.16313615251158],[139.92927940611992,35.163125168192096],[139.9293292645341,35.16310043593654],[139.9294431007187,35.16305571714781],[139.92946727629396,35.16301351376279],[139.92948035603376,35.1629771002132],[139.92948034164465,35.16294316969169],[139.92946117978977,35.1629034574288],[139.92945813288668,35.16286374066925],[139.92947223425642,35.162854641328806],[139.9295024604703,35.16284386835002],[139.92952159264757,35.1628157285632],[139.9295225756066,35.162754501818995],[139.92953967081928,35.16266264866249],[139.92956281217425,35.16258982246251],[139.92959402134716,35.16254347859882],[139.92967359785848,35.16247477399179],[139.9296967554011,35.16244083627572],[139.92970883149758,35.16239366953238],[139.9297088072159,35.162338229925524],[139.92972490148316,35.162292720632706],[139.92976519290949,35.16225546981423],[139.92979540833164,35.16221988004361],[139.92982561835777,35.162171048655125],[139.92987193883903,35.162115595558475],[139.9299041327697,35.16201215373809],[139.92993029494733,35.16192159560529],[139.92995242366555,35.1618449931521],[139.93000576875136,35.161713410645575],[139.93001179690702,35.16166872423241],[139.93001228613832,35.1616573388153],[139.93001578450105,35.16157604459892],[139.9300459819367,35.16149990889386],[139.93009331055805,35.16144114719134],[139.93011243284263,35.16139397775004],[139.93010836880637,35.161313713257414],[139.93009726847436,35.161257448072945],[139.9300791039676,35.16121359802929],[139.93006574633728,35.16119168784627],[139.93004986161202,35.16116561380221],[139.93004473008045,35.16115439296101],[139.9300226346371,35.16110604540785],[139.9300044845195,35.161069641750714],[139.93001050368196,35.16102992139395],[139.93007294361166,35.16093723366657],[139.9301001364123,35.160919846174124],[139.93016864316849,35.16089417052973],[139.93019685130378,35.16088920357407],[139.93024016804952,35.16086850207989],[139.93024217353764,35.16083622990823],[139.93021092209653,35.160809763759744]]]]}},{"type":"Feature","properties":{"A46-a_001":"12","A46-a_002":"12463","A46-a_003":"安房郡鋸南町","A46-a_004":"市井原","A46-a_005":"鋸南町市井原","A46-a_006":"1968/03/31","A46-a_007":"建第252号","A46-a_008":14.7,"A46-a_009":1},"geometry":{"type":"MultiPolygon","coordinates":[[[[139.88726446598253,35.14764571068116],[139.88684800433214,35.14660982388443],[139.88824592311107,35.145309143402415],[139.88933749143223,35.14577028606999],[139.88891246194078,35.144357462826804],[139.887441438172,35.143208987205185],[139.88753690030785,35.14236504631003],[139.88732447954123,35.14108549180219],[139.8866707488562,35.14140724674718],[139.8859480428681,35.1416221262603],[139.88520932984693,35.14111137518995],[139.88374440797827,35.1412606698442],[139.88371132731606,35.142707089960425],[139.88384914392304,35.14317757388608],[139.8830670404118,35.14317366003655],[139.88307198308576,35.144392956369984],[139.88376362738973,35.14493630606586],[139.8835491228939,35.14571574398656],[139.88441187760623,35.14679978588157],[139.88581775268733,35.14731323222003],[139.88726446598253,35.14764571068116]]]]}},{"type":"Feature","properties":{"A46-a_001":"12","A46-a_002":"12234","A46-a_003":"南房総市","A46-a_004":"平久里下","A46-a_005":"南房総市平久里下","A46-a_006":"1967/01/18","A46-a_007":"建第88号","A46-a_008":32.0,"A46-a_009":1},"geometry":{"type":"MultiPolygon","coordinates":[[[[139.91330631163714,35.09434256205975],[139.90759746385208,35.09288848871296],[139.9066364582062,35.09030938776817],[139.9030651433419,35.08697559914475],[139.90155340096885,35.09226922094797],[139.90423506509637,35.09273995938179],[139.90144076987576,35.096239132430185],[139.8976922840718,35.09928703107181],[139.90010280170316,35.100026427577745],[139.90157357546036,35.099953935925555],[139.91068797417086,35.09916932960107],[139.91330631163714,35.09434256205975]]]]}},{"type":"Feature","properties":{"A46-a_001":"12","A46-a_002":"12234","A46-a_003":"南房総市","A46-a_004":"平久里中","A46-a_005":"南房総市平久里中","A46-a_006":"1980/12/02","A46-a_007":"建第1809号","A46-a_008":73.9,"A46-a_009":1},"geometry":{"type":"MultiPolygon","coordinates":[[[[139.9257738901531,35.10048740926669],[139.91854790136472,35.09849003298882],[139.91959567989693,35.0960076172579],[139.9227532445667,35.09606522243223],[139.92327297266968,35.09317826016871],[139.91330631163714,35.09434256205975],[139.91068797417086,35.09916932960107],[139.90157357546036,35.099953935925555],[139.90682959301148,35.10043641500869],[139.91145179986086,35.102453858758736],[139.91819602632575,35.10526700287005],[139.9221486897104,35.10275370352076],[139.92851366397463,35.103408500801834],[139.9257738901531,35.10048740926669]]]]}},{"type":"Feature","properties":{"A46-a_001":"12","A46-a_002":"12223","A46-a_003":"鴨川市","A46-a_004":"東","A46-a_005":"鴨川市東","A46-a_006":"1990/03/31","A46-a_007":"建第813号","A46-a_008":98.7,"A46-a_009":1},"geometry":{"type":"MultiPolygon","coordinates":[[[[140.0430272458109,35.09951474211181],[140.04305384415977,35.09948618593887],[140.04276964580265,35.09938792871009],[140.04277927214582,35.09920572066761],[140.04280304032818,35.099042861538976],[140.0428654316945,35.098933477897845],[140.04292782306072,35.09877061697057],[140.04303180807165,35.09865150985945],[140.043233837172,35.09843760251351],[140.04322789535127,35.09835252664794],[140.0432011558089,35.09826744988305],[140.04324275035287,35.098124034996374],[140.04325760535437,35.09804624993467],[140.04319521398816,35.097968465772226],[140.04307637397562,35.097922281987906],[140.04289800334038,35.09789475104208],[140.04270158331155,35.09800326773677],[140.042489748903,35.09786399872473],[140.0423631297548,35.09796910698884],[140.04225553216725,35.09802304832516],[140.04209851053804,35.098028564766594],[140.04178533872255,35.0978940576648],[140.0415906256071,35.09789701463569],[140.04134761979697,35.097973492083156],[140.04112924102185,35.09808465638196],[140.04106155264867,35.098141806499314],[140.04104178644945,35.09821460751829],[140.04107584107737,35.098448361103124],[140.04105049548411,35.09852379353839],[140.04078996998135,35.09875001440179],[140.04066873597355,35.09877710018321],[140.0405369763006,35.09874454652379],[140.04033503263588,35.098620878051236],[140.04021527891211,35.098602071428616],[140.04008444913825,35.098621305229244],[140.03997660783432,35.09869773591197],[140.03990983766903,35.098802738955385],[140.03989893069127,35.09890830317579],[140.0397061133466,35.09904601366276],[140.0395807982154,35.09903704922061],[140.03950869327173,35.09892572574182],[140.0394912662091,35.09871371326744],[140.03944175133597,35.09869937537604],[140.03938272793073,35.098711930811135],[140.03921025145212,35.09880085937232],[140.0389613649752,35.098841926014245],[140.0388576101907,35.09882726076961],[140.03871243443143,35.098772294206185],[140.03854952943743,35.09878124875581],[140.03846103345006,35.09875815056836],[140.03841761687966,35.098725532157744],[140.03838097490222,35.09867210973027],[140.03837402044485,35.098530462011354],[140.03829675159398,35.09847677698184],[140.0382206734455,35.0984769055849],[140.03809715875707,35.09852138155668],[140.03793116459178,35.09865545698392],[140.03788629651558,35.098755358173435],[140.03779528332586,35.0987863227308],[140.03758349748057,35.09873276000906],[140.0374103689935,35.09853759633319],[140.03717910023545,35.09850439606117],[140.0370215911737,35.098504233283904],[140.03692779278356,35.09851989407804],[140.03682973880154,35.098575033311306],[140.03677618327447,35.098725122066924],[140.03672619715644,35.098788936160645],[140.03658054475648,35.09880861062902],[140.03626090321825,35.09871147935144],[140.0361898378909,35.098717929289194],[140.03548827046745,35.09912884841776],[140.03533673650134,35.0991767022432],[140.03312787115453,35.097817681840695],[140.0309449746311,35.09812250704823],[140.0301280044041,35.09774762645196],[140.0298618572391,35.09729635564247],[140.02733781279005,35.097842579571534],[140.025289106807,35.098595036032236],[140.02528931544975,35.098755559621566],[140.02526678743243,35.098839266718926],[140.02521139459031,35.09895892331582],[140.0251368560812,35.09905738109342],[140.02511486136189,35.0991078330602],[140.0251068816774,35.09917059944377],[140.02512072674028,35.09918326189819],[140.0251573093625,35.099187877218924],[140.02521171744695,35.09916976667154],[140.02525501710556,35.09911666080541],[140.0252855382971,35.09903529554265],[140.02530116311834,35.09899254447049],[140.0253285115018,35.09896269147521],[140.02536759603788,35.09895136811133],[140.0254010238384,35.09895185914115],[140.02544432889283,35.09897684500555],[140.02545084448104,35.09903778756399],[140.02543411259444,35.09909296366948],[140.0253407368857,35.099307657922225],[140.02533220411806,35.09935740571984],[140.02533624027546,35.09954719864447],[140.02532766703837,35.09960570044291],[140.02529771152035,35.09964389015357],[140.02525450808923,35.09966228218872],[140.0252098990178,35.09966347468975],[140.02516388880258,35.09964971146519],[140.02513202312457,35.09964976182721],[140.02508944022566,35.099655316040185],[140.0250461360705,35.0996704885024],[140.025014093226,35.09972153132378],[140.02500884028598,35.09987358240005],[140.0249529905882,35.10002918399982],[140.02484671500406,35.10015374999574],[140.02476218682568,35.10034000408808],[140.02472410863083,35.100645831140355],[140.02459127246948,35.10081872670304],[140.0245260374469,35.10098877231417],[140.02452832082554,35.101115777271445],[140.024585088731,35.101450808907884],[140.02458765089955,35.101542469609456],[140.0245480591458,35.10166974436339],[140.02455317538886,35.101721260228146],[140.02458067485838,35.10175476447097],[140.02462330722005,35.101772428954575],[140.02475052351804,35.101783730734724],[140.024881881194,35.10181994643352],[140.02508475655645,35.10192473094173],[140.02518778918534,35.10201436816874],[140.02529710537726,35.10216554960061],[140.02526886216845,35.102361412049675],[140.02567592860146,35.10242985585336],[140.02576809112463,35.102942793175544],[140.02570953087036,35.10317442885696],[140.02656182376938,35.10485422304413],[140.02644494877552,35.10572806459868],[140.02716467980633,35.10601853842496],[140.02737179906944,35.106016888168995],[140.028389877491,35.10567083624028],[140.0299391971364,35.105957169587896],[140.03021813266082,35.106077138249475],[140.03122626008405,35.10599768584467],[140.0314920906876,35.105923189603686],[140.03228786209536,35.10543251050211],[140.03362675387177,35.1057378033571],[140.03397150358217,35.10555259787424],[140.03443196186572,35.10574705378366],[140.03501759678488,35.10558122779162],[140.03544635036894,35.10560557154008],[140.03579249762583,35.10545695407535],[140.03630952866195,35.105469278384646],[140.03701297386988,35.10522548386916],[140.037347809454,35.10557572843726],[140.03747078275057,35.10581083819977],[140.03794772021126,35.10620498137496],[140.0384717794492,35.10614258371345],[140.03916253792102,35.1061926723541],[140.03942949717373,35.1064673145151],[140.0413498168408,35.105966758159525],[140.04182965461507,35.10590345488072],[140.04240954286627,35.105988634168284],[140.04248563540398,35.105965313848344],[140.04338244474422,35.10536596966392],[140.04308772072193,35.10526485978562],[140.04290708289568,35.1052143052961],[140.04273119888592,35.10500819507229],[140.04254105432642,35.10480208394915],[140.04250777851132,35.10464263954634],[140.04253630051005,35.10449097158124],[140.04226059085374,35.103736518625624],[140.0419040699171,35.10331651184771],[140.04232238866746,35.102698160491855],[140.0424790289842,35.10260212368922],[140.04276732735048,35.102462159501215],[140.04270790734427,35.102194790157625],[140.04261331035616,35.10211739899893],[140.04252370460551,35.10204409076232],[140.0426841391619,35.101793732994565],[140.04276732735048,35.10156525033619],[140.042713849165,35.10117634391332],[140.04277921189134,35.10083118681001],[140.04277921189134,35.100714514163656],[140.04277327007048,35.100602702353],[140.042583125511,35.100213791433475],[140.04241674913385,35.0998880776728],[140.04241318332197,35.09981758701218],[140.04243695150433,35.099767028026065],[140.04253677715076,35.09972372836751],[140.04266026665812,35.09967559755097],[140.04299320197492,35.0995392873084],[140.0430272458109,35.09951474211181]]]]}},{"type":"Feature","properties":{"A46-a_001":"12","A46-a_002":"12463","A46-a_003":"安房郡鋸南町","A46-a_004":"横根","A46-a_005":"鋸南町横根","A46-a_006":"1960/03/04","A46-a_007":"建第315号","A46-a_008":24.5,"A46-a_009":1},"geometry":{"type":"MultiPolygon","coordinates":[[[[139.91110628662602,35.14241768722667],[139.91118590810333,35.14263426555908],[139.91160413422358,35.14224247590971],[139.9117793392453,35.1419535561119],[139.91181413941115,35.141909302272666],[139.9119976739537,35.14171976745348],[139.9122090542047,35.14150159462304],[139.9123919718122,35.1413307935814],[139.9124128513722,35.14130372039057],[139.91245639294834,35.14112780670308],[139.91246648064373,35.14107836467497],[139.91249878609028,35.14100279374412],[139.91255754869212,35.140917510135125],[139.9126650428576,35.14081257993678],[139.91274869059976,35.140736816551],[139.9127625905213,35.14069882019459],[139.91281434200846,35.14043884417748],[139.9129127458267,35.14006449058394],[139.91289131857968,35.13973405358388],[139.91273587166336,35.13932125217423],[139.9110345486057,35.137837229604656],[139.90954811675238,35.1395327745181],[139.91018341133554,35.141772027057584],[139.91110628662602,35.14241768722667]]]]}},{"type":"Feature","properties":{"A46-a_001":"12","A46-a_002":"12238","A46-a_003":"いすみ市","A46-a_004":"苅谷","A46-a_005":"いすみ市苅谷","A46-a_006":"1981/03/17","A46-a_007":"建第545号","A46-a_008":11.6,"A46-a_009":1},"geometry":{"type":"MultiPolygon","coordinates":[[[[140.3098459048648,35.28067295739123],[140.30996114039453,35.280674864853324],[140.31002386990588,35.28067147440919],[140.31008266038668,35.28066737799725],[140.31014280434715,35.28066899857561],[140.31022441512482,35.280669095702365],[140.3102800103144,35.28066773322945],[140.3108559100724,35.28065681276189],[140.31099322305897,35.2806551256337],[140.31113182477407,35.28064841219464],[140.3112025879293,35.28064973779533],[140.31138698492157,35.28064510808542],[140.3114605278812,35.2806434416417],[140.3119782370062,35.28063363903141],[140.31204636784582,35.280630851133026],[140.31212311688853,35.28062991403948],[140.31263860918466,35.28062186420783],[140.31274861875397,35.28061889194845],[140.31280457726962,35.28061913116812],[140.312906340955,35.280614348573465],[140.3129412121674,35.280612741485015],[140.31298202879782,35.280612723498564],[140.31302724131433,35.280612111959556],[140.31307191153962,35.280609050667294],[140.31330008752923,35.28060519167644],[140.3148597592707,35.27860287092591],[140.31356760076437,35.277972534305206],[140.31093861082843,35.277823040900785],[140.3099661037529,35.27898978175318],[140.3098459048648,35.28067295739123]]]]}},{"type":"Feature","properties":{"A46-a_001":"12","A46-a_002":"12223","A46-a_003":"鴨川市","A46-a_004":"西平","A46-a_005":"鴨川市西","A46-a_006":"1990/03/31","A46-a_007":"建第813号","A46-a_008":38.1,"A46-a_009":1},"geometry":{"type":"MultiPolygon","coordinates":[[[[139.99582523194908,35.09397872693688],[139.9957393664788,35.09490629848705],[139.99572972124986,35.095083605224374],[139.99582479397918,35.09564367241774],[139.99691193673664,35.09655892955112],[139.99760810822784,35.09694989362288],[139.9982112340614,35.09806635427901],[139.9982420232509,35.0992466596058],[139.99887559743104,35.10171942920846],[139.99974245844783,35.101354620119764],[140.0016444868038,35.10084420269794],[140.00218809280636,35.10078251190356],[140.00310275998459,35.10088279260697],[140.0028779690432,35.0997456529397],[140.00228242719243,35.09858871739556],[140.00106917610174,35.09749357067193],[140.00059823981712,35.09682393547638],[140.00017744253512,35.096499527531364],[139.99968151678877,35.095687740996595],[140.00027422757375,35.095483808930794],[140.0026963554526,35.095582008603],[140.00435292105067,35.095945294240096],[140.00514396921903,35.09604573412349],[140.00630559472756,35.09608470624437],[140.00541509323216,35.095700050916776],[140.00487131096236,35.09566019835961],[140.003906469708,35.09517407792151],[140.0028680045549,35.09493179426704],[140.00173094312868,35.094811508144744],[140.00076683572104,35.09467066172181],[140.00019768717368,35.09430583554604],[139.99940604455344,35.09390068826633],[139.9986148192187,35.09369865197135],[139.99797244697106,35.09378077266467],[139.99676220231402,35.09412770952633],[139.99614478895103,35.09407724586839],[139.99582523194908,35.09397872693688]]]]}},{"type":"Feature","properties":{"A46-a_001":"12","A46-a_002":"12223","A46-a_003":"鴨川市","A46-a_004":"貝渚","A46-a_005":"鴨川市貝渚","A46-a_006":"1960/06/01","A46-a_007":"建第1007号","A46-a_008":17.6,"A46-a_009":1},"geometry":{"type":"MultiPolygon","coordinates":[[[[140.0997002467692,35.09445495213453],[140.09982834800007,35.094452005056155],[140.09993426745268,35.09448047669281],[140.10015724266282,35.09454821992455],[140.10081560575577,35.094508036416926],[140.10098973788627,35.09455367161485],[140.1011594552449,35.09451701165091],[140.10167007141683,35.094499690708346],[140.10196820386966,35.09438662434343],[140.10226571938767,35.0944503260219],[140.10274238075647,35.09424799474931],[140.10305752298643,35.09408327312474],[140.10328375733968,35.09404734430967],[140.10332869826095,35.09404997212869],[140.1033654715394,35.094073769089334],[140.1034170989202,35.09413919656686],[140.1034415910567,35.09415642847654],[140.1034772932427,35.09415837910609],[140.1035251839403,35.09414504575744],[140.10404242092113,35.09395199279038],[140.10412206308297,35.09393202604235],[140.10419531825949,35.0939332284359],[140.10426543660083,35.0939694801076],[140.10431302692484,35.09400973556103],[140.10434846111275,35.094016289820104],[140.10438144015154,35.09400631723793],[140.10463458132108,35.093832667144056],[140.10471208129775,35.09374766862015],[140.10471109204343,35.09371685335026],[140.10466979967168,35.09366956879575],[140.10462638040326,35.09349977319613],[140.10458781927264,35.09340679858508],[140.10457434023374,35.09325719006745],[140.10469441681403,35.09312841164706],[140.104264012974,35.092777220992105],[140.10441950215852,35.09268042785965],[140.1038596274201,35.09204699217514],[140.10348285734813,35.091400276201966],[140.10350063964302,35.09135161208741],[140.1035445931086,35.09130743019392],[140.10361956239308,35.09127733528095],[140.1037193583619,35.09126529605675],[140.1037750875504,35.09123910689942],[140.10447042626936,35.09117151205578],[140.10469525588155,35.09115270543316],[140.1043683469219,35.090935408542464],[140.10383645279023,35.09071621318287],[140.10305882160753,35.09075401798373],[140.10300523550336,35.09076668943135],[140.10298027481997,35.09079189742829],[140.10297323132977,35.09083553253396],[140.10294929947077,35.09086367501874],[140.10289421869345,35.09088583341463],[140.1029080079984,35.091067956021504],[140.10287558563994,35.091102816442],[140.10268868763296,35.091108365259004],[140.1026853493496,35.090927179745734],[140.10268067647223,35.09091478978587],[140.10259651971376,35.09091969468835],[140.1025966024514,35.09095402540811],[140.10259026492895,35.090973585662596],[140.1025699897134,35.09099078339813],[140.1024330409523,35.09101928291375],[140.10223661013163,35.09106561148894],[140.10219329068798,35.09109340054016],[140.102078584859,35.0912553900244],[140.10200011631252,35.0913059526078],[140.10195959555904,35.09130702729766],[140.10167147076197,35.091238355066196],[140.1010330096658,35.09104271385036],[140.10075762736278,35.090557552988855],[140.10058962950802,35.09027158116868],[140.10033797851509,35.090035340059046],[140.10004644079083,35.08982500841756],[140.0998669603921,35.08963450952518],[140.09978228022828,35.08950568613869],[140.09973138489568,35.08936725259679],[140.09972344568064,35.089243980725314],[140.0997681168053,35.089135544969565],[140.09984660064026,35.089026895175266],[140.0999994620057,35.08887668680984],[140.1000796482573,35.08878193873562],[140.10050071623527,35.08859340126463],[140.10077202730736,35.08832114770297],[140.1008806780011,35.08822984313292],[140.10098252982004,35.08817703943896],[140.10109475891613,35.08814176443104],[140.1012249384803,35.08812117805007],[140.10132105981927,35.08810977824385],[140.1013312482387,35.08806322663679],[140.10136787222973,35.08799608505143],[140.10141698330733,35.08793835756933],[140.10144735161418,35.08782007963316],[140.10143813805985,35.08776195465066],[140.10106068540244,35.08754211897377],[140.09992950734102,35.087468805341246],[140.09945111477725,35.08745830305838],[140.0990393808629,35.0875650606792],[140.0987898459748,35.08769091990018],[140.09842261770984,35.087892636935806],[140.0969248813783,35.08771263852759],[140.09697163803082,35.088074178580655],[140.09684736521388,35.08870914760922],[140.09681280516702,35.08878575006247],[140.09681280606628,35.08887618498812],[140.096763511527,35.08894199108016],[140.096642941219,35.089077232928105],[140.09651206468027,35.08929775029111],[140.09647212578818,35.08954525451003],[140.09645997055134,35.089780625975266],[140.09648604639415,35.090033964096335],[140.09648849344944,35.09033781264009],[140.09663110164422,35.09037865265287],[140.0966824079669,35.0905977688721],[140.0966346674561,35.09116337498995],[140.09651416459724,35.09153181284307],[140.0962788614804,35.09194021476924],[140.0962671379183,35.09213559158445],[140.09622103327422,35.09236132861258],[140.09646114506597,35.09243041723016],[140.096486638148,35.09245353250469],[140.09648350580937,35.092516440081795],[140.09648499778461,35.09255411627959],[140.09653008889268,35.09266873847167],[140.09657415117636,35.09271378191568],[140.0966110863327,35.09273111275081],[140.09720742048626,35.0928038831928],[140.09730303101026,35.09283008494066],[140.09775781816893,35.0928717972958],[140.09797772039565,35.09289322004622],[140.09801918453786,35.09291721215976],[140.09802125927388,35.09294043805096],[140.09799607465925,35.09296785478284],[140.09791339099036,35.093024397857846],[140.09788923070357,35.09305762061285],[140.09788835836127,35.09311652350891],[140.0979051469052,35.093216156700464],[140.09794725765994,35.09334399173201],[140.09798634939068,35.093413802505154],[140.09811209349846,35.0935462420656],[140.09817958312146,35.09358694628071],[140.0983243038237,35.09372151363709],[140.09837376923429,35.093751770428014],[140.09842838596137,35.09376648513535],[140.09871494863614,35.09375795146843],[140.098898506561,35.09382790793177],[140.0989862875873,35.09387530400227],[140.09935587837128,35.094258665205416],[140.09950977665505,35.09435984343219],[140.0997002467692,35.09445495213453]]]]}},{"type":"Feature","properties":{"A46-a_001":"12","A46-a_002":"12234","A46-a_003":"南房総市","A46-a_004":"増間","A46-a_005":"南房総市増間","A46-a_006":"1968/03/31","A46-a_007":"建第252号","A46-a_008":500.0,"A46-a_009":1},"geometry":{"type":"MultiPolygon","coordinates":[[[[139.92377465317793,35.07549045172311],[139.94133715458622,35.075476083254784],[139.94265263341254,35.074369510644544],[139.94250836776712,35.07307138783443],[139.9410328294017,35.07007204448945],[139.94018127214815,35.06751621530128],[139.93876633819616,35.06382037041391],[139.93396042593304,35.06056639302477],[139.92754099322246,35.06013151235959],[139.92376083779266,35.06076334815015],[139.92135124646302,35.05982487232018],[139.9174260726553,35.059208568720635],[139.91532511066555,35.060228507839554],[139.9122417094875,35.063889348414875],[139.90901554992786,35.07135797249259],[139.91046375339965,35.07280818864717],[139.91229913749532,35.07322638958635],[139.91445356328154,35.07516315515568],[139.91822186294883,35.076013695276],[139.91999973000372,35.07626825377707],[139.92243240153425,35.07525190385246],[139.92377465317793,35.07549045172311]]]]}},{"type":"Feature","properties":{"A46-a_001":"12","A46-a_002":"12234","A46-a_003":"南房総市","A46-a_004":"野々塚","A46-a_005":"南房総市平久里中","A46-a_006":"1981/03/17","A46-a_007":"建第545号","A46-a_008":138.6,"A46-a_009":1},"geometry":{"type":"MultiPolygon","coordinates":[[[[139.92446616168422,35.10380000356747],[139.92451046408678,35.10383501957068],[139.92451091554653,35.10424048790833],[139.92433722768112,35.10464608754705],[139.92474443171034,35.105432867532954],[139.92503496039524,35.10569501091618],[139.92503533451327,35.106028925594615],[139.92497771405044,35.1064105870791],[139.92471687198622,35.106744699608385],[139.92480418446576,35.10695929403636],[139.92509506658428,35.1075315002787],[139.92480522318272,35.10788948621098],[139.92460290360134,35.108652873931135],[139.92442912760237,35.10898691991059],[139.92347173003645,35.109369253188675],[139.92312384978607,35.109751128711764],[139.92326921080564,35.10996568087165],[139.9235598042418,35.11027552879278],[139.9235891185432,35.11053786912754],[139.9238218217199,35.11099086663535],[139.9241415783713,35.11141994667338],[139.92454865469688,35.112063620240065],[139.92460726531317,35.1125644490902],[139.92495573731765,35.11270729290743],[139.92536231721738,35.11289779359845],[139.92588476127287,35.112873544278784],[139.9267266013518,35.11294445222484],[139.92713318574806,35.113134946620676],[139.92727881026906,35.113564153463074],[139.9272213318991,35.11406507044683],[139.92719271547162,35.11442285942758],[139.92754153011765,35.114851907989305],[139.9280088700135,35.11552823593951],[139.93075343182556,35.11048621027055],[139.93103240692017,35.10997368843516],[139.93395782239577,35.10925088711889],[139.93719028890087,35.10845221359892],[139.93875250212648,35.111670931268634],[139.9412703673338,35.1097888022116],[139.9431957600765,35.108394168656105],[139.94012823013384,35.106450659970164],[139.93910286810308,35.1035703454952],[139.93747882738614,35.10454487694466],[139.9296287171917,35.10314578724842],[139.92851366397463,35.103408500801834],[139.9221486897104,35.10275370352076],[139.922946705826,35.10303836502868],[139.9233475327626,35.10332428199018],[139.92442768868705,35.103781416379434],[139.92446616168422,35.10380000356747]]]]}},{"type":"Feature","properties":{"A46-a_001":"12","A46-a_002":"12223","A46-a_003":"鴨川市","A46-a_004":"高田","A46-a_005":"鴨川市東","A46-a_006":"1960/06/01","A46-a_007":"建第1007号","A46-a_008":38.3,"A46-a_009":1},"geometry":{"type":"MultiPolygon","coordinates":[[[[140.04243562770228,35.09992503711095],[140.042583125511,35.100213791433475],[140.04277327007048,35.100602702353],[140.04277921189134,35.10083118681001],[140.04273764792424,35.10105067085192],[140.042713849165,35.10117634391332],[140.0427412263267,35.10137543762653],[140.04275765694047,35.10149492425154],[140.04276732735048,35.10156525033619],[140.0426841391619,35.101793732994565],[140.04261169427446,35.10190678317167],[140.04252370460551,35.10204409076232],[140.04270790734427,35.102194790157625],[140.04276732735048,35.102462159501215],[140.04232238866746,35.102698160491855],[140.0419040699171,35.10331651184771],[140.04226059085374,35.103736518625624],[140.04253630051005,35.10449097158124],[140.04250777851132,35.10464263954634],[140.04254105432642,35.10480208394915],[140.04273119888592,35.10500819507229],[140.04290708289568,35.1052143052961],[140.04323494243886,35.10531536661102],[140.04338244474422,35.10536596966392],[140.04347679531804,35.10535602675941],[140.0435029413079,35.10536304057206],[140.04352843169193,35.105371531071455],[140.04355314326313,35.10538145509025],[140.04357695551232,35.10539276676292],[140.0435997542255,35.10540541033157],[140.04367387005323,35.10544892223015],[140.04370323561602,35.10546475749271],[140.04373375770695,35.10547903962612],[140.04376531401817,35.105491711073796],[140.04379778044336,35.10550272327225],[140.04400428187228,35.10557015264061],[140.04410748537236,35.10554957435352],[140.0442917816406,35.10548008913497],[140.0443895595307,35.1054724044281],[140.0443959528111,35.105472077074865],[140.04440235958145,35.105472098658595],[140.04440875016383,35.10547246917929],[140.0444150966796,35.10547318683825],[140.04442137124943,35.10547424893758],[140.04442754689398,35.10547565008136],[140.04443359573406,35.10547738397423],[140.04443949079007,35.10547944432108],[140.0444452077803,35.105481820329885],[140.0444507197251,35.105484503007574],[140.04445600414147,35.10548747976355],[140.04446103674763,35.10549073800729],[140.04446579506055,35.10549426245041],[140.0444702583959,35.10549803870367],[140.04447440786782,35.10550205057933],[140.0444782254899,35.105506278292296],[140.04448169327566,35.105510704755375],[140.0444847959368,35.10551531108291],[140.0444875208825,35.10552007569112],[140.0446460003128,35.105807714854336],[140.04476565331242,35.10579586628637],[140.04477232538272,35.105795388746344],[140.04477902083534,35.105795275431774],[140.04478570999265,35.10579552724198],[140.04479236497582,35.10579614147889],[140.04479895520774,35.105797116344036],[140.04480545370893,35.105798448239966],[140.0448118299022,35.10580012997218],[140.04481805680803,35.10580215524544],[140.04482410654748,35.105804514167176],[140.0448299530401,35.10580719774413],[140.04483557110495,35.10581019248656],[140.04484093556096,35.10581348760252],[140.04484602302568,35.10581706600493],[140.04499015467206,35.10594335060529],[140.04500576960072,35.1059561632465],[140.0450223737837,35.10596810714259],[140.0450398943758,35.10597913103226],[140.04505825673334,35.10598918815066],[140.04507738171594,35.10599823353181],[140.04509718658608,35.10600623030348],[140.04511758680735,35.10601314249271],[140.04513849514558,35.106018941321224],[140.0451598207693,35.106023600708795],[140.04546681154432,35.10607174051859],[140.0457896510717,35.10597046786296],[140.04613098335835,35.10592340274303],[140.04646701054423,35.10591628820629],[140.0466766200302,35.10598195040683],[140.04687728216106,35.10600154843286],[140.0470401565782,35.10597312985624],[140.0470820254153,35.10596457820287],[140.04712308036608,35.10595368111768],[140.04716312627738,35.10594049076121],[140.04720197519123,35.10592507008607],[140.04723944094758,35.10590749103807],[140.0472753481789,35.105887836354725],[140.0473095269133,35.10586620046496],[140.04734181437345,35.10584268589139],[140.04756302151645,35.105640065936484],[140.04758708017982,35.10561949394463],[140.04761279629372,35.10560032489525],[140.0476400511476,35.10558264872043],[140.04766871523918,35.10556654815781],[140.04769865456944,35.105552099649856],[140.04772972884405,35.1055393706456],[140.04780810296177,35.10550791505841],[140.04788436637057,35.10547312928168],[140.04795830952855,35.10543511134148],[140.0480788582529,35.10535722105908],[140.0482560966417,35.10522212939793],[140.0483401598707,35.10512321116744],[140.04836767642735,35.105021389026035],[140.04836814407474,35.1049052451811],[140.04841611840936,35.10486045084929],[140.0484322585421,35.10484632160063],[140.04844946706942,35.10483307188895],[140.04846767474362,35.10482075657285],[140.04848680602151,35.104809426014356],[140.04850678086348,35.10479912697832],[140.04852751922976,35.104789900833396],[140.04854893478569,35.10478178714993],[140.0485709384982,35.1047748192027],[140.04859280821165,35.10476912919211],[140.04861504394933,35.1047644949856],[140.0486375701679,35.10476093367032],[140.04877960999124,35.104738466806964],[140.04898582633496,35.104630746911596],[140.0491198478029,35.10451483149444],[140.049195059005,35.10444549556331],[140.04926475736283,35.1043723734864],[140.04932866228808,35.104295761140634],[140.0496284827684,35.10361354892632],[140.04974587037577,35.10313004551534],[140.05007168216252,35.102170333094534],[140.04991363980287,35.101634744547994],[140.0488941845192,35.10050416003912],[140.04876499331,35.09972981587845],[140.0468236537888,35.09790779301039],[140.04603960324528,35.0973592398372],[140.04597770920407,35.0974170140841],[140.04585374485464,35.09746416823697],[140.04563014551502,35.09749674617808],[140.04441576577517,35.09735101823509],[140.04430751707844,35.09730046194693],[140.0442930919528,35.097196881630964],[140.04438693530903,35.097065193004426],[140.04439317480535,35.096967894452916],[140.04434088912092,35.09682671797884],[140.04426986516228,35.096774512334036],[140.04420262824885,35.09675623361346],[140.04388689876157,35.096779292230735],[140.04372851825667,35.09686781789566],[140.04366437860836,35.096901466029976],[140.04359796547385,35.09693198902022],[140.04352950188513,35.096959282545015],[140.04345922256528,35.096983254873464],[140.04338736403577,35.09700382326798],[140.0433141700131,35.0970209193801],[140.04325411868285,35.09703210065106],[140.04319346300804,35.09704079979326],[140.04313235407506,35.09704699702144],[140.04302464407226,35.09709327883189],[140.04295337369945,35.0972221993452],[140.04291783698875,35.09738514840603],[140.04281232223104,35.09757777149713],[140.04271556597075,35.09769281906853],[140.0425951314603,35.09782783338795],[140.04279112161316,35.09795380052765],[140.04289800334038,35.09789475104208],[140.0430428202701,35.09791710279222],[140.04307637397562,35.097922281987906],[140.04319521398816,35.097968465772226],[140.04325760535437,35.09804624993467],[140.04324275035287,35.098124034996374],[140.04323767637788,35.098141530407474],[140.0432141276301,35.098222725698406],[140.0432011558089,35.09826744988305],[140.04322789535127,35.09835252664794],[140.043233837172,35.09843760251351],[140.04315817271163,35.098517716819345],[140.04310458031227,35.09857445954384],[140.04307275960036,35.09860815084568],[140.04303180807165,35.09865150985945],[140.04298821703276,35.098701441118806],[140.04292782306072,35.09877061697057],[140.0428654316945,35.098933477897845],[140.04280304032818,35.099042861538976],[140.04277927214582,35.09920572066761],[140.04276964580265,35.09938792871009],[140.04293010643948,35.09944340518916],[140.04300385804174,35.099468903667116],[140.04305384415977,35.09948618593887],[140.0430272458109,35.09951474211181],[140.04299320197492,35.0995392873084],[140.04262591345537,35.09968966294775],[140.04254394384816,35.099720417963056],[140.04250218562754,35.09973873265653],[140.04243695150433,35.099767028026065],[140.04241318332197,35.09981758701218],[140.04241674913385,35.0998880776728],[140.04243562770228,35.09992503711095]]]]}},{"type":"Feature","properties":{"A46-a_001":"12","A46-a_002":"12223","A46-a_003":"鴨川市","A46-a_004":"佐久間森","A46-a_005":"鴨川市金束","A46-a_006":"1978/08/17","A46-a_007":"建第1359号","A46-a_008":163.7,"A46-a_009":1},"geometry":{"type":"MultiPolygon","coordinates":[[[[139.9502394445949,35.14408477579195],[139.95036453669422,35.14375517785936],[139.95036453219757,35.14154438976192],[139.94893845294746,35.14159298013209],[139.94546237448913,35.138313131945665],[139.9404116775571,35.13841031808187],[139.9396986356836,35.13782722015026],[139.93750009635255,35.13738989602706],[139.93075592474634,35.13617509360586],[139.9314913876176,35.1368021710835],[139.9319952705655,35.13739304994948],[139.9319792212642,35.13764774694613],[139.93193822926605,35.13802279931292],[139.93198576653003,35.13833378397709],[139.93231851928442,35.1386603170202],[139.9323335730361,35.13889575773322],[139.9323255456876,35.13898605596188],[139.93212589439474,35.138962732044604],[139.93180725110392,35.13916480611107],[139.93150777596327,35.139666262688024],[139.9315174364807,35.140105585104834],[139.9317359510535,35.14043593307201],[139.93179314793565,35.140914123288326],[139.9316381569755,35.141142589758886],[139.930821732637,35.14224683672228],[139.93123706743688,35.14290300996612],[139.93137967832968,35.14411577272489],[139.9312798544819,35.14473614126007],[139.9308043919093,35.146379432864705],[139.93084244312445,35.146698050075145],[139.93131780317424,35.14705564480232],[139.9316980931926,35.1476619965041],[139.93240637945098,35.14778248857118],[139.9333761130174,35.147770827062175],[139.93416511702674,35.1475012561782],[139.93462146181116,35.14725249560638],[139.9357861845849,35.14648815190685],[139.93738339312927,35.14633656128342],[139.93774060834255,35.146027603691095],[139.93821315891034,35.14599020988044],[139.9391232098684,35.14659309559505],[139.9392372978632,35.14714114874516],[139.94016424978054,35.147428777116545],[139.94077746420874,35.14746375804617],[139.94140493918678,35.14760368536196],[139.94186366357735,35.14759955567513],[139.94238893420209,35.14780191392737],[139.94254580384597,35.148221693176765],[139.94247806241287,35.14848713167595],[139.94255427186238,35.14871145856711],[139.9425641455191,35.1487159371909],[139.94868617332838,35.14452320158466],[139.9502394445949,35.14408477579195]]]]}},{"type":"Feature","properties":{"A46-a_001":"12","A46-a_002":"12234","A46-a_003":"南房総市","A46-a_004":"東星田","A46-a_005":"南房総市山田","A46-a_006":"2008/06/06","A46-a_007":"国第705号","A46-a_008":53.8,"A46-a_009":1},"geometry":{"type":"MultiPolygon","coordinates":[[[[139.9511431877081,35.094648836075066],[139.95125295356115,35.096833345982304],[139.95172817871264,35.099374037781786],[139.95509317650908,35.09929790117735],[139.95646717152295,35.10154314410096],[139.96063920383642,35.101313638014176],[139.96180186086735,35.09920126092959],[139.96092595626806,35.09815603557274],[139.95708376470418,35.094218554542806],[139.9563422026307,35.09345622622402],[139.95526867920637,35.09242093477849],[139.95460476369908,35.09253092186469],[139.9540628547171,35.09268611247427],[139.95356958017214,35.09278631313799],[139.9532214705946,35.09294865245852],[139.9528007785333,35.09308867330378],[139.95228026082555,35.09321702634486],[139.95186669858947,35.093269534161834],[139.95151255815824,35.09387628696123],[139.9511431877081,35.094648836075066]]]]}},{"type":"Feature","properties":{"A46-a_001":"12","A46-a_002":"12234","A46-a_003":"南房総市","A46-a_004":"大井","A46-a_005":"南房総市大井","A46-a_006":"1988/07/18","A46-a_007":"建第1580号","A46-a_008":457.3,"A46-a_009":1},"geometry":{"type":"MultiPolygon","coordinates":[[[[139.99369467057272,35.09576380925256],[139.99325562244917,35.096967647139365],[139.9919170625226,35.09715511801443],[139.98999526706814,35.09624994407983],[139.98962094405147,35.09508059159617],[139.98929115816065,35.094202730072084],[139.9899459023817,35.093656177890466],[139.99164613995754,35.09361924723066],[139.99217357974703,35.0933231382524],[139.99037078708238,35.0924528427247],[139.989241943661,35.09231035413967],[139.98795175287125,35.09168477403324],[139.98724306191798,35.09004488456395],[139.9858212427563,35.08949690875551],[139.98433145643173,35.08896303071947],[139.9831360811654,35.0877902392283],[139.9821575765111,35.08765438943868],[139.98164494226046,35.08715853563808],[139.98047234951946,35.086779892278344],[139.9792340774909,35.086563912894405],[139.97721154897397,35.08615593994483],[139.97615939973673,35.08625896178182],[139.97539136342084,35.086760158454695],[139.97455685731325,35.086846822523],[139.97358875691577,35.08682696009629],[139.97269110311208,35.087023864859646],[139.97220662483608,35.08718764579339],[139.9710272575021,35.08780459690479],[139.96875255728492,35.08869331954122],[139.9661514805066,35.08924365966732],[139.9614139266116,35.08980500749527],[139.96212764387587,35.092050666804994],[139.96121311699198,35.09408041507925],[139.96090719910808,35.09653684220166],[139.96139753107138,35.09835068573574],[139.96229782078797,35.099714893427745],[139.9618193895534,35.101435614861884],[139.9652119812481,35.10130643174659],[139.96744421278038,35.10080691230934],[139.96918613663104,35.10137901782758],[139.97398635708487,35.1009995767692],[139.97582042097588,35.10204882569292],[139.9786293904342,35.10246996381795],[139.98116297669026,35.10216440476364],[139.98431721206987,35.102040406239894],[139.98648642450905,35.10244719028577],[139.98821778672163,35.10380483922211],[139.990733632951,35.10427255953118],[139.9919667581595,35.1034340964066],[139.9957914462184,35.10315519415707],[139.99772335095201,35.10266408967618],[139.99887559743104,35.10171942920846],[139.9982420232509,35.0992466596058],[139.9982112340614,35.09806635427901],[139.99760810822784,35.09694989362288],[139.99691193673664,35.09655892955112],[139.99660837867395,35.09630336740662],[139.99582479397918,35.09564367241774],[139.99572972124986,35.095083605224374],[139.9957393664788,35.09490629848705],[139.99387358529793,35.094906301185006],[139.99369467057272,35.09576380925256]]]]}},{"type":"Feature","properties":{"A46-a_001":"12","A46-a_002":"12223","A46-a_003":"鴨川市","A46-a_004":"椎郷","A46-a_005":"鴨川市平塚","A46-a_006":"1960/06/01","A46-a_007":"建第1007号","A46-a_008":61.7,"A46-a_009":1},"geometry":{"type":"MultiPolygon","coordinates":[[[[139.9621198674381,35.132233003550425],[139.96329956572254,35.13167349573541],[139.9644419187597,35.12860236670605],[139.9647538989734,35.12824503008426],[139.96050665455869,35.127054944630174],[139.95965299379077,35.12581966914257],[139.9594421612269,35.1248642977493],[139.95883396771364,35.12451886005749],[139.95752377690098,35.123820893519564],[139.957440484391,35.123372951100976],[139.9570612654652,35.1229436938965],[139.95631290721508,35.122127993512265],[139.95610611260724,35.121887173054745],[139.95599797542638,35.121740195054144],[139.95601889275792,35.12135999946457],[139.9560199008979,35.12130807800554],[139.956017214623,35.121256197016066],[139.95601084562418,35.1212045345618],[139.95600081368673,35.121153265111275],[139.9559871529849,35.12110256493162],[139.95595903927847,35.12102171228236],[139.95592484345696,35.120942456829084],[139.9556566440391,35.120285735898165],[139.9553716623725,35.11963922317176],[139.95533816622356,35.11956924332611],[139.95530008353217,35.11950086607226],[139.95525752761296,35.11943429375782],[139.95517657693767,35.11932129933865],[139.9551359896344,35.11927079700985],[139.95509174119104,35.11922241528242],[139.9550439952843,35.11917633402078],[139.95474816329727,35.11891740031791],[139.95442257724028,35.118631808011685],[139.95324237173827,35.11833381315512],[139.9520560778259,35.11856460167519],[139.95095922508835,35.119732967602545],[139.9507422240746,35.12026510904769],[139.9507013732699,35.12035483350894],[139.9506530544951,35.12044201738536],[139.95059750067435,35.12052624069361],[139.9505785087913,35.12055122206141],[139.95055790352455,35.12057532479156],[139.9505357424307,35.12059847693831],[139.9505120929589,35.120620611951836],[139.95033661364403,35.12082684898007],[139.95024919414516,35.120936254204935],[139.95023979892778,35.120949833068494],[139.95023157462765,35.12096391555241],[139.95022456351296,35.12097843420753],[139.95022064156956,35.120988521003596],[139.9502175550963,35.120998802053236],[139.950215317583,35.12100923059171],[139.95021393982165,35.1210197589549],[139.95021342810742,35.12103033947875],[139.95021378333956,35.121040924499255],[139.95021468446032,35.12106594543718],[139.95021365113928,35.121090963677204],[139.95021068877247,35.121115877595855],[139.95020528294765,35.121143929249115],[139.95019798045257,35.12117168952204],[139.95018880556916,35.12119907207966],[139.95017778527676,35.1212259923858],[139.95011908203014,35.121370843489785],[139.95007078304036,35.121506792204855],[139.94999587580924,35.12173169915877],[139.9499669428203,35.121809017472344],[139.94982676819097,35.12190050370543],[139.94972509893432,35.12204009197683],[139.94962183248174,35.12217191550167],[139.94959104509087,35.12221373037954],[139.94956313822843,35.122256888844504],[139.94953819733007,35.12230125599831],[139.94951630153628,35.12234669514402],[139.9495013350188,35.12238301336555],[139.9494883865799,35.12241985139519],[139.94948502131683,35.122431756620415],[139.94948253828863,35.12244380663651],[139.949480947388,35.12245595917534],[139.94948025401072,35.12246816747211],[139.9494809204083,35.122531280994],[139.9494854332064,35.122594287496554],[139.94948858712883,35.122643081113495],[139.9494880844078,35.12269194217953],[139.94948392594256,35.12274068543445],[139.9494761288205,35.12278912651715],[139.94945754522973,35.122873082726755],[139.94943536704875,35.122956448081766],[139.94937006547627,35.12316111219576],[139.94936309842842,35.123183836265184],[139.94935797589005,35.12320688948654],[139.9493547212436,35.123230170236354],[139.94935334887816,35.123253576891216],[139.94935386508894,35.123277006928504],[139.94935626627887,35.12330035692611],[139.94936054345453,35.12332352615999],[139.9493666768309,35.12334641210742],[139.9494012054015,35.123489331467624],[139.94949293535092,35.1237832496974],[139.9495105971365,35.1238470538986],[139.94947112139528,35.12428770551338],[139.94946962852077,35.12431745778463],[139.94947047388348,35.124347226243685],[139.94947123830718,35.12437292347181],[139.94947005210145,35.1243986099081],[139.94946692246072,35.124424185727776],[139.94945633024565,35.124482428521446],[139.94984880877564,35.12488688692048],[139.95061851783055,35.12497421378907],[139.95107893564455,35.12597118152496],[139.95159029915317,35.12608798277438],[139.95207725326281,35.12758697815667],[139.95201261628938,35.12834771917204],[139.95233014891744,35.12866621767199],[139.95226871532918,35.1292581181678],[139.95305024777088,35.12959474879881],[139.9564307606712,35.13070705458705],[139.95628593025162,35.13128145067856],[139.95587699412818,35.13179273684551],[139.9556186755616,35.13287038096348],[139.9560329239804,35.13414186495527],[139.95568658336936,35.13474595666071],[139.95578476865228,35.134799263975026],[139.95581721079577,35.134815683796944],[139.95585085893015,35.13483037422253],[139.95588557725773,35.13484327499731],[139.95592122368566,35.134854335759144],[139.9559576561211,35.134863509743354],[139.9559947243772,35.13487076097698],[139.9560322791665,35.13487605978247],[139.9566500576542,35.13491495636032],[139.9570732030661,35.134942859625426],[139.95713148722848,35.13494540920345],[139.95718985412861,35.13494538222375],[139.95724813469383,35.13494277868648],[139.95739324210467,35.13493493390024],[139.95747360732128,35.13492855950557],[139.9575533484085,35.13491816783932],[139.95763216948922,35.13490379577371],[139.95769859431482,35.13488790295452],[139.95776352896382,35.13486828874068],[139.95782666496882,35.13484504756104],[139.9579231874053,35.13480392426186],[139.95801733922895,35.13475924594263],[139.95805379594606,35.13473968299013],[139.95808864917205,35.13471823775666],[139.95812175411584,35.134694999274984],[139.95815297587933,35.13467006287328],[139.95818218406077,35.13464353197361],[139.9582092599495,35.134615515393875],[139.95823409023126,35.134586129146726],[139.95825657328237,35.13455549374123],[139.95836455488052,35.13438536809042],[139.95846000622453,35.1342102592962],[139.95994051874015,35.133266625854276],[139.9621198674381,35.132233003550425]]]]}},{"type":"Feature","properties":{"A46-a_001":"12","A46-a_002":"12234","A46-a_003":"南房総市","A46-a_004":"平群","A46-a_005":"南房総市山田","A46-a_006":"1960/03/04","A46-a_007":"建第315号","A46-a_008":211.7,"A46-a_009":1},"geometry":{"type":"MultiPolygon","coordinates":[[[[139.9585991124593,35.101425865311626],[139.95646717152295,35.10154314410096],[139.95509317650908,35.09929790117735],[139.95172817871264,35.099374037781786],[139.95125295356115,35.096833345982304],[139.9511431877081,35.094648836075066],[139.95186669858947,35.093269534161834],[139.9507192239132,35.09310881631899],[139.94976362679017,35.09306871644827],[139.9476389334901,35.091869304125225],[139.9327064886137,35.09399273297839],[139.9322715225129,35.09532960487752],[139.92296905128092,35.094866493594],[139.9227532445667,35.09606522243223],[139.91959567989693,35.0960076172579],[139.91854790136472,35.09849003298882],[139.9257738901531,35.10048740926669],[139.92851366397463,35.103408500801834],[139.9297065849911,35.10314964354137],[139.93024975122523,35.10324010814463],[139.93708349710585,35.104474432149516],[139.9363395329433,35.10168185733204],[139.94215303123758,35.102250178503084],[139.94476604921397,35.10251035776696],[139.94965524049712,35.101989143084666],[139.9537835918395,35.102260140293424],[139.95655786905058,35.10438775099408],[139.9585991124593,35.101425865311626]]]]}},{"type":"Feature","properties":{"A46-a_001":"12","A46-a_002":"12223","A46-a_003":"鴨川市","A46-a_004":"天面","A46-a_005":"鴨川市天面","A46-a_006":"2008/12/22","A46-a_007":"国第1497号","A46-a_008":10.5,"A46-a_009":1},"geometry":{"type":"MultiPolygon","coordinates":[[[[140.0785208726403,35.0696628997232],[140.07863526460596,35.07040236907426],[140.07877636193973,35.07131445339945],[140.08079969714845,35.07085007587045],[140.08137304552986,35.069758648742834],[140.07944592698811,35.068724052473215],[140.079017807426,35.06865650169635],[140.07818564495176,35.06792230596983],[140.0778321889046,35.067278451639424],[140.07662221494343,35.06679870559594],[140.07596668021824,35.067752031031546],[140.0768007015913,35.06949546304537],[140.07704728400518,35.06958891069985],[140.0785208726403,35.0696628997232]]]]}},{"type":"Feature","properties":{"A46-a_001":"12","A46-a_002":"12223","A46-a_003":"鴨川市","A46-a_004":"荒戸","A46-a_005":"鴨川市畑","A46-a_006":"1978/08/17","A46-a_007":"建第1359号","A46-a_008":23.0,"A46-a_009":1},"geometry":{"type":"MultiPolygon","coordinates":[[[[140.0440668890758,35.08894589413785],[140.04438196655474,35.087433152618075],[140.04236749056736,35.08625792396418],[140.0402163176292,35.08638469869504],[140.03845674278466,35.086322298335574],[140.03778274587717,35.08688037173192],[140.03622647357304,35.086223711055595],[140.03571713893496,35.08643690973577],[140.0356598853956,35.08753373729229],[140.0355252721738,35.087961972866935],[140.0366165212356,35.08854652230434],[140.03813208302938,35.08860353122816],[140.03883420353588,35.08978023027356],[140.03725856882807,35.091642500501166],[140.03951192813315,35.09213166874167],[140.04067839109507,35.09155995352921],[140.04100921570296,35.09136693743437],[140.04125743218492,35.091479456112154],[140.04141830021456,35.0912965187195],[140.04161948844876,35.09130968929088],[140.04178500507408,35.09080540074882],[140.04220378607602,35.09012098429616],[140.04286179483609,35.0894101637482],[140.04296718189016,35.089295398563934],[140.04300999231748,35.08928320015974],[140.0434420041454,35.08917539842605],[140.0440668890758,35.08894589413785]]]]}},{"type":"Feature","properties":{"A46-a_001":"12","A46-a_002":"12223","A46-a_003":"鴨川市","A46-a_004":"小山","A46-a_005":"鴨川市仲","A46-a_006":"1969/06/05","A46-a_007":"建第3023号","A46-a_008":25.5,"A46-a_009":1},"geometry":{"type":"MultiPolygon","coordinates":[[[[140.05607911386016,35.10187780611602],[140.05672898465514,35.10201659309149],[140.05710835017044,35.10208848759379],[140.05737361420108,35.102122097956624],[140.05816919854988,35.10152982873876],[140.0589695825804,35.100948838818],[140.05900298879703,35.100921830378354],[140.06037418691938,35.10009453953154],[140.06025628939642,35.09995027388618],[140.06012186773023,35.09975157587468],[140.0599578358856,35.099502863866235],[140.05980897110726,35.09922941510558],[140.05795122716756,35.098557148493796],[140.05789422993496,35.09853332455344],[140.05787534776925,35.098520760125155],[140.0567889397579,35.0977977816425],[140.05676106617045,35.09778420277888],[140.0566537743524,35.09771473824475],[140.05653360154463,35.09760480691648],[140.05649643975903,35.09756157021047],[140.05645945513993,35.09751253827318],[140.05639358159874,35.097413015698294],[140.05632028235527,35.097301167914736],[140.0562960528208,35.097265953161354],[140.05627725609065,35.09723524401147],[140.05624966309165,35.09718098161716],[140.0562323925111,35.09714487023973],[140.05621212718813,35.097111964046064],[140.05590940729348,35.096571732299765],[140.05586604468238,35.0964933581821],[140.05570962649824,35.09620500585652],[140.0556293611063,35.09603958545864],[140.05556294977055,35.095615711596],[140.05549979847706,35.09518114029754],[140.055431548927,35.09470130072464],[140.0549458322845,35.09498627699526],[140.05452923843382,35.09530719017488],[140.0538013271697,35.0957331396728],[140.05370877613927,35.09644628586756],[140.05349912078793,35.09728596217758],[140.05341339111533,35.09762930894561],[140.05311717691632,35.09799964526758],[140.05283122038475,35.09835715455921],[140.05250490947412,35.09876511581763],[140.0522998685443,35.09934649424548],[140.0521246149592,35.1002339893073],[140.05212335680767,35.10070978193107],[140.0521222011788,35.10114686143868],[140.05272104264213,35.1015770512401],[140.05286737403026,35.1016552068225],[140.05291258474813,35.10165187303568],[140.0536344399776,35.10160900415241],[140.0545746703849,35.10154137153722],[140.05488250922065,35.101615912744364],[140.0553863121288,35.101723272910874],[140.05569992371272,35.101793824725405],[140.0560383979539,35.1018673056318],[140.05607911386016,35.10187780611602]]]]}},{"type":"Feature","properties":{"A46-a_001":"12","A46-a_002":"12223","A46-a_003":"鴨川市","A46-a_004":"横尾","A46-a_005":"鴨川市横尾","A46-a_006":"1990/03/31","A46-a_007":"建第814号","A46-a_008":45.0,"A46-a_009":1},"geometry":{"type":"MultiPolygon","coordinates":[[[[140.00876877935582,35.156704816374315],[140.0088075761089,35.1566228935319],[140.00882975339061,35.15657214209085],[140.00887570514988,35.15646197244223],[140.0090471042406,35.15632037868272],[140.00908635784936,35.156276492666166],[140.00916421305817,35.15616365922568],[140.00922189107757,35.15607507420549],[140.00933139882522,35.155921997002736],[140.00941297452937,35.155806747083886],[140.00944755885791,35.15577268975801],[140.00948629625577,35.155742444658244],[140.00954803201626,35.15570744214489],[140.00964340781718,35.15566095169174],[140.00969770528502,35.155630174193334],[140.00974462651345,35.15559509883491],[140.00981467650627,35.15553700802667],[140.00991398863982,35.155427321313994],[140.00994563848064,35.155400512523784],[140.00999550408937,35.15536788691861],[140.01004531753756,35.15534256470778],[140.0100727594505,35.15533782887786],[140.0101216519928,35.15533745835717],[140.0101871954829,35.1553358935368],[140.01028938904426,35.15534004300872],[140.01039381921953,35.155342376749445],[140.01047721515158,35.15534213393249],[140.01053352440283,35.15534058170266],[140.01060911781667,35.15533547085545],[140.01069955633966,35.15532617186551],[140.0107889282666,35.15531437905554],[140.01088610361091,35.15529537368269],[140.01096177256795,35.155279916135385],[140.0110248438217,35.15526500537584],[140.0111164478659,35.15524287665761],[140.0111610101727,35.15522665918314],[140.01121520511776,35.15520987963242],[140.0112552177543,35.15520824736291],[140.0113092912909,35.15520850996495],[140.01134786141483,35.15520139362957],[140.01139358024966,35.15519426380439],[140.01148089003118,35.15520807829034],[140.01151209650618,35.155194839370495],[140.01157238435826,35.15515495983368],[140.01163480720072,35.15512726341262],[140.01178407037867,35.155065721905714],[140.01186723158764,35.15502230803327],[140.01202859244574,35.154929631997106],[140.01208512293022,35.15490418388117],[140.0121363069452,35.154896715011546],[140.0121784464783,35.154896853507125],[140.01227547972974,35.154898180906514],[140.01234429765134,35.154905374583564],[140.01239746916804,35.15491163386497],[140.01250092088094,35.15494388535217],[140.01254883855825,35.15495526357472],[140.01262500304165,35.154956490250015],[140.01273149536235,35.15494843232443],[140.01291159449465,35.154925237909595],[140.0129982738514,35.154915368749414],[140.01307248680598,35.15489772225226],[140.01316871696292,35.15486560566336],[140.01323518045933,35.154844396052226],[140.01329064254924,35.154822371655314],[140.013344048789,35.15479605029765],[140.01337864750678,35.15477306722346],[140.01339269131984,35.15476211707818],[140.01342139857888,35.15472538247059],[140.01344980186707,35.15468616393548],[140.01346757337,35.15464602629322],[140.01348549505974,35.154584818434785],[140.01349523831482,35.15452644434009],[140.01350024304202,35.154478582420836],[140.01349833827783,35.154419194790194],[140.01348937203704,35.15436934986576],[140.01347939765628,35.15429747245054],[140.01347052674362,35.15423421953375],[140.01343500801943,35.15414881091908],[140.01336482222894,35.1540463988224],[140.0133184621775,35.15398702917821],[140.01321325228992,35.15390371688318],[140.01312810987451,35.153832330497835],[140.01306473375064,35.15376864590644],[140.01302710611628,35.15371928391801],[140.0129871825127,35.15366896505088],[140.01293142544512,35.15357979277337],[140.01289511172024,35.153507738191706],[140.01286220282861,35.15344232060676],[140.01285003859857,35.15337322029802],[140.0128252631755,35.15327623740859],[140.01281027777225,35.15311916721595],[140.01281024719538,35.152963115055854],[140.01278918777098,35.15285046597637],[140.0127359676909,35.15254713004617],[140.01272713365051,35.15249507009156],[140.01270798888277,35.15243633896603],[140.01266164322044,35.152318838943415],[140.01257156172835,35.152164848928805],[140.01252019874835,35.15210501703308],[140.01247906465733,35.152063203953844],[140.01244367183813,35.152023310027914],[140.01240822416037,35.15199098119899],[140.01236245946006,35.15195292908459],[140.0123140129815,35.15191661805767],[140.01227392839928,35.15188899628032],[140.0122085638743,35.1518555774731],[140.0121489073464,35.15182880645443],[140.0121030338281,35.15180588633274],[140.0120640796937,35.151781107312445],[140.0119811765902,35.151727606643874],[140.0118713351941,35.151637225677575],[140.01182417024938,35.15159042136105],[140.011783118896,35.15153725883761],[140.01176156394524,35.15149364891295],[140.01172402624297,35.15143199229277],[140.01169907365352,35.15138079928465],[140.01166697505107,35.15131977129056],[140.01157518754508,35.151119768362776],[140.01154121925208,35.15104205075022],[140.01147394726502,35.15090703103482],[140.01143186079196,35.15083778503589],[140.01138748644348,35.1507666369709],[140.01134760690672,35.15071064338167],[140.01127680328204,35.15063369199146],[140.01118880372053,35.15054719879436],[140.0111452945199,35.15051577738137],[140.01107197099486,35.15046907828548],[140.01098137778854,35.15042324074011],[140.01087271990025,35.15036715991664],[140.0108416681087,35.150329855138864],[140.01081719395847,35.150267279411594],[140.01079434758128,35.15019232091902],[140.01077599331757,35.15010496797004],[140.0107566093302,35.14996272400066],[140.01074406828434,35.149811520085734],[140.0107449505192,35.14975642132197],[140.01074525628871,35.1497140965285],[140.01075797270244,35.14962239176015],[140.01077485837322,35.149531165431085],[140.01081028986312,35.14944403011805],[140.01083515072185,35.14938343649658],[140.01085080611995,35.149329322490416],[140.01086726461278,35.149259397503386],[140.01087679203056,35.14920826385048],[140.01087713916877,35.149160096161665],[140.01087263806198,35.14910688687348],[140.0108673779273,35.14907424597982],[140.01085321450444,35.1490042967111],[140.01084319245956,35.14895457319517],[140.01083557340314,35.14891038050985],[140.01082324639583,35.148841578776],[140.0108000618735,35.148752476645654],[140.01077309929929,35.14868109475691],[140.01074373463587,35.14860418113824],[140.01071250477844,35.14853177492165],[140.01068924471303,35.148486625357634],[140.01067397872134,35.14844489051944],[140.0106496916302,35.14839982639103],[140.0106169257307,35.14836255219018],[140.01058663746358,35.14834462960113],[140.0105502751752,35.14832556757108],[140.01051583563753,35.14832095674694],[140.01047869633499,35.14831577665194],[140.01041217078523,35.14831487013532],[140.0103438636786,35.14832009249841],[140.01027936160347,35.148325871541886],[140.01022394447966,35.148324491082576],[140.0101564143872,35.14831583061124],[140.0100949340341,35.14831164336783],[140.01006525460798,35.14830316725755],[140.01001885318772,35.14828303953084],[140.00993635387977,35.14825948268913],[140.00987495266713,35.14824110234514],[140.00968839010727,35.14818441178136],[140.00954357947285,35.14814548912318],[140.0090806291679,35.14801193800071],[140.00844547397958,35.14780977939796],[140.00759147596602,35.1475188999774],[140.0075391929796,35.147563841798046],[140.0073998628136,35.14768824141936],[140.0072971521421,35.147779983059934],[140.00705966097473,35.1479884665946],[140.00695388181634,35.14808981479331],[140.006748482057,35.148270152245914],[140.00658491606123,35.14841319751122],[140.00649500544034,35.14849871134663],[140.0064410524128,35.148550858535486],[140.00639237121118,35.1485975972015],[140.00637283973492,35.14867469068457],[140.00626887091187,35.149128771875496],[140.00611045893072,35.149810092861685],[140.0060020573493,35.15031820622039],[140.0060441393257,35.15073015327414],[140.00608101872422,35.151082342176494],[140.0060511414472,35.15207031759127],[140.0059107734636,35.15396520712875],[140.00585819370087,35.15510486489774],[140.00584774178003,35.155417778607784],[140.00584898913974,35.15555427860721],[140.00588673008872,35.15558086526488],[140.00596284960602,35.155562819468685],[140.00602283258786,35.15554358926539],[140.0061066601944,35.15551932555661],[140.00618207554248,35.15551507266264],[140.0062596735453,35.15552007469188],[140.00632935661474,35.15553058596794],[140.00636981261698,35.15553725534022],[140.00641592895215,35.1555393309755],[140.00650769757237,35.15554330058302],[140.00657768281394,35.15555128296552],[140.0066600229419,35.15556492837891],[140.0067241571943,35.15557749010924],[140.00680827618123,35.15560234916927],[140.00685339786617,35.155619886848456],[140.00690095851257,35.15564303899521],[140.0070130751934,35.15570123952074],[140.00706931339823,35.15572443393563],[140.0071063771578,35.15574193204469],[140.0071638249508,35.155769207583035],[140.00720091928713,35.15578263086388],[140.00733468264968,35.15575476177298],[140.00745952653608,35.1557197196895],[140.00752380288134,35.1557093145334],[140.00759642583455,35.1556954083166],[140.00764110865043,35.155687986211774],[140.0076975132298,35.15568826230361],[140.007731574153,35.15569250350637],[140.00778170955846,35.15570242482721],[140.0078067170066,35.1557153957491],[140.00787583530177,35.15575749751065],[140.00792762815774,35.15579544080714],[140.0079547310262,35.15581900214539],[140.0079861173656,35.155850223908885],[140.00800207043937,35.15587271235597],[140.00803269685161,35.155923284831886],[140.00806469113274,35.15597599409699],[140.00809052146053,35.15600413298449],[140.00812807624993,35.156039460153124],[140.00823495078248,35.15612771961872],[140.00828304652555,35.15616258903242],[140.00836996060536,35.156248126250205],[140.00841552565612,35.156290112898546],[140.0085283186272,35.156411523173404],[140.00857378475257,35.1564672613552],[140.00868144349397,35.156611056655095],[140.0087287757126,35.15666578579754],[140.00876877935582,35.156704816374315]]]]}},{"type":"Feature","properties":{"A46-a_001":"12","A46-a_002":"12223","A46-a_003":"鴨川市","A46-a_004":"芝","A46-a_005":"鴨川市上","A46-a_006":"2007/06/26","A46-a_007":"国第845号","A46-a_008":31.7,"A46-a_009":1},"geometry":{"type":"MultiPolygon","coordinates":[[[[140.05250490947412,35.09876511581763],[140.05341339111533,35.09762930894561],[140.05370877613927,35.09644628586756],[140.0538013271697,35.0957331396728],[140.05452923843382,35.09530719017488],[140.0543787233995,35.094376375669356],[140.0538325426379,35.094382121437945],[140.05354839913946,35.09321630868584],[140.05332233385877,35.09312196260868],[140.0530254109941,35.09310289788061],[140.05297605530086,35.09315218072874],[140.0529516485999,35.093218641527244],[140.05294038638988,35.09331026265863],[140.05294056985156,35.09337870286504],[140.05293868757053,35.09343135457351],[140.05293276373618,35.09348380303527],[140.0529228226303,35.093535838708135],[140.0529085737718,35.09358854617466],[140.05289034001737,35.093640417271615],[140.05286819331263,35.09369124875229],[140.052842220892,35.09374084186652],[140.05281252347936,35.09378900236072],[140.05261133614442,35.093900227813435],[140.05249141244894,35.09393198917013],[140.05228019857248,35.09393237048266],[140.05206382618485,35.09379869795174],[140.05182327462455,35.09359803761953],[140.05156782759332,35.09347590159177],[140.05139499678182,35.093468326602135],[140.0512511241402,35.093519844265586],[140.05116993874185,35.093677711257556],[140.05107892195485,35.09374884943003],[140.05086780250724,35.09378471529254],[140.05067567494257,35.093741686329906],[140.0500682800273,35.09339078885398],[140.04987111356127,35.09325707855152],[140.04977038139816,35.0932848595088],[140.04967487519548,35.09347429540259],[140.04961347128483,35.09385293426567],[140.04955611702133,35.0939476697493],[140.04947016971278,35.09412131534657],[140.0494031315494,35.09418452329726],[140.0492975961074,35.094212312348475],[140.04914385070833,35.094161327083725],[140.04898522199062,35.0940788061921],[140.04887455501682,35.09398042665555],[140.04869669429718,35.09388611025594],[140.04827809405901,35.09351620920586],[140.0481579734119,35.0934730489422],[140.04797327065012,35.09350220856027],[140.04785345936978,35.09357733792399],[140.0477817231482,35.09367998294505],[140.04778204330682,35.09380221609956],[140.04788339780077,35.09401101709494],[140.04802809871796,35.09424433630721],[140.04809082373276,35.09436645884517],[140.0480575829912,35.09450452366502],[140.04785641274339,35.094674429881195],[140.04762151522095,35.094797078522504],[140.0475688761029,35.09486026039286],[140.04747327007556,35.09501420634069],[140.04741126721638,35.095168093832626],[140.04737302084845,35.09527316702321],[140.04730121088232,35.09534821095133],[140.0472727275545,35.09547049536724],[140.04722980201393,35.09557703265409],[140.0472687309673,35.09577805811108],[140.04739889884024,35.095990751372256],[140.04751468655377,35.096211355969444],[140.0474622425886,35.09634945406424],[140.04739509290937,35.0964106924996],[140.04713122192857,35.09647030316211],[140.04695369665592,35.09650610337411],[140.04670925282994,35.09665242576898],[140.04651776738126,35.09685779944806],[140.04625417159298,35.09702387005575],[140.04616815143925,35.09717385538926],[140.04603960324528,35.0973592398372],[140.0468236537888,35.09790779301039],[140.04876499331,35.09972981587845],[140.0488941845192,35.10050416003912],[140.04942935218298,35.101097667623435],[140.04991363980287,35.101634744547994],[140.05007168216252,35.102170333094534],[140.04974541891613,35.103131904414],[140.0521222011788,35.10114686143868],[140.0521246149592,35.1002339893073],[140.0522998685443,35.09934649424548],[140.05250490947412,35.09876511581763]]]]}},{"type":"Feature","properties":{"A46-a_001":"12","A46-a_002":"12234","A46-a_003":"南房総市","A46-a_004":"入宇田","A46-a_005":"南房総市入宇田","A46-a_006":"1968/03/31","A46-a_007":"建第252号","A46-a_008":7.0,"A46-a_009":1},"geometry":{"type":"MultiPolygon","coordinates":[[[[139.99217357974703,35.0933231382524],[139.99164613995754,35.09361924723066],[139.9899459023817,35.093656177890466],[139.98929115816065,35.094202730072084],[139.98962094405147,35.09508059159617],[139.98999526706814,35.09624994407983],[139.9919170625226,35.09715511801443],[139.99325562244917,35.096967647139365],[139.99369467057272,35.09576380925256],[139.99387358529793,35.094906301185006],[139.9957393664788,35.09490629848705],[139.99582523194908,35.09397872693688],[139.99468393021937,35.0934656124482],[139.99229108786358,35.093329851691465],[139.99217357974703,35.0933231382524]]]]}},{"type":"Feature","properties":{"A46-a_001":"12","A46-a_002":"12223","A46-a_003":"鴨川市","A46-a_004":"太海","A46-a_005":"鴨川市太海,太海浜,太海西,宮","A46-a_006":"2013/03/28","A46-a_007":"国第280号","A46-a_008":32.2,"A46-a_009":1},"geometry":{"type":"MultiPolygon","coordinates":[[[[140.0935088704382,35.08729736128436],[140.09343428156706,35.08773511348488],[140.09331689575833,35.08793075649936],[140.09317260852924,35.08804814230808],[140.0929916379539,35.08810928091873],[140.092531876645,35.08827557815556],[140.09212836253403,35.088451657318274],[140.09182756089342,35.08860572647325],[140.09167838315102,35.08875490421565],[140.0913604629152,35.089204883598654],[140.08997384052054,35.08997767463012],[140.08929398093267,35.09035673347665],[140.08882688205517,35.090540149308595],[140.08858232851185,35.09158194914778],[140.0901230191622,35.09409107474346],[140.09077597822898,35.09351637198313],[140.09116971041396,35.093188669821416],[140.09170528367213,35.09284384816522],[140.09194983811472,35.09272890851247],[140.09211858060814,35.09268977901024],[140.0936470431767,35.09258951179669],[140.095036110828,35.092516146003504],[140.09534180298203,35.092462344062085],[140.09569396130746,35.092359631591876],[140.09609258400576,35.09213464190037],[140.09627299880003,35.092037924310944],[140.0962788614804,35.09194021476924],[140.09637407900073,35.09177495175277],[140.09654329543696,35.09144274488693],[140.0966346674561,35.09116337498995],[140.09665385179403,35.090936087530565],[140.0966704586749,35.090739341047936],[140.0966824079669,35.0905977688721],[140.09663110164422,35.09037865265287],[140.09648849344944,35.09033781264009],[140.09648604639415,35.090033964096335],[140.09645997055134,35.089780625975266],[140.0964680977247,35.089623253610455],[140.09647212578818,35.08954525451003],[140.0965010048177,35.089366286724896],[140.09651206468027,35.08929775029111],[140.096642941219,35.089077232928105],[140.09672297098848,35.088987464400134],[140.09681280606628,35.08887618498812],[140.09681280516702,35.08878575006247],[140.09683180964043,35.08874362761651],[140.0963628167907,35.08846877591344],[140.09599843128274,35.088358726774004],[140.09576365876603,35.08825845956045],[140.09547508520723,35.08812395425724],[140.09516205638397,35.08801879653038],[140.09417405758688,35.08776201490525],[140.0940028698368,35.087669083461606],[140.0935088704382,35.08729736128436]]]]}},{"type":"Feature","properties":{"A46-a_001":"12","A46-a_002":"12221","A46-a_003":"八千代市","A46-a_004":"八千代台","A46-a_005":"八千代台東6丁目","A46-a_006":"1980/12/02","A46-a_007":"建第1809号","A46-a_008":3.1,"A46-a_009":1},"geometry":{"type":"MultiPolygon","coordinates":[[[[140.10427761881726,35.707889271872546],[140.10437098463342,35.70782943997682],[140.1042594938807,35.707717602085836],[140.104148003128,35.70760576509417],[140.1040336210549,35.70750347260736],[140.10389583862218,35.70739884817846],[140.10371998878668,35.70727761596936],[140.10337716002812,35.707063747294285],[140.10331307343972,35.70713543675117],[140.10350363078805,35.70728287070807],[140.10363847243775,35.7073827323274],[140.10376445306724,35.70745638050772],[140.1038494255107,35.70750865629964],[140.10404295691706,35.70767039217503],[140.10427761881726,35.707889271872546]]]]}}]}