{
"type": "FeatureCollection",
"name": "sabo_designated",
"crs": { "type": "name", "properties": { "name": "urn:ogc:def:crs:OGC:1.3:CRS84" } },
"xy_coordinate_resolution": 1e-07,
"features": [
{ "type": "Feature", "properties": { "FID": 17, "A52_001": "12", "A52_002": "12226", "A52_003": "富津市", "A52_004": "白狐川水系白狐川", "A52_005": " ", "A52_006": "昭和23年4月13日,昭和43年12月10日", "A52_007": "総60,建3534", "A52_008": 0, "A52_009": " ", "A52_010": " ", "city": "富津市", "name": "白狐川水系白狐川", "date": "昭和23年4月13日,昭和43年12月10日", "notice": "総60,建3534", "layer": "sabo_designated" }, "geometry": { "type": "Polygon", "coordinates": [ [ [ 139.8760542, 35.1788644 ], [ 139.8757491, 35.1755635 ], [ 139.8751377, 35.1666883 ], [ 139.8754397, 35.16629 ], [ 139.874906, 35.16629 ], [ 139.874906, 35.1788163 ], [ 139.8760542, 35.1788644 ] ] ] } },
{ "type": "Feature", "properties": { "FID": 12, "A52_001": "12", "A52_002": "12226", "A52_003": "富津市", "A52_004": "湊川水系相川", "A52_005": " ", "A52_006": "昭和43年12月10日,昭和28年12月12日", "A52_007": "建3534,建1481", "A52_008": 0, "A52_009": " ", "A52_010": " ", "city": "富津市", "name": "湊川水系相川", "date": "昭和43年12月10日,昭和28年12月12日", "notice": "建3534,建1481", "layer": "sabo_designated" }, "geometry": { "type": "Polygon", "coordinates": [ [ [ 139.8755364, 35.1676421 ], [ 139.8784635, 35.1753481 ], [ 139.8898602, 35.1818582 ], [ 139.8892984, 35.1818748 ], [ 139.8892306, 35.1818827 ], [ 139.8889206, 35.182 ], [ 139.8888304, 35.1820531 ], [ 139.8886965, 35.1822035 ], [ 139.8886643, 35.1822508 ], [ 139.8886442, 35.1823025 ], [ 139.8886371, 35.1823564 ], [ 139.8886816, 35.1825722 ], [ 139.888707, 35.1826357 ], [ 139.8888091, 35.1828137 ], [ 139.8888545, 35.1828721 ], [ 139.8889399, 35.1829559 ], [ 139.8894736, 35.183632 ], [ 139.8895176, 35.183947 ], [ 139.8893565, 35.1844509 ], [ 139.8892783, 35.1850709 ], [ 139.8893046, 35.1851611 ], [ 139.8893315, 35.1852021 ], [ 139.8897511, 35.1857302 ], [ 139.8896133, 35.1863435 ], [ 139.8894554, 35.1868046 ], [ 139.8892245, 35.1879431 ], [ 139.889001, 35.1885497 ], [ 139.8888005, 35.1889406 ], [ 139.8883801, 35.1894952 ], [ 139.8879443, 35.1898682 ], [ 139.8874943, 35.1900167 ], [ 139.887426, 35.1900474 ], [ 139.8865468, 35.1905715 ], [ 139.8859345, 35.1905743 ], [ 139.8858153, 35.1905932 ], [ 139.8857609, 35.1906158 ], [ 139.8857125, 35.1906462 ], [ 139.8856718, 35.1906835 ], [ 139.8856402, 35.1907263 ], [ 139.8855521, 35.1909719 ], [ 139.8855415, 35.1910209 ], [ 139.8855419, 35.1910706 ], [ 139.8855535, 35.1911194 ], [ 139.8855757, 35.1911656 ], [ 139.8858221, 35.1914382 ], [ 139.8858721, 35.1914811 ], [ 139.8859323, 35.1915141 ], [ 139.8866229, 35.1918082 ], [ 139.8873888, 35.1923387 ], [ 139.8874238, 35.1924796 ], [ 139.8873484, 35.1926379 ], [ 139.8869924, 35.1927459 ], [ 139.8869332, 35.1927696 ], [ 139.8868809, 35.1928025 ], [ 139.8863971, 35.193178 ], [ 139.8859295, 35.1936324 ], [ 139.8859036, 35.1936794 ], [ 139.8858892, 35.1937295 ], [ 139.8858375, 35.1940699 ], [ 139.8858457, 35.1941188 ], [ 139.8858645, 35.1941656 ], [ 139.8859566, 35.1942857 ], [ 139.885501, 35.1942157 ], [ 139.8854046, 35.1942126 ], [ 139.8840779, 35.1943314 ], [ 139.8839611, 35.1943605 ], [ 139.883367, 35.194739 ], [ 139.8833076, 35.194789 ], [ 139.8827979, 35.1953458 ], [ 139.8822303, 35.195844 ], [ 139.8821187, 35.1958784 ], [ 139.8818718, 35.1959112 ], [ 139.8811516, 35.1957924 ], [ 139.8806883, 35.1958317 ], [ 139.8805813, 35.1958757 ], [ 139.8802273, 35.1961864 ], [ 139.8802097, 35.1961873 ], [ 139.8790568, 35.1958305 ], [ 139.8789394, 35.1958131 ], [ 139.8788222, 35.1958312 ], [ 139.8784039, 35.1959682 ], [ 139.8783155, 35.196033 ], [ 139.8782834, 35.1960741 ], [ 139.8782608, 35.1961192 ], [ 139.8781557, 35.1963988 ], [ 139.8781416, 35.1964625 ], [ 139.8781463, 35.1965271 ], [ 139.8782097, 35.1968123 ], [ 139.8782319, 35.1968722 ], [ 139.8782704, 35.1969263 ], [ 139.8796542, 35.1984385 ], [ 139.880005, 35.1990634 ], [ 139.8800391, 35.1991108 ], [ 139.8800842, 35.1991515 ], [ 139.8801384, 35.1991839 ], [ 139.8801994, 35.1992066 ], [ 139.8804728, 35.1992393 ], [ 139.8805017, 35.1992627 ], [ 139.8804925, 35.1993404 ], [ 139.8799887, 35.2000502 ], [ 139.8799601, 35.2001026 ], [ 139.8799456, 35.2001587 ], [ 139.8799458, 35.200216 ], [ 139.8799608, 35.2002721 ], [ 139.8800944, 35.2006005 ], [ 139.8801217, 35.2006503 ], [ 139.8801607, 35.2006946 ], [ 139.8802097, 35.2007315 ], [ 139.8802667, 35.2007596 ], [ 139.8806413, 35.2009043 ], [ 139.8807564, 35.2011131 ], [ 139.8807996, 35.2011708 ], [ 139.8811684, 35.2015482 ], [ 139.8812068, 35.2016607 ], [ 139.8812347, 35.2021487 ], [ 139.8813036, 35.2024449 ], [ 139.8813303, 35.2024901 ], [ 139.8816054, 35.2028553 ], [ 139.8817793, 35.2029777 ], [ 139.8818052, 35.2031866 ], [ 139.8816285, 35.2034771 ], [ 139.8815499, 35.203538 ], [ 139.8812247, 35.203592 ], [ 139.881163, 35.2036075 ], [ 139.8811061, 35.2036327 ], [ 139.8803241, 35.2037862 ], [ 139.880092, 35.2044661 ], [ 139.8805861, 35.2045374 ], [ 139.8808038, 35.2042392 ], [ 139.8818316, 35.2040384 ], [ 139.8819341, 35.2039843 ], [ 139.8821618, 35.2038019 ], [ 139.8824375, 35.203358 ], [ 139.8824598, 35.2033106 ], [ 139.882471, 35.2032606 ], [ 139.8824705, 35.2032098 ], [ 139.8824211, 35.2028121 ], [ 139.8824084, 35.2027604 ], [ 139.8823837, 35.2027118 ], [ 139.882348, 35.202668 ], [ 139.8821072, 35.2024987 ], [ 139.881926, 35.2022532 ], [ 139.8818876, 35.202073 ], [ 139.8818636, 35.2016066 ], [ 139.8818517, 35.2015451 ], [ 139.8817849, 35.2013492 ], [ 139.8817607, 35.2012985 ], [ 139.8817246, 35.2012528 ], [ 139.8813397, 35.2008589 ], [ 139.8811917, 35.2005904 ], [ 139.8811262, 35.2005121 ], [ 139.8810317, 35.2004572 ], [ 139.8806748, 35.2003194 ], [ 139.8806331, 35.2002168 ], [ 139.8810982, 35.1995616 ], [ 139.881127, 35.1995085 ], [ 139.8811414, 35.1994516 ], [ 139.8811729, 35.1991865 ], [ 139.8811733, 35.1991384 ], [ 139.8811634, 35.199091 ], [ 139.8811434, 35.1990457 ], [ 139.8810759, 35.1989674 ], [ 139.8808547, 35.1987889 ], [ 139.8807981, 35.1987523 ], [ 139.8807332, 35.1987267 ], [ 139.8805264, 35.1986997 ], [ 139.880238, 35.1981859 ], [ 139.8802022, 35.1981367 ], [ 139.878844, 35.1966524 ], [ 139.8788091, 35.1964951 ], [ 139.8788432, 35.1964042 ], [ 139.8789419, 35.196373 ], [ 139.8800426, 35.1967137 ], [ 139.880109, 35.1967279 ], [ 139.8801776, 35.1967306 ], [ 139.8804615, 35.1967123 ], [ 139.8805212, 35.1966945 ], [ 139.8805757, 35.1966677 ], [ 139.8809379, 35.1963504 ], [ 139.8811171, 35.1963357 ], [ 139.8818575, 35.1964565 ], [ 139.8822562, 35.1964082 ], [ 139.8825341, 35.1963282 ], [ 139.8826013, 35.1962999 ], [ 139.8826589, 35.1962597 ], [ 139.8832912, 35.1957047 ], [ 139.8838086, 35.1951421 ], [ 139.8842433, 35.1948607 ], [ 139.8854275, 35.1947547 ], [ 139.8859589, 35.1948364 ], [ 139.8860349, 35.1948407 ], [ 139.8861102, 35.1948306 ], [ 139.886405, 35.1947613 ], [ 139.886465, 35.1947418 ], [ 139.8865192, 35.1947131 ], [ 139.8865655, 35.1946763 ], [ 139.8866022, 35.1946327 ], [ 139.8866279, 35.1945842 ], [ 139.886698, 35.1944055 ], [ 139.8867111, 35.1943578 ], [ 139.8867134, 35.1943089 ], [ 139.8867051, 35.1942605 ], [ 139.8866862, 35.1942141 ], [ 139.8865102, 35.1939921 ], [ 139.8865286, 35.1938824 ], [ 139.8868854, 35.1935415 ], [ 139.8872835, 35.1932343 ], [ 139.8877155, 35.1931033 ], [ 139.8877778, 35.193078 ], [ 139.8878321, 35.1930426 ], [ 139.8878763, 35.1929986 ], [ 139.8879082, 35.192948 ], [ 139.8880729, 35.1926022 ], [ 139.8880902, 35.1925524 ], [ 139.8880955, 35.1925009 ], [ 139.8880889, 35.1924495 ], [ 139.8880115, 35.1921384 ], [ 139.8879889, 35.1920811 ], [ 139.8879515, 35.1920294 ], [ 139.8879011, 35.1919858 ], [ 139.8870197, 35.1913753 ], [ 139.886959, 35.1913419 ], [ 139.8864215, 35.1911131 ], [ 139.8866576, 35.191112 ], [ 139.8867262, 35.1911058 ], [ 139.8867918, 35.1910879 ], [ 139.8868513, 35.1910593 ], [ 139.8877764, 35.1905066 ], [ 139.8882559, 35.1903483 ], [ 139.8883175, 35.1903215 ], [ 139.8883708, 35.1902846 ], [ 139.8888794, 35.1898493 ], [ 139.8889213, 35.189805 ], [ 139.8893976, 35.1891703 ], [ 139.8896266, 35.18872 ], [ 139.8898613, 35.188083 ], [ 139.8901023, 35.1869085 ], [ 139.8902584, 35.1864543 ], [ 139.8904229, 35.1857223 ], [ 139.8904283, 35.1856713 ], [ 139.890422, 35.1856203 ], [ 139.8904041, 35.1855713 ], [ 139.8903752, 35.1855259 ], [ 139.8899475, 35.184987 ], [ 139.8900086, 35.1845307 ], [ 139.8901701, 35.1840377 ], [ 139.8901805, 35.1839875 ], [ 139.8901793, 35.1839366 ], [ 139.8901193, 35.1835073 ], [ 139.8901021, 35.1834467 ], [ 139.8900685, 35.183391 ], [ 139.8894819, 35.1826478 ], [ 139.889387, 35.1825516 ], [ 139.8893234, 35.1824407 ], [ 139.8893917, 35.1824134 ], [ 139.8905705, 35.1823744 ], [ 139.8908225, 35.1825578 ], [ 139.8941849, 35.1843691 ], [ 139.9015331, 35.1839686 ], [ 139.9097038, 35.1741864 ], [ 139.906638, 35.16629 ], [ 139.8779627, 35.16629 ], [ 139.8755364, 35.1676421 ] ] ] } },
{ "type": "Feature", "properties": { "FID": 91, "A52_001": "12", "A52_002": "12226", "A52_003": "富津市", "A52_004": "湊川水系湊川", "A52_005": " ", "A52_006": "昭和28年12月11日", "A52_007": "建1481", "A52_008": 0, "A52_009": " ", "A52_010": " ", "city": "富津市", "name": "湊川水系湊川", "date": "昭和28年12月11日", "notice": "建1481", "layer": "sabo_designated" }, "geometry": { "type": "Polygon", "coordinates": [ [ [ 139.9611734, 35.1799685 ], [ 139.9606984, 35.1782707 ], [ 139.9609159, 35.1780618 ], [ 139.9622592, 35.1778815 ], [ 139.9627664, 35.1771356 ], [ 139.9625838, 35.1765097 ], [ 139.9622198, 35.1759138 ], [ 139.9625826, 35.1757047 ], [ 139.9631991, 35.1752568 ], [ 139.9637063, 35.174511 ], [ 139.9649052, 35.1749271 ], [ 139.965813, 35.1749559 ], [ 139.966902, 35.1747759 ], [ 139.9689716, 35.174714 ], [ 139.9706779, 35.1745332 ], [ 139.9710406, 35.1742943 ], [ 139.9711487, 35.1737873 ], [ 139.9709299, 35.1732211 ], [ 139.9706026, 35.1728935 ], [ 139.9692214, 35.1720304 ], [ 139.9687854, 35.171852 ], [ 139.9676235, 35.1718533 ], [ 139.9671879, 35.171973 ], [ 139.9666443, 35.1725699 ], [ 139.9663541, 35.1727789 ], [ 139.9654099, 35.1726905 ], [ 139.9652645, 35.1725714 ], [ 139.9651544, 35.1718559 ], [ 139.964609, 35.1713795 ], [ 139.9642457, 35.1712308 ], [ 139.962612, 35.1713517 ], [ 139.9614867, 35.171502 ], [ 139.9577822, 35.1709095 ], [ 139.9572013, 35.1709399 ], [ 139.9566206, 35.1710895 ], [ 139.9566204, 35.1709106 ], [ 139.9569102, 35.1704631 ], [ 139.9566186, 35.1697478 ], [ 139.9565818, 35.1693901 ], [ 139.956689, 35.1682869 ], [ 139.9563615, 35.1678102 ], [ 139.9563612, 35.1675717 ], [ 139.9574494, 35.1668848 ], [ 139.9572788, 35.1666716 ], [ 139.9560328, 35.1664688 ], [ 139.9548347, 35.1665297 ], [ 139.9539633, 35.1665007 ], [ 139.9536006, 35.1667396 ], [ 139.953456, 35.1671869 ], [ 139.9538562, 35.1677232 ], [ 139.953784, 35.1679916 ], [ 139.9532759, 35.168171 ], [ 139.9529132, 35.16838 ], [ 139.9529143, 35.169185 ], [ 139.9533875, 35.1699597 ], [ 139.9540426, 35.1710622 ], [ 139.9553514, 35.1721939 ], [ 139.9559327, 35.1723722 ], [ 139.9568043, 35.1725204 ], [ 139.9570953, 35.1728481 ], [ 139.9572458, 35.1763661 ], [ 139.9581558, 35.1777963 ], [ 139.9594785, 35.1797881 ], [ 139.9594955, 35.1797812 ], [ 139.960247, 35.1799507 ], [ 139.9602347, 35.1800939 ], [ 139.9601228, 35.1802215 ], [ 139.9598982, 35.1803386 ], [ 139.959267, 35.1805098 ], [ 139.9574466, 35.1808486 ], [ 139.9548361, 35.181431 ], [ 139.9542818, 35.1815013 ], [ 139.9538691, 35.1813708 ], [ 139.9526843, 35.1805824 ], [ 139.9524009, 35.1804452 ], [ 139.9523215, 35.1804182 ], [ 139.9519476, 35.1803718 ], [ 139.9513982, 35.180446 ], [ 139.9509396, 35.1806216 ], [ 139.9508714, 35.1806646 ], [ 139.9508058, 35.1807415 ], [ 139.9507027, 35.1809801 ], [ 139.9506843, 35.1810691 ], [ 139.9507408, 35.18139 ], [ 139.9507605, 35.1814343 ], [ 139.9508037, 35.1814909 ], [ 139.9510241, 35.1817106 ], [ 139.9511178, 35.1817645 ], [ 139.9511823, 35.1817828 ], [ 139.9516714, 35.1818764 ], [ 139.9519626, 35.1819653 ], [ 139.9519664, 35.1819723 ], [ 139.9518888, 35.1822889 ], [ 139.9517707, 35.1829253 ], [ 139.9517802, 35.1829899 ], [ 139.9518705, 35.1832915 ], [ 139.9518918, 35.1833413 ], [ 139.9519201, 35.1833816 ], [ 139.9522278, 35.1836803 ], [ 139.9526569, 35.1839315 ], [ 139.9533929, 35.1842278 ], [ 139.954058, 35.1845547 ], [ 139.9544164, 35.1847733 ], [ 139.954666, 35.1850864 ], [ 139.9552129, 35.1864949 ], [ 139.9552415, 35.186548 ], [ 139.9554839, 35.1868722 ], [ 139.9563239, 35.1875958 ], [ 139.9565184, 35.1879147 ], [ 139.9565325, 35.1880276 ], [ 139.9565063, 35.1885715 ], [ 139.9564303, 35.1888601 ], [ 139.9563157, 35.1889322 ], [ 139.9552321, 35.1891799 ], [ 139.9547369, 35.1893892 ], [ 139.9544644, 35.1895932 ], [ 139.9544031, 35.1896563 ], [ 139.9543669, 35.1897327 ], [ 139.9542922, 35.1900185 ], [ 139.9542938, 35.190078 ], [ 139.9543757, 35.1905624 ], [ 139.9544066, 35.1906246 ], [ 139.9546584, 35.1909932 ], [ 139.9560615, 35.1924265 ], [ 139.9564183, 35.1929623 ], [ 139.9564563, 35.193238 ], [ 139.956154, 35.1937107 ], [ 139.9557343, 35.1944947 ], [ 139.955708, 35.1945796 ], [ 139.9557117, 35.1946501 ], [ 139.9559145, 35.1954961 ], [ 139.9559909, 35.1959725 ], [ 139.9559652, 35.1960698 ], [ 139.955874, 35.1962343 ], [ 139.9553774, 35.1965333 ], [ 139.9550446, 35.1968447 ], [ 139.9548168, 35.1969705 ], [ 139.9544643, 35.1970848 ], [ 139.9538816, 35.1971277 ], [ 139.9537996, 35.1971489 ], [ 139.9537086, 35.1972006 ], [ 139.9534826, 35.1974105 ], [ 139.9534496, 35.1974491 ], [ 139.9530898, 35.1981255 ], [ 139.952746, 35.1986062 ], [ 139.9526642, 35.1986596 ], [ 139.9523826, 35.1986922 ], [ 139.9520451, 35.1986101 ], [ 139.9512909, 35.1977468 ], [ 139.950803, 35.1973946 ], [ 139.9502005, 35.1970735 ], [ 139.9500533, 35.1969494 ], [ 139.9498237, 35.1966136 ], [ 139.9496848, 35.1963383 ], [ 139.9497056, 35.1960666 ], [ 139.9499643, 35.1954336 ], [ 139.9500024, 35.1948694 ], [ 139.9499951, 35.1943107 ], [ 139.949983, 35.1942589 ], [ 139.9498644, 35.1939292 ], [ 139.9498338, 35.1938705 ], [ 139.9494881, 35.19352 ], [ 139.9494004, 35.1934596 ], [ 139.9488469, 35.1931974 ], [ 139.9479921, 35.1928074 ], [ 139.9475101, 35.192666 ], [ 139.9474028, 35.192665 ], [ 139.9466783, 35.1927618 ], [ 139.9465792, 35.1928088 ], [ 139.9462953, 35.1930418 ], [ 139.9462381, 35.1931231 ], [ 139.9461588, 35.1933367 ], [ 139.9461459, 35.1933915 ], [ 139.9461496, 35.1934621 ], [ 139.9465321, 35.1943241 ], [ 139.9467673, 35.1951132 ], [ 139.9468032, 35.1953226 ], [ 139.9467682, 35.1954907 ], [ 139.9464814, 35.1959895 ], [ 139.9464564, 35.1960513 ], [ 139.9463473, 35.1964944 ], [ 139.9463041, 35.1970452 ], [ 139.9463227, 35.1971141 ], [ 139.9467934, 35.1981482 ], [ 139.9472933, 35.1989897 ], [ 139.9473546, 35.1997246 ], [ 139.9473105, 35.1999962 ], [ 139.9472038, 35.2001566 ], [ 139.9464584, 35.2006233 ], [ 139.9458161, 35.2012072 ], [ 139.9454839, 35.2013436 ], [ 139.9447094, 35.2014121 ], [ 139.944167, 35.2015309 ], [ 139.9437278, 35.2017378 ], [ 139.9436626, 35.2017791 ], [ 139.9433081, 35.2021222 ], [ 139.9432733, 35.2021743 ], [ 139.9431822, 35.2023603 ], [ 139.9431025, 35.2026726 ], [ 139.9431063, 35.2032401 ], [ 139.9432014, 35.2035595 ], [ 139.9432227, 35.2036091 ], [ 139.9432514, 35.2036499 ], [ 139.9435703, 35.2039075 ], [ 139.9436694, 35.2039545 ], [ 139.9441194, 35.2040702 ], [ 139.944193, 35.2040817 ], [ 139.9461775, 35.2042031 ], [ 139.9473766, 35.204207 ], [ 139.9478605, 35.2041428 ], [ 139.948267, 35.2040057 ], [ 139.9483287, 35.2039778 ], [ 139.9490576, 35.2034369 ], [ 139.9493364, 35.2033705 ], [ 139.9495921, 35.203362 ], [ 139.9495464, 35.2034862 ], [ 139.948885, 35.204359 ], [ 139.9484874, 35.2048028 ], [ 139.9483723, 35.2050247 ], [ 139.9483522, 35.2050813 ], [ 139.9483355, 35.2053533 ], [ 139.9483467, 35.2054233 ], [ 139.9487589, 35.2063103 ], [ 139.948833, 35.2071213 ], [ 139.948812, 35.2075885 ], [ 139.9487675, 35.2077576 ], [ 139.9487245, 35.2078159 ], [ 139.9486987, 35.2078352 ], [ 139.9485999, 35.2078468 ], [ 139.9484202, 35.2077967 ], [ 139.947743, 35.2072976 ], [ 139.9472309, 35.2071025 ], [ 139.9468146, 35.2070089 ], [ 139.9456889, 35.2069712 ], [ 139.9452192, 35.2068783 ], [ 139.9446942, 35.2067883 ], [ 139.944613, 35.2067849 ], [ 139.9440023, 35.206858 ], [ 139.9439228, 35.2068783 ], [ 139.9436103, 35.2070003 ], [ 139.9432367, 35.207256 ], [ 139.9431631, 35.207328 ], [ 139.9430752, 35.2074656 ], [ 139.943049, 35.2075207 ], [ 139.9430391, 35.2075672 ], [ 139.9430391, 35.2076143 ], [ 139.9430577, 35.2076832 ], [ 139.9430974, 35.2077458 ], [ 139.9431555, 35.2077979 ], [ 139.943228, 35.2078358 ], [ 139.94331, 35.207857 ], [ 139.943396, 35.2078601 ], [ 139.9434799, 35.2078448 ], [ 139.9435562, 35.2078122 ], [ 139.9436002, 35.2077819 ], [ 139.9436526, 35.2077259 ], [ 139.9437102, 35.207636 ], [ 139.9439767, 35.2074526 ], [ 139.9441537, 35.2073863 ], [ 139.944627, 35.2073292 ], [ 139.9450794, 35.2074068 ], [ 139.94561, 35.2075094 ], [ 139.9467255, 35.2075465 ], [ 139.9470045, 35.2076113 ], [ 139.9473712, 35.207748 ], [ 139.9480291, 35.2082354 ], [ 139.9480851, 35.2082689 ], [ 139.9484624, 35.2083796 ], [ 139.9485685, 35.208394 ], [ 139.9488925, 35.2083588 ], [ 139.9489587, 35.2083452 ], [ 139.9490578, 35.2082983 ], [ 139.9492041, 35.2081888 ], [ 139.9492637, 35.2081293 ], [ 139.9493765, 35.2079732 ], [ 139.9494, 35.207916 ], [ 139.9494622, 35.2076793 ], [ 139.9494924, 35.2071161 ], [ 139.9494083, 35.2062036 ], [ 139.9493915, 35.2061538 ], [ 139.948997, 35.2053089 ], [ 139.9490033, 35.2051876 ], [ 139.9490616, 35.2050722 ], [ 139.9494375, 35.2046539 ], [ 139.950129, 35.2037413 ], [ 139.9501588, 35.2036911 ], [ 139.9502642, 35.2033994 ], [ 139.9502692, 35.2033525 ], [ 139.9502632, 35.2032082 ], [ 139.9502521, 35.2031478 ], [ 139.9502325, 35.2031035 ], [ 139.9501993, 35.2030575 ], [ 139.9501047, 35.2029571 ], [ 139.9500364, 35.2029141 ], [ 139.9498333, 35.2028397 ], [ 139.9497592, 35.2028214 ], [ 139.949702, 35.2028173 ], [ 139.9492259, 35.2028353 ], [ 139.9488007, 35.202935 ], [ 139.9487278, 35.2029605 ], [ 139.9486807, 35.2029875 ], [ 139.9479601, 35.2035249 ], [ 139.9476843, 35.2036197 ], [ 139.9473251, 35.2036669 ], [ 139.9461922, 35.2036623 ], [ 139.9442799, 35.2035447 ], [ 139.9439543, 35.2034612 ], [ 139.9438183, 35.203354 ], [ 139.9437602, 35.2031603 ], [ 139.9437602, 35.2027248 ], [ 139.9438147, 35.2025155 ], [ 139.9438628, 35.2024197 ], [ 139.94411, 35.2021808 ], [ 139.944408, 35.2020368 ], [ 139.9448269, 35.201945 ], [ 139.9456633, 35.2018685 ], [ 139.9457254, 35.2018491 ], [ 139.9462081, 35.2016477 ], [ 139.9462638, 35.2016072 ], [ 139.9469111, 35.2010178 ], [ 139.9476921, 35.2005282 ], [ 139.9477484, 35.2004666 ], [ 139.9479181, 35.2002113 ], [ 139.9479471, 35.2001517 ], [ 139.948015, 35.1997334 ], [ 139.9479462, 35.1988999 ], [ 139.9479358, 35.1988484 ], [ 139.9479135, 35.1987995 ], [ 139.947405, 35.1979466 ], [ 139.9469658, 35.1969816 ], [ 139.946999, 35.1965774 ], [ 139.9470942, 35.1961907 ], [ 139.9473949, 35.1956652 ], [ 139.94741, 35.1956189 ], [ 139.9474659, 35.1953266 ], [ 139.9474112, 35.1949978 ], [ 139.9471676, 35.1941806 ], [ 139.9468214, 35.1934065 ], [ 139.9468389, 35.1933589 ], [ 139.9469476, 35.1932697 ], [ 139.9474205, 35.19321 ], [ 139.9476957, 35.1932909 ], [ 139.9490193, 35.1939035 ], [ 139.9492516, 35.1941351 ], [ 139.9493381, 35.1943758 ], [ 139.9493435, 35.1948635 ], [ 139.9493133, 35.1953349 ], [ 139.9490552, 35.1959666 ], [ 139.9490218, 35.1963839 ], [ 139.9490268, 35.1964308 ], [ 139.9490469, 35.1964873 ], [ 139.9492395, 35.1968643 ], [ 139.9495347, 35.1972863 ], [ 139.9497789, 35.1974914 ], [ 139.9503924, 35.1978182 ], [ 139.9508094, 35.1981185 ], [ 139.9515743, 35.1989998 ], [ 139.9516537, 35.1990644 ], [ 139.95173, 35.199097 ], [ 139.952264, 35.1992275 ], [ 139.9523576, 35.1992386 ], [ 139.9528562, 35.1991834 ], [ 139.9529117, 35.1991712 ], [ 139.9529844, 35.1991407 ], [ 139.9532108, 35.1989937 ], [ 139.9532831, 35.1989235 ], [ 139.9536694, 35.1983834 ], [ 139.9540165, 35.197731 ], [ 139.954099, 35.197654 ], [ 139.9545695, 35.1976201 ], [ 139.9546534, 35.1976048 ], [ 139.9551143, 35.1974548 ], [ 139.9554492, 35.1972731 ], [ 139.9555147, 35.1972254 ], [ 139.955814, 35.1969404 ], [ 139.9563326, 35.1966289 ], [ 139.9563904, 35.1965845 ], [ 139.9564378, 35.1965228 ], [ 139.9565795, 35.1962675 ], [ 139.9566017, 35.1962127 ], [ 139.9566494, 35.1960307 ], [ 139.9566516, 35.1959484 ], [ 139.9565641, 35.1954054 ], [ 139.9563793, 35.1946341 ], [ 139.9567525, 35.1939371 ], [ 139.9570865, 35.1934163 ], [ 139.9571132, 35.1933603 ], [ 139.9571232, 35.1933139 ], [ 139.9571224, 35.1932599 ], [ 139.9570628, 35.1928322 ], [ 139.9570274, 35.1927495 ], [ 139.9566081, 35.1921226 ], [ 139.9552174, 35.1907059 ], [ 139.955012, 35.1904052 ], [ 139.9549546, 35.1900539 ], [ 139.9549876, 35.1899325 ], [ 139.9551167, 35.1898342 ], [ 139.9554653, 35.1896872 ], [ 139.9566046, 35.1894238 ], [ 139.9566657, 35.1893934 ], [ 139.9569271, 35.1892289 ], [ 139.9569791, 35.1891881 ], [ 139.957012, 35.1891495 ], [ 139.9570432, 35.1890893 ], [ 139.9571618, 35.1886346 ], [ 139.957192, 35.188019 ], [ 139.957158, 35.1877679 ], [ 139.9571344, 35.1877169 ], [ 139.9568663, 35.1872836 ], [ 139.9559996, 35.1865333 ], [ 139.9558289, 35.1863005 ], [ 139.9552757, 35.1848766 ], [ 139.9552418, 35.184821 ], [ 139.9549354, 35.1844368 ], [ 139.9548562, 35.1843678 ], [ 139.9544104, 35.1840976 ], [ 139.9537142, 35.1837554 ], [ 139.9530158, 35.1834773 ], [ 139.9526653, 35.1832731 ], [ 139.9524921, 35.1831021 ], [ 139.9524358, 35.1829137 ], [ 139.9525374, 35.1823837 ], [ 139.9526379, 35.1819655 ], [ 139.9526342, 35.181895 ], [ 139.9526193, 35.1818495 ], [ 139.9525098, 35.1816431 ], [ 139.952478, 35.1815966 ], [ 139.9524411, 35.1815605 ], [ 139.9523971, 35.1815302 ], [ 139.9523229, 35.1814982 ], [ 139.9518791, 35.1813628 ], [ 139.9514413, 35.181277 ], [ 139.9513715, 35.1812068 ], [ 139.9513514, 35.1810953 ], [ 139.9513701, 35.1810513 ], [ 139.951584, 35.1809674 ], [ 139.9519498, 35.1809162 ], [ 139.9521235, 35.1809386 ], [ 139.9523087, 35.1810276 ], [ 139.9535374, 35.181842 ], [ 139.9541328, 35.1820336 ], [ 139.9542167, 35.1820489 ], [ 139.9542957, 35.1820467 ], [ 139.954991, 35.1819569 ], [ 139.9576126, 35.181372 ], [ 139.959428, 35.1810344 ], [ 139.9601529, 35.180839 ], [ 139.9602168, 35.1808131 ], [ 139.9605296, 35.1806501 ], [ 139.9605859, 35.180613 ], [ 139.9608239, 35.1803476 ], [ 139.9608551, 35.1803038 ], [ 139.9608748, 35.1802596 ], [ 139.9609224, 35.1800554 ], [ 139.9611236, 35.1800664 ], [ 139.9611734, 35.1799685 ] ] ] } },
{ "type": "Feature", "properties": { "FID": 14, "A52_001": "12", "A52_002": "12226", "A52_003": "富津市", "A52_004": "湊川水系飛清川", "A52_005": " ", "A52_006": "昭和23年4月13日", "A52_007": "総60", "A52_008": 0, "A52_009": " ", "A52_010": " ", "city": "富津市", "name": "湊川水系飛清川", "date": "昭和23年4月13日", "notice": "総60", "layer": "sabo_designated" }, "geometry": { "type": "Polygon", "coordinates": [ [ [ 139.9490495, 35.2213491 ], [ 139.9490965, 35.2215285 ], [ 139.9491219, 35.2215863 ], [ 139.949156, 35.2216313 ], [ 139.9493103, 35.2217883 ], [ 139.949375, 35.2218348 ], [ 139.949432, 35.2218597 ], [ 139.9496819, 35.2219074 ], [ 139.9497678, 35.2219027 ], [ 139.9501229, 35.2218345 ], [ 139.9501834, 35.2218158 ], [ 139.9503246, 35.2217539 ], [ 139.9505867, 35.2215605 ], [ 139.9506372, 35.2214828 ], [ 139.9506546, 35.2213958 ], [ 139.9506433, 35.2213258 ], [ 139.9506103, 35.2212607 ], [ 139.9505421, 35.2211926 ], [ 139.9504508, 35.2211462 ], [ 139.9501741, 35.220748 ], [ 139.9501627, 35.220678 ], [ 139.9501183, 35.2205978 ], [ 139.9500773, 35.2205569 ], [ 139.950009, 35.220514 ], [ 139.9499294, 35.220487 ], [ 139.9498657, 35.2204785 ], [ 139.9497798, 35.2204832 ], [ 139.949718, 35.2204986 ], [ 139.9496611, 35.2205236 ], [ 139.9496112, 35.2205573 ], [ 139.9491223, 35.2210747 ], [ 139.9490876, 35.2211204 ], [ 139.9490601, 35.2211873 ], [ 139.9490495, 35.2213491 ] ] ] } },
{ "type": "Feature", "properties": { "FID": 9, "A52_001": "12", "A52_002": "12225", "A52_003": "君津市", "A52_004": "小糸川水系鹿野沢川", "A52_005": " ", "A52_006": "昭和48年8月13日", "A52_007": "建1732", "A52_008": 0, "A52_009": " ", "A52_010": " ", "city": "君津市", "name": "小糸川水系鹿野沢川", "date": "昭和48年8月13日", "notice": "建1732", "layer": "sabo_designated" }, "geometry": { "type": "Polygon", "coordinates": [ [ [ 139.9899038, 35.2488971 ], [ 139.9905107, 35.2486533 ], [ 139.9909815, 35.2486459 ], [ 139.9914665, 35.2486039 ], [ 139.9913628, 35.2490423 ], [ 139.9913565, 35.2490951 ], [ 139.9913628, 35.2491479 ], [ 139.9913816, 35.2491986 ], [ 139.9914121, 35.2492454 ], [ 139.9914531, 35.2492863 ], [ 139.9915031, 35.2493199 ], [ 139.9915601, 35.2493449 ], [ 139.991622, 35.2493603 ], [ 139.9916863, 35.2493654 ], [ 139.9917506, 35.2493602 ], [ 139.9918125, 35.2493448 ], [ 139.9918695, 35.2493198 ], [ 139.9919194, 35.2492861 ], [ 139.9919604, 35.2492451 ], [ 139.9919908, 35.2491983 ], [ 139.9920095, 35.2491476 ], [ 139.9921567, 35.2485153 ], [ 139.9921621, 35.2484649 ], [ 139.992156, 35.2484145 ], [ 139.9921385, 35.248366 ], [ 139.9921103, 35.2483209 ], [ 139.9920117, 35.2481943 ], [ 139.9919735, 35.2481541 ], [ 139.9919267, 35.2481205 ], [ 139.9918146, 35.2480776 ], [ 139.9915214, 35.2480586 ], [ 139.9909543, 35.2481053 ], [ 139.9904234, 35.2481135 ], [ 139.9903506, 35.2481214 ], [ 139.9902818, 35.2481422 ], [ 139.9895297, 35.2484434 ], [ 139.9894717, 35.2484719 ], [ 139.989422, 35.2485095 ], [ 139.9893827, 35.2485547 ], [ 139.9891586, 35.2488777 ], [ 139.9891275, 35.2489387 ], [ 139.9890463, 35.2491771 ], [ 139.9889633, 35.249149 ], [ 139.9888995, 35.2491401 ], [ 139.9888349, 35.2491417 ], [ 139.9887718, 35.2491536 ], [ 139.9884671, 35.2492909 ], [ 139.9884159, 35.2493207 ], [ 139.9883725, 35.2493579 ], [ 139.9881888, 35.2495487 ], [ 139.9875487, 35.2499232 ], [ 139.9874933, 35.2499642 ], [ 139.9874505, 35.2500143 ], [ 139.9871563, 35.2504585 ], [ 139.9870418, 35.2506602 ], [ 139.9869218, 35.2504972 ], [ 139.9867558, 35.2503868 ], [ 139.9868702, 35.2500506 ], [ 139.9868824, 35.2499775 ], [ 139.986882, 35.2497988 ], [ 139.9868749, 35.2497435 ], [ 139.9868542, 35.2496905 ], [ 139.9868208, 35.2496422 ], [ 139.9867759, 35.2496005 ], [ 139.986575, 35.2494486 ], [ 139.9863411, 35.249293 ], [ 139.9862843, 35.2492724 ], [ 139.9861619, 35.2492587 ], [ 139.9858006, 35.249327 ], [ 139.9855627, 35.2492869 ], [ 139.9854605, 35.2492113 ], [ 139.9854004, 35.2491859 ], [ 139.9851644, 35.2491473 ], [ 139.9851354, 35.2491302 ], [ 139.9851236, 35.2489136 ], [ 139.9851038, 35.2488634 ], [ 139.9850724, 35.2488174 ], [ 139.9850308, 35.2487772 ], [ 139.9845984, 35.2485419 ], [ 139.984318, 35.2484004 ], [ 139.9839428, 35.2483235 ], [ 139.9838607, 35.2483162 ], [ 139.9833583, 35.2483236 ], [ 139.983236, 35.2483449 ], [ 139.9831808, 35.2483693 ], [ 139.9831322, 35.2484019 ], [ 139.982993, 35.2485605 ], [ 139.9826481, 35.248671 ], [ 139.9825646, 35.2487276 ], [ 139.9824136, 35.2488702 ], [ 139.9822333, 35.2487711 ], [ 139.9821433, 35.2486116 ], [ 139.9818053, 35.248174 ], [ 139.9816156, 35.2479469 ], [ 139.9815734, 35.2479059 ], [ 139.9815221, 35.2478725 ], [ 139.9814638, 35.2478481 ], [ 139.9814008, 35.2478336 ], [ 139.9813355, 35.2478296 ], [ 139.9812705, 35.2478363 ], [ 139.9812085, 35.2478534 ], [ 139.9810114, 35.2479627 ], [ 139.980834, 35.2479538 ], [ 139.9805485, 35.2479871 ], [ 139.9803529, 35.2478919 ], [ 139.9802353, 35.2478573 ], [ 139.9797723, 35.2478663 ], [ 139.9796999, 35.2478751 ], [ 139.9796316, 35.2478969 ], [ 139.9792947, 35.2480414 ], [ 139.9792012, 35.2481013 ], [ 139.9791657, 35.2481405 ], [ 139.9791395, 35.2481844 ], [ 139.9789755, 35.2485359 ], [ 139.9789146, 35.2486173 ], [ 139.9786116, 35.2486286 ], [ 139.9785411, 35.2486376 ], [ 139.9784747, 35.2486588 ], [ 139.9784153, 35.2486912 ], [ 139.9783659, 35.2487333 ], [ 139.9781988, 35.2489104 ], [ 139.9779679, 35.2489794 ], [ 139.9779096, 35.2490023 ], [ 139.9778579, 35.2490341 ], [ 139.9778147, 35.2490736 ], [ 139.9777818, 35.2491192 ], [ 139.9777603, 35.2491692 ], [ 139.9777511, 35.2492217 ], [ 139.9777546, 35.2492746 ], [ 139.9777707, 35.249326 ], [ 139.9777986, 35.2493738 ], [ 139.9778374, 35.2494162 ], [ 139.9778855, 35.2494517 ], [ 139.9779411, 35.2494787 ], [ 139.9780021, 35.2494963 ], [ 139.978066, 35.2495038 ], [ 139.9781306, 35.2495009 ], [ 139.9781932, 35.2494878 ], [ 139.9785697, 35.2493704 ], [ 139.9786196, 35.2493404 ], [ 139.9786619, 35.2493034 ], [ 139.978794, 35.2491633 ], [ 139.9791193, 35.2491511 ], [ 139.9791828, 35.2491436 ], [ 139.9792434, 35.2491262 ], [ 139.9792987, 35.2490994 ], [ 139.9793466, 35.2490643 ], [ 139.9795535, 35.2487974 ], [ 139.9797107, 35.2484734 ], [ 139.9798709, 35.2484047 ], [ 139.9800999, 35.2483978 ], [ 139.9803118, 35.2485009 ], [ 139.9803795, 35.2485259 ], [ 139.9804522, 35.2485378 ], [ 139.9805263, 35.2485361 ], [ 139.9808827, 35.2484946 ], [ 139.981118, 35.2485144 ], [ 139.9811789, 35.2485067 ], [ 139.98126, 35.2484787 ], [ 139.9815732, 35.2488843 ], [ 139.9816691, 35.2490618 ], [ 139.9816993, 35.249106 ], [ 139.9817391, 35.2491449 ], [ 139.9821948, 35.2494012 ], [ 139.9822583, 35.2494284 ], [ 139.9823274, 35.2494437 ], [ 139.9823989, 35.2494464 ], [ 139.9824694, 35.2494364 ], [ 139.9827248, 35.2493711 ], [ 139.982778, 35.2493432 ], [ 139.9828238, 35.2493075 ], [ 139.9830076, 35.249134 ], [ 139.9833829, 35.2490121 ], [ 139.9834356, 35.248978 ], [ 139.9835405, 35.248862 ], [ 139.9838309, 35.2488577 ], [ 139.9840599, 35.2489023 ], [ 139.9844756, 35.2491209 ], [ 139.9844865, 35.2493267 ], [ 139.9845045, 35.2493747 ], [ 139.984533, 35.249419 ], [ 139.984571, 35.2494583 ], [ 139.9846172, 35.2494912 ], [ 139.9848422, 35.2496234 ], [ 139.9849074, 35.2496532 ], [ 139.9851216, 35.2496901 ], [ 139.9852163, 35.2497604 ], [ 139.9852725, 35.2497852 ], [ 139.9853335, 35.2498006 ], [ 139.985741, 35.2498692 ], [ 139.9858139, 35.2498747 ], [ 139.9858864, 35.2498668 ], [ 139.9860954, 35.2498245 ], [ 139.9862229, 35.2499178 ], [ 139.9862229, 35.2499411 ], [ 139.9860605, 35.2504183 ], [ 139.9860492, 35.2504713 ], [ 139.9860509, 35.250525 ], [ 139.9860655, 35.2505773 ], [ 139.9860925, 35.2506263 ], [ 139.9861307, 35.2506699 ], [ 139.9861786, 35.2507065 ], [ 139.9864198, 35.2508567 ], [ 139.9865765, 35.2510845 ], [ 139.986651, 35.2511583 ], [ 139.9868892, 35.2513158 ], [ 139.986951, 35.2513369 ], [ 139.9870167, 35.2513474 ], [ 139.9870836, 35.2513468 ], [ 139.987149, 35.2513351 ], [ 139.9872102, 35.2513128 ], [ 139.9872646, 35.2512809 ], [ 139.9874723, 35.2511305 ], [ 139.9875185, 35.2510894 ], [ 139.9875534, 35.2510413 ], [ 139.9877407, 35.2507091 ], [ 139.9879936, 35.2503274 ], [ 139.9886098, 35.2499667 ], [ 139.9886771, 35.2499142 ], [ 139.9888504, 35.2497342 ], [ 139.9888878, 35.2497166 ], [ 139.9891095, 35.2498072 ], [ 139.9891696, 35.249826 ], [ 139.9892331, 35.2498349 ], [ 139.9892975, 35.2498335 ], [ 139.9893603, 35.2498218 ], [ 139.9894191, 35.2498004 ], [ 139.9894717, 35.2497699 ], [ 139.9895162, 35.2497317 ], [ 139.9895507, 35.2496871 ], [ 139.989574, 35.2496379 ], [ 139.9897517, 35.2491164 ], [ 139.9899038, 35.2488971 ] ] ] } },
{ "type": "Feature", "properties": { "FID": 11, "A52_001": "12", "A52_002": "12225", "A52_003": "君津市", "A52_004": "小糸川水系沢巻川", "A52_005": " ", "A52_006": "昭和48年8月13日", "A52_007": "建1732", "A52_008": 0, "A52_009": " ", "A52_010": " ", "city": "君津市", "name": "小糸川水系沢巻川", "date": "昭和48年8月13日", "notice": "建1732", "layer": "sabo_designated" }, "geometry": { "type": "Polygon", "coordinates": [ [ [ 140.0239573, 35.2862466 ], [ 140.0258148, 35.2876151 ], [ 140.0255774, 35.2868379 ], [ 140.0255059, 35.2861129 ], [ 140.0259703, 35.2856924 ], [ 140.0262715, 35.2851386 ], [ 140.027248, 35.2847936 ], [ 140.0276395, 35.2830566 ], [ 140.0278457, 35.2817015 ], [ 140.0279368, 35.2808809 ], [ 140.0281216, 35.2802891 ], [ 140.0282594, 35.2795638 ], [ 140.0285603, 35.2788764 ], [ 140.0290474, 35.278265 ], [ 140.0295813, 35.2777299 ], [ 140.0295101, 35.2771385 ], [ 140.0291368, 35.2767003 ], [ 140.027622, 35.2756914 ], [ 140.0275053, 35.275558 ], [ 140.0267126, 35.2748724 ], [ 140.0260361, 35.2741102 ], [ 140.0256396, 35.2737102 ], [ 140.0252191, 35.2729858 ], [ 140.0247524, 35.2724332 ], [ 140.0242626, 35.2718997 ], [ 140.0238662, 35.2715187 ], [ 140.0216081, 35.2709498 ], [ 140.0204885, 35.2697303 ], [ 140.0190916, 35.2692745 ], [ 140.018183, 35.2687225 ], [ 140.0166934, 35.2684386 ], [ 140.0152977, 35.268536 ], [ 140.0146236, 35.2687851 ], [ 140.0139735, 35.2693776 ], [ 140.0131602, 35.2698367 ], [ 140.0120693, 35.2710023 ], [ 140.0108372, 35.2714811 ], [ 140.0099303, 35.2716732 ], [ 140.0093719, 35.271674 ], [ 140.0076524, 35.272745 ], [ 140.0067692, 35.2731851 ], [ 140.004585, 35.274562 ], [ 140.0028416, 35.275404 ], [ 140.0011446, 35.2761314 ], [ 139.9994473, 35.2767634 ], [ 139.9984717, 35.2775661 ], [ 139.9973326, 35.2781019 ], [ 139.9968912, 35.2784651 ], [ 139.9966367, 35.2792096 ], [ 139.9958704, 35.280012 ], [ 139.995103, 35.280261 ], [ 139.9947492, 35.2804642 ], [ 139.9942857, 35.2804649 ], [ 139.9942137, 35.2804715 ], [ 139.9941453, 35.2804908 ], [ 139.9938424, 35.2806082 ], [ 139.9935726, 35.2807399 ], [ 139.9933322, 35.2808128 ], [ 139.993036, 35.2807921 ], [ 139.9925572, 35.2806574 ], [ 139.9924905, 35.2806448 ], [ 139.9920338, 35.2805997 ], [ 139.9915524, 35.2805857 ], [ 139.9914812, 35.28059 ], [ 139.9910297, 35.2806627 ], [ 139.9905767, 35.2808063 ], [ 139.9900703, 35.2809359 ], [ 139.9899884, 35.2809676 ], [ 139.9896321, 35.2811581 ], [ 139.989164, 35.2815078 ], [ 139.9888615, 35.2818152 ], [ 139.9888217, 35.2818665 ], [ 139.988416, 35.2825484 ], [ 139.9882893, 35.2826621 ], [ 139.9882544, 35.2826778 ], [ 139.9882254, 35.2826719 ], [ 139.9874632, 35.282227 ], [ 139.9873506, 35.2822008 ], [ 139.9871723, 35.2821864 ], [ 139.9869284, 35.2822013 ], [ 139.9866012, 35.2822656 ], [ 139.9865059, 35.2823161 ], [ 139.9862744, 35.2824919 ], [ 139.9862271, 35.2825367 ], [ 139.9860356, 35.2827734 ], [ 139.9860159, 35.2828239 ], [ 139.9860086, 35.2828766 ], [ 139.986014, 35.2829294 ], [ 139.9860318, 35.2829804 ], [ 139.9860615, 35.2830275 ], [ 139.9861017, 35.283069 ], [ 139.9861511, 35.2831032 ], [ 139.9862077, 35.2831289 ], [ 139.9862692, 35.2831451 ], [ 139.9863335, 35.2831511 ], [ 139.9863979, 35.2831466 ], [ 139.9864601, 35.283132 ], [ 139.9865175, 35.2831077 ], [ 139.9865681, 35.2830747 ], [ 139.9867493, 35.2828685 ], [ 139.9868899, 35.2827618 ], [ 139.9870159, 35.2827378 ], [ 139.9871405, 35.2827274 ], [ 139.9871959, 35.2827319 ], [ 139.9874672, 35.2828952 ], [ 139.9879036, 35.283269 ], [ 139.9882353, 35.2832936 ], [ 139.9883269, 35.2832899 ], [ 139.9884664, 35.2832468 ], [ 139.988558, 35.2832109 ], [ 139.9886542, 35.283115 ], [ 139.9887393, 35.2830602 ], [ 139.9889351, 35.2828845 ], [ 139.988988, 35.2828207 ], [ 139.9893982, 35.2821311 ], [ 139.9896615, 35.2818636 ], [ 139.9900149, 35.2815993 ], [ 139.9903104, 35.2814412 ], [ 139.9907836, 35.2813201 ], [ 139.9912386, 35.2811765 ], [ 139.9918983, 35.2813561 ], [ 139.9923638, 35.2814032 ], [ 139.9928605, 35.2813146 ], [ 139.9929394, 35.2813283 ], [ 139.9933496, 35.281357 ], [ 139.9934219, 35.2813555 ], [ 139.9934921, 35.2813411 ], [ 139.9938307, 35.2812383 ], [ 139.9941393, 35.2810914 ], [ 139.9943605, 35.2810057 ], [ 139.9947333, 35.2810052 ], [ 139.9951913, 35.2810434 ], [ 139.9958553, 35.2812466 ], [ 139.9964394, 35.2816504 ], [ 139.996881, 35.2821036 ], [ 139.9982105, 35.2844356 ], [ 139.9992684, 35.2861634 ], [ 140.0009804, 35.2876219 ], [ 140.0043258, 35.2877366 ], [ 140.0064319, 35.2863622 ], [ 140.0077732, 35.284482 ], [ 140.0091908, 35.2842713 ], [ 140.010904, 35.2862663 ], [ 140.0136341, 35.2876934 ], [ 140.0164344, 35.2878979 ], [ 140.0189768, 35.2866419 ], [ 140.0209763, 35.2864897 ], [ 140.0220302, 35.2862794 ], [ 140.0239573, 35.2862466 ] ] ] } },
{ "type": "Feature", "properties": { "FID": 83, "A52_001": "12", "A52_002": "12225", "A52_003": "君津市", "A52_004": "小櫃川水系踊沢川", "A52_005": " ", "A52_006": "昭和55年3月19日", "A52_007": "建331", "A52_008": 0, "A52_009": " ", "A52_010": " ", "city": "君津市", "name": "小櫃川水系踊沢川", "date": "昭和55年3月19日", "notice": "建331", "layer": "sabo_designated" }, "geometry": { "type": "Polygon", "coordinates": [ [ [ 140.0647479, 35.2076983 ], [ 140.064477, 35.2074758 ], [ 140.0643489, 35.2073903 ], [ 140.0643017, 35.2072576 ], [ 140.0641728, 35.2069959 ], [ 140.064013, 35.2067896 ], [ 140.063922, 35.2067307 ], [ 140.0635946, 35.2066436 ], [ 140.0634753, 35.2066486 ], [ 140.063366, 35.2066881 ], [ 140.0633197, 35.2067193 ], [ 140.0630197, 35.2069573 ], [ 140.0629519, 35.2068792 ], [ 140.0627462, 35.2066835 ], [ 140.0626922, 35.2066542 ], [ 140.0626323, 35.2066341 ], [ 140.0623355, 35.2065617 ], [ 140.0620268, 35.2063848 ], [ 140.0619325, 35.2061935 ], [ 140.0624412, 35.2064248 ], [ 140.0625525, 35.2064558 ], [ 140.0626115, 35.2064586 ], [ 140.0628338, 35.2064239 ], [ 140.0629411, 35.2063879 ], [ 140.0631959, 35.2061959 ], [ 140.0632275, 35.2061542 ], [ 140.0632494, 35.2061086 ], [ 140.0632609, 35.2060604 ], [ 140.06331, 35.2056681 ], [ 140.0633654, 35.2051258 ], [ 140.0634298, 35.2050417 ], [ 140.0634501, 35.2049914 ], [ 140.063458, 35.2049388 ], [ 140.0634533, 35.2048859 ], [ 140.0634361, 35.2048348 ], [ 140.0634071, 35.2047874 ], [ 140.0633674, 35.2047456 ], [ 140.0633185, 35.2047109 ], [ 140.0632623, 35.2046848 ], [ 140.0632009, 35.2046681 ], [ 140.0631368, 35.2046616 ], [ 140.0630724, 35.2046655 ], [ 140.0630101, 35.2046796 ], [ 140.0629524, 35.2047035 ], [ 140.0629015, 35.2047361 ], [ 140.0628593, 35.2047762 ], [ 140.062746, 35.2049155 ], [ 140.0627261, 35.2049604 ], [ 140.0627161, 35.2050074 ], [ 140.06262, 35.2058877 ], [ 140.0620647, 35.2056351 ], [ 140.0619928, 35.205611 ], [ 140.0617138, 35.2055534 ], [ 140.0616474, 35.2055552 ], [ 140.0615829, 35.2055678 ], [ 140.0615227, 35.2055909 ], [ 140.0613413, 35.2056845 ], [ 140.0612681, 35.2057593 ], [ 140.0612448, 35.2058034 ], [ 140.0612313, 35.2058503 ], [ 140.0611971, 35.206046 ], [ 140.0611939, 35.2060933 ], [ 140.0612009, 35.2061404 ], [ 140.0614525, 35.2066621 ], [ 140.0614817, 35.2067082 ], [ 140.0615212, 35.2067489 ], [ 140.0615694, 35.2067825 ], [ 140.0620475, 35.2070521 ], [ 140.0623484, 35.2071292 ], [ 140.0624356, 35.2072157 ], [ 140.0626059, 35.2074091 ], [ 140.0627314, 35.207514 ], [ 140.062783, 35.2075492 ], [ 140.0628422, 35.207575 ], [ 140.0629065, 35.2075905 ], [ 140.0629734, 35.2075949 ], [ 140.0630399, 35.2075882 ], [ 140.0631034, 35.2075706 ], [ 140.0631612, 35.2075427 ], [ 140.0634537, 35.2073669 ], [ 140.0635946, 35.2072568 ], [ 140.0636814, 35.2074408 ], [ 140.0637473, 35.2076323 ], [ 140.0637972, 35.207717 ], [ 140.0638794, 35.2077826 ], [ 140.0641751, 35.2079441 ], [ 140.0642205, 35.2082729 ], [ 140.0642374, 35.208333 ], [ 140.0642704, 35.2083883 ], [ 140.0643178, 35.208436 ], [ 140.0645716, 35.2086393 ], [ 140.0646254, 35.2086742 ], [ 140.0646868, 35.2086992 ], [ 140.0647532, 35.2087132 ], [ 140.0648217, 35.2087157 ], [ 140.065032, 35.2087046 ], [ 140.0653162, 35.2086719 ], [ 140.0656007, 35.2085604 ], [ 140.0659651, 35.2082733 ], [ 140.0660235, 35.2084335 ], [ 140.0660546, 35.2084761 ], [ 140.0660947, 35.2085133 ], [ 140.0661961, 35.2085668 ], [ 140.0664421, 35.2086132 ], [ 140.0663862, 35.2087391 ], [ 140.0663797, 35.2087891 ], [ 140.0663847, 35.2088391 ], [ 140.0664008, 35.2088876 ], [ 140.0664275, 35.2089328 ], [ 140.0665905, 35.2091522 ], [ 140.0668766, 35.2093234 ], [ 140.0672033, 35.20942 ], [ 140.067521, 35.2094031 ], [ 140.0675938, 35.2093924 ], [ 140.067662, 35.2093686 ], [ 140.0677219, 35.2093329 ], [ 140.0681579, 35.209006 ], [ 140.068201, 35.2089666 ], [ 140.068234, 35.208921 ], [ 140.0682556, 35.208871 ], [ 140.0682648, 35.2088185 ], [ 140.0682614, 35.2087656 ], [ 140.0682454, 35.2087142 ], [ 140.0682176, 35.2086663 ], [ 140.0681789, 35.2086239 ], [ 140.0681309, 35.2085884 ], [ 140.0680754, 35.2085613 ], [ 140.0680144, 35.2085437 ], [ 140.0679505, 35.2085361 ], [ 140.067886, 35.2085389 ], [ 140.0678234, 35.208552 ], [ 140.0677651, 35.2085748 ], [ 140.0673628, 35.2088694 ], [ 140.0672798, 35.2088738 ], [ 140.0671941, 35.208825 ], [ 140.0670925, 35.2087894 ], [ 140.0670767, 35.2087681 ], [ 140.067157, 35.2086053 ], [ 140.0671743, 35.2085581 ], [ 140.067181, 35.2085092 ], [ 140.0671767, 35.20846 ], [ 140.0671616, 35.2084123 ], [ 140.0671362, 35.2083677 ], [ 140.0670583, 35.2082933 ], [ 140.0668603, 35.2081622 ], [ 140.0667941, 35.2081282 ], [ 140.0665859, 35.2080852 ], [ 140.0665236, 35.2078956 ], [ 140.0664988, 35.2078429 ], [ 140.0664612, 35.2077956 ], [ 140.0664124, 35.2077557 ], [ 140.0663546, 35.207725 ], [ 140.066032, 35.2076482 ], [ 140.0659648, 35.2076395 ], [ 140.0658968, 35.2076423 ], [ 140.065831, 35.2076565 ], [ 140.0657702, 35.2076814 ], [ 140.0657168, 35.2077161 ], [ 140.065221, 35.2081137 ], [ 140.0651299, 35.2081493 ], [ 140.0649274, 35.2081685 ], [ 140.0648621, 35.2081162 ], [ 140.0648437, 35.2079831 ], [ 140.0647479, 35.2076983 ] ] ] } },
{ "type": "Feature", "properties": { "FID": 82, "A52_001": "12", "A52_002": "12225", "A52_003": "君津市", "A52_004": "小櫃川水系踊沢川左支川", "A52_005": " ", "A52_006": "昭和55年3月19日", "A52_007": "建331", "A52_008": 0, "A52_009": " ", "A52_010": " ", "city": "君津市", "name": "小櫃川水系踊沢川左支川", "date": "昭和55年3月19日", "notice": "建331", "layer": "sabo_designated" }, "geometry": { "type": "Polygon", "coordinates": [ [ [ 140.0665341, 35.2091681 ], [ 140.0664772, 35.2091954 ], [ 140.0664281, 35.2092315 ], [ 140.0663887, 35.2092749 ], [ 140.0663606, 35.2093238 ], [ 140.0663254, 35.2094905 ], [ 140.0663242, 35.2096549 ], [ 140.0662477, 35.2096739 ], [ 140.0660873, 35.2097389 ], [ 140.0659232, 35.2098681 ], [ 140.0658846, 35.2099063 ], [ 140.0658553, 35.2099498 ], [ 140.0658107, 35.2100852 ], [ 140.0657658, 35.2101181 ], [ 140.0655664, 35.2101415 ], [ 140.0654478, 35.2101713 ], [ 140.0653957, 35.2101993 ], [ 140.065351, 35.2102349 ], [ 140.0653152, 35.2102768 ], [ 140.0652575, 35.2103683 ], [ 140.0651845, 35.2103608 ], [ 140.0649164, 35.2103614 ], [ 140.0648532, 35.2103665 ], [ 140.0647923, 35.2103815 ], [ 140.0647361, 35.2104058 ], [ 140.0646867, 35.2104385 ], [ 140.0646458, 35.2104784 ], [ 140.0645458, 35.2106546 ], [ 140.0645241, 35.2107124 ], [ 140.0645187, 35.2107728 ], [ 140.0645257, 35.2108106 ], [ 140.0644208, 35.2108443 ], [ 140.0643712, 35.2108721 ], [ 140.0643133, 35.2109248 ], [ 140.064203, 35.2109088 ], [ 140.0640966, 35.2109146 ], [ 140.0640328, 35.2109313 ], [ 140.0639744, 35.2109582 ], [ 140.0638674, 35.2110215 ], [ 140.0637631, 35.210971 ], [ 140.0637014, 35.2109558 ], [ 140.0636373, 35.2109507 ], [ 140.0635733, 35.2109559 ], [ 140.0633671, 35.2110205 ], [ 140.0630435, 35.2110841 ], [ 140.0621448, 35.2111334 ], [ 140.0620842, 35.2111518 ], [ 140.0620291, 35.2111796 ], [ 140.0619817, 35.2112156 ], [ 140.0619438, 35.2112585 ], [ 140.0619168, 35.2113067 ], [ 140.0619018, 35.2113582 ], [ 140.0618993, 35.2114112 ], [ 140.0619094, 35.2114636 ], [ 140.0619319, 35.2115133 ], [ 140.0619657, 35.2115585 ], [ 140.0620095, 35.2115974 ], [ 140.0620618, 35.2116285 ], [ 140.0621205, 35.2116507 ], [ 140.0621834, 35.211663 ], [ 140.0622479, 35.2116651 ], [ 140.0631117, 35.2116226 ], [ 140.0636019, 35.2115262 ], [ 140.0637176, 35.2115834 ], [ 140.0638308, 35.2116177 ], [ 140.0638912, 35.2116215 ], [ 140.0640005, 35.2116042 ], [ 140.0640475, 35.2116603 ], [ 140.0641003, 35.2116996 ], [ 140.0641621, 35.2117286 ], [ 140.0642301, 35.2117461 ], [ 140.0643476, 35.2117592 ], [ 140.0644153, 35.2117528 ], [ 140.0644799, 35.211735 ], [ 140.0645386, 35.2117068 ], [ 140.0646782, 35.2115875 ], [ 140.0648131, 35.2114342 ], [ 140.0648775, 35.211462 ], [ 140.0649388, 35.2114764 ], [ 140.0650023, 35.2114808 ], [ 140.0650657, 35.2114751 ], [ 140.0651266, 35.2114595 ], [ 140.0651826, 35.2114345 ], [ 140.0652912, 35.2113521 ], [ 140.0653321, 35.2113111 ], [ 140.0653624, 35.2112643 ], [ 140.065381, 35.2112135 ], [ 140.0653872, 35.2111607 ], [ 140.0653838, 35.2110179 ], [ 140.065537, 35.2110211 ], [ 140.0656016, 35.2110085 ], [ 140.0656617, 35.2109855 ], [ 140.065715, 35.2109532 ], [ 140.0657594, 35.2109127 ], [ 140.065793, 35.2108657 ], [ 140.0658522, 35.2107597 ], [ 140.0658748, 35.2107043 ], [ 140.0658813, 35.2106537 ], [ 140.0660886, 35.2105976 ], [ 140.0661488, 35.2105626 ], [ 140.0663271, 35.2104319 ], [ 140.0663942, 35.210361 ], [ 140.066523, 35.210437 ], [ 140.0666389, 35.2104654 ], [ 140.0668286, 35.2104576 ], [ 140.0668927, 35.2104482 ], [ 140.0669533, 35.2104285 ], [ 140.067008, 35.2103995 ], [ 140.0670547, 35.2103622 ], [ 140.0671975, 35.2102163 ], [ 140.0672221, 35.2101722 ], [ 140.0672857, 35.2100132 ], [ 140.0672901, 35.209861 ], [ 140.0672827, 35.2098046 ], [ 140.0672611, 35.2097507 ], [ 140.0672262, 35.2097017 ], [ 140.0670496, 35.2095646 ], [ 140.0671838, 35.2094197 ], [ 140.0673061, 35.2093198 ], [ 140.067345, 35.209217 ], [ 140.0672923, 35.2090407 ], [ 140.0671743, 35.2089587 ], [ 140.0669999, 35.2089268 ], [ 140.0668256, 35.2089736 ], [ 140.0665341, 35.2091681 ] ] ] } },
{ "type": "Feature", "properties": { "FID": 10, "A52_001": "12", "A52_002": "12225", "A52_003": "君津市", "A52_004": "小櫃川水系大坂川", "A52_005": " ", "A52_006": "昭和43年12月10日", "A52_007": "建3534", "A52_008": 0, "A52_009": " ", "A52_010": " ", "city": "君津市", "name": "小櫃川水系大坂川", "date": "昭和43年12月10日", "notice": "建3534", "layer": "sabo_designated" }, "geometry": { "type": "Polygon", "coordinates": [ [ [ 140.0457686, 35.2350507 ], [ 140.0466851, 35.2285092 ], [ 140.0451204, 35.2192943 ], [ 140.0435859, 35.2158981 ], [ 140.0393018, 35.2169489 ], [ 140.0368017, 35.2196066 ], [ 140.0332807, 35.2208646 ], [ 140.0293222, 35.221497 ], [ 140.0305645, 35.2244466 ], [ 140.0312264, 35.227755 ], [ 140.0289027, 35.2284146 ], [ 140.0281124, 35.2322619 ], [ 140.0294613, 35.2341381 ], [ 140.0322227, 35.234074 ], [ 140.0304815, 35.2352694 ], [ 140.0308855, 35.2370875 ], [ 140.0329582, 35.2376804 ], [ 140.0307463, 35.2407971 ], [ 140.0310285, 35.242056 ], [ 140.0353641, 35.2415313 ], [ 140.0355635, 35.2417727 ], [ 140.0354373, 35.2419359 ], [ 140.0352066, 35.2422945 ], [ 140.0351812, 35.2423462 ], [ 140.0351693, 35.2424011 ], [ 140.0351714, 35.2424568 ], [ 140.0352528, 35.2429538 ], [ 140.0353155, 35.2431502 ], [ 140.0353458, 35.2432107 ], [ 140.0353929, 35.2432635 ], [ 140.0356356, 35.243476 ], [ 140.036251, 35.2440589 ], [ 140.0372333, 35.2447867 ], [ 140.0377021, 35.2458164 ], [ 140.0378624, 35.2466173 ], [ 140.0377841, 35.2470303 ], [ 140.0377808, 35.2470894 ], [ 140.0378082, 35.2473874 ], [ 140.0382527, 35.2483398 ], [ 140.0382842, 35.2483902 ], [ 140.0384034, 35.2484958 ], [ 140.0385039, 35.2486637 ], [ 140.0385372, 35.2488613 ], [ 140.0385661, 35.2494303 ], [ 140.038652, 35.2498278 ], [ 140.0386724, 35.2504135 ], [ 140.0384583, 35.250982 ], [ 140.0383855, 35.2513292 ], [ 140.0383813, 35.2513804 ], [ 140.0383889, 35.2514313 ], [ 140.038408, 35.2514801 ], [ 140.0386139, 35.2518724 ], [ 140.0386405, 35.2519131 ], [ 140.0386914, 35.2519639 ], [ 140.0384221, 35.2520719 ], [ 140.0381575, 35.2522718 ], [ 140.0381153, 35.2523114 ], [ 140.0380832, 35.252357 ], [ 140.0380625, 35.2524068 ], [ 140.038054, 35.2524589 ], [ 140.0380407, 35.2527586 ], [ 140.0380441, 35.2528084 ], [ 140.0380585, 35.2528568 ], [ 140.0380836, 35.2529022 ], [ 140.0381183, 35.252943 ], [ 140.0381616, 35.252978 ], [ 140.0382678, 35.2530256 ], [ 140.0386113, 35.2531177 ], [ 140.0385315, 35.2532088 ], [ 140.0383986, 35.2534338 ], [ 140.0383754, 35.2534864 ], [ 140.0383658, 35.2535418 ], [ 140.0383704, 35.2535977 ], [ 140.0383889, 35.2536516 ], [ 140.0384205, 35.2537012 ], [ 140.0386531, 35.2539889 ], [ 140.0386951, 35.2540311 ], [ 140.0387466, 35.2540654 ], [ 140.0388055, 35.2540906 ], [ 140.0388693, 35.2541056 ], [ 140.0395759, 35.2542067 ], [ 140.0407996, 35.2540637 ], [ 140.0408155, 35.2540705 ], [ 140.0407794, 35.2541094 ], [ 140.0397643, 35.2542758 ], [ 140.0396971, 35.2542931 ], [ 140.0396359, 35.2543217 ], [ 140.0395836, 35.2543603 ], [ 140.0395424, 35.2544072 ], [ 140.0395143, 35.2544602 ], [ 140.0394157, 35.2547183 ], [ 140.0394023, 35.2547721 ], [ 140.0394024, 35.254827 ], [ 140.0394161, 35.2548808 ], [ 140.0394426, 35.2549312 ], [ 140.0394811, 35.2549762 ], [ 140.0395298, 35.2550138 ], [ 140.0399644, 35.2552871 ], [ 140.0400292, 35.255319 ], [ 140.0404668, 35.2554812 ], [ 140.0405307, 35.2554987 ], [ 140.0405976, 35.2555052 ], [ 140.0406648, 35.2555003 ], [ 140.0411676, 35.255421 ], [ 140.0414919, 35.2554632 ], [ 140.0417605, 35.2557149 ], [ 140.0419745, 35.2559374 ], [ 140.0421217, 35.2560673 ], [ 140.0421535, 35.2562174 ], [ 140.0421479, 35.256442 ], [ 140.0420145, 35.2566269 ], [ 140.041475, 35.2571141 ], [ 140.0414219, 35.2571796 ], [ 140.0412622, 35.2574577 ], [ 140.041242, 35.2575031 ], [ 140.0412319, 35.2575508 ], [ 140.0412324, 35.2575992 ], [ 140.0412688, 35.2579062 ], [ 140.0412919, 35.2579825 ], [ 140.0413904, 35.2581798 ], [ 140.0415695, 35.258481 ], [ 140.0416042, 35.2585269 ], [ 140.0419259, 35.25887 ], [ 140.0419829, 35.2589173 ], [ 140.0424905, 35.259246 ], [ 140.0427398, 35.2594357 ], [ 140.0428036, 35.2594736 ], [ 140.0428764, 35.2594981 ], [ 140.0431, 35.2595433 ], [ 140.043164, 35.2595421 ], [ 140.0432265, 35.2595308 ], [ 140.0432851, 35.2595098 ], [ 140.0436082, 35.2592919 ], [ 140.0438486, 35.2591598 ], [ 140.0439435, 35.2591163 ], [ 140.0443165, 35.2590696 ], [ 140.0447477, 35.2588996 ], [ 140.0448145, 35.2588639 ], [ 140.0448688, 35.2588161 ], [ 140.0450582, 35.2586029 ], [ 140.0451493, 35.258589 ], [ 140.0453072, 35.2586164 ], [ 140.0453627, 35.2586844 ], [ 140.0455267, 35.2590471 ], [ 140.0455556, 35.2590955 ], [ 140.0455956, 35.2591383 ], [ 140.0456453, 35.2591738 ], [ 140.0457025, 35.2592004 ], [ 140.045765, 35.2592172 ], [ 140.045992, 35.2592581 ], [ 140.0460753, 35.2592642 ], [ 140.046781, 35.2592423 ], [ 140.0468492, 35.2592343 ], [ 140.0474748, 35.2591042 ], [ 140.0481801, 35.2589168 ], [ 140.0482393, 35.2588956 ], [ 140.0482924, 35.2588653 ], [ 140.0483372, 35.2588271 ], [ 140.0483721, 35.2587825 ], [ 140.0483958, 35.2587331 ], [ 140.0484072, 35.2586809 ], [ 140.048406, 35.2586279 ], [ 140.0483922, 35.2585761 ], [ 140.0483663, 35.2585275 ], [ 140.0483294, 35.258484 ], [ 140.0482829, 35.2584472 ], [ 140.0482285, 35.2584186 ], [ 140.0481683, 35.2583992 ], [ 140.0481047, 35.2583898 ], [ 140.0480401, 35.2583908 ], [ 140.047282, 35.2585868 ], [ 140.0467214, 35.2587028 ], [ 140.0460924, 35.2587224 ], [ 140.0460824, 35.2587205 ], [ 140.0459675, 35.2584664 ], [ 140.0459323, 35.2584099 ], [ 140.0457403, 35.2581838 ], [ 140.0456914, 35.2581506 ], [ 140.0456356, 35.2581257 ], [ 140.045575, 35.25811 ], [ 140.0451577, 35.2580428 ], [ 140.0448087, 35.2580907 ], [ 140.0446931, 35.2581278 ], [ 140.0446437, 35.2581591 ], [ 140.0446024, 35.2581974 ], [ 140.0443838, 35.2584435 ], [ 140.0441213, 35.2585493 ], [ 140.0437901, 35.2585878 ], [ 140.0436757, 35.2586195 ], [ 140.0434927, 35.2587043 ], [ 140.0432257, 35.258851 ], [ 140.0430754, 35.2589532 ], [ 140.0429094, 35.2588281 ], [ 140.0424237, 35.2585135 ], [ 140.0421471, 35.2582186 ], [ 140.0419964, 35.2579662 ], [ 140.0419204, 35.2578141 ], [ 140.0418975, 35.2576208 ], [ 140.0419979, 35.2574461 ], [ 140.0425225, 35.256973 ], [ 140.0425641, 35.2569272 ], [ 140.0427839, 35.2566146 ], [ 140.0428054, 35.2565241 ], [ 140.0428134, 35.2562025 ], [ 140.0428087, 35.2561506 ], [ 140.0427545, 35.2558948 ], [ 140.0427375, 35.2558443 ], [ 140.042709, 35.2557973 ], [ 140.0426699, 35.2557558 ], [ 140.0424833, 35.255593 ], [ 140.0422622, 35.2553638 ], [ 140.0419095, 35.2550332 ], [ 140.0418207, 35.2549746 ], [ 140.041713, 35.2549442 ], [ 140.0411568, 35.254876 ], [ 140.040643, 35.2549529 ], [ 140.0403354, 35.2548388 ], [ 140.040203, 35.2547555 ], [ 140.0410311, 35.2546198 ], [ 140.0410883, 35.254606 ], [ 140.0411889, 35.2545543 ], [ 140.0415773, 35.2541418 ], [ 140.0416107, 35.2540973 ], [ 140.0416331, 35.2540484 ], [ 140.0416436, 35.2539969 ], [ 140.0416418, 35.2539447 ], [ 140.0416278, 35.2538937 ], [ 140.0416022, 35.2538459 ], [ 140.0415658, 35.253803 ], [ 140.04152, 35.2537667 ], [ 140.041009, 35.2535434 ], [ 140.0409454, 35.2535229 ], [ 140.0408779, 35.2535135 ], [ 140.0408095, 35.2535158 ], [ 140.0395871, 35.2536623 ], [ 140.0391249, 35.2535938 ], [ 140.039074, 35.2535308 ], [ 140.0391075, 35.2534742 ], [ 140.0393623, 35.2532223 ], [ 140.0393996, 35.2531766 ], [ 140.0394249, 35.2531257 ], [ 140.0394371, 35.2530717 ], [ 140.0394358, 35.2530167 ], [ 140.0394209, 35.2529631 ], [ 140.0393932, 35.2529131 ], [ 140.0393536, 35.2528687 ], [ 140.0390563, 35.2526822 ], [ 140.0389633, 35.2526429 ], [ 140.0387225, 35.2525784 ], [ 140.0387958, 35.2525217 ], [ 140.0392118, 35.2523606 ], [ 140.0392705, 35.2523313 ], [ 140.0393206, 35.2522927 ], [ 140.0393598, 35.2522465 ], [ 140.0393865, 35.2521945 ], [ 140.0393995, 35.2521392 ], [ 140.0394201, 35.2519432 ], [ 140.0394188, 35.2518869 ], [ 140.0394034, 35.251832 ], [ 140.0393744, 35.251781 ], [ 140.0393332, 35.251736 ], [ 140.039197, 35.2516157 ], [ 140.0390518, 35.2513389 ], [ 140.0390949, 35.251124 ], [ 140.0393302, 35.2504871 ], [ 140.0393104, 35.2497915 ], [ 140.039224, 35.2493888 ], [ 140.0391953, 35.2488258 ], [ 140.0391384, 35.2485043 ], [ 140.0389709, 35.2482167 ], [ 140.0389429, 35.2481783 ], [ 140.0388424, 35.2480911 ], [ 140.0384559, 35.2472703 ], [ 140.0384411, 35.2470841 ], [ 140.038526, 35.246615 ], [ 140.0383475, 35.2457026 ], [ 140.038331, 35.2456518 ], [ 140.0378224, 35.2445346 ], [ 140.0377856, 35.2444765 ], [ 140.0377328, 35.2444273 ], [ 140.0367366, 35.2436925 ], [ 140.0361297, 35.2431178 ], [ 140.0359297, 35.2429424 ], [ 140.0359033, 35.2428637 ], [ 140.0358389, 35.2424705 ], [ 140.0360139, 35.2421986 ], [ 140.0362156, 35.2419405 ], [ 140.036392, 35.2419859 ], [ 140.0370891, 35.2417416 ], [ 140.0411743, 35.239123 ], [ 140.0457686, 35.2350507 ] ] ] } },
{ "type": "Feature", "properties": { "FID": 4, "A52_001": "12", "A52_002": "12219", "A52_003": "市原市", "A52_004": "養老川水系浦白川", "A52_005": " ", "A52_006": "昭和54年4月12日", "A52_007": "建842", "A52_008": 0, "A52_009": " ", "A52_010": " ", "city": "市原市", "name": "養老川水系浦白川", "date": "昭和54年4月12日", "notice": "建842", "layer": "sabo_designated" }, "geometry": { "type": "Polygon", "coordinates": [ [ [ 140.1254852, 35.2700538 ], [ 140.1253691, 35.2700805 ], [ 140.1252784, 35.2701294 ], [ 140.1252416, 35.2701623 ], [ 140.1250556, 35.2704005 ], [ 140.1250207, 35.2704848 ], [ 140.1250215, 35.270717 ], [ 140.125058, 35.2708024 ], [ 140.1251232, 35.270898 ], [ 140.1251737, 35.2710818 ], [ 140.1251635, 35.2712674 ], [ 140.1250708, 35.2713759 ], [ 140.1247982, 35.2714557 ], [ 140.1247075, 35.2715046 ], [ 140.1246519, 35.2715598 ], [ 140.1245215, 35.2717309 ], [ 140.124489, 35.2717871 ], [ 140.1244714, 35.2718749 ], [ 140.1244896, 35.2719627 ], [ 140.1245416, 35.2720409 ], [ 140.124605, 35.2720905 ], [ 140.1246013, 35.272126 ], [ 140.1246084, 35.2721787 ], [ 140.1246325, 35.2722721 ], [ 140.1246497, 35.2723183 ], [ 140.1246768, 35.2723613 ], [ 140.124566, 35.2724588 ], [ 140.1242206, 35.2726924 ], [ 140.1240061, 35.2730422 ], [ 140.1239847, 35.2731734 ], [ 140.1233004, 35.2738557 ], [ 140.1232577, 35.2739118 ], [ 140.1231162, 35.2741612 ], [ 140.123091, 35.2742258 ], [ 140.1230225, 35.2745308 ], [ 140.1229737, 35.2748759 ], [ 140.1229867, 35.2758603 ], [ 140.1230573, 35.2763406 ], [ 140.1231265, 35.2765415 ], [ 140.1231572, 35.2765992 ], [ 140.1232033, 35.2766496 ], [ 140.1233747, 35.2767971 ], [ 140.1236016, 35.2769605 ], [ 140.1236237, 35.2769837 ], [ 140.1235473, 35.2770747 ], [ 140.1234773, 35.2772738 ], [ 140.1234667, 35.2773427 ], [ 140.1234672, 35.2774828 ], [ 140.1234871, 35.2777404 ], [ 140.1234879, 35.2779662 ], [ 140.1234509, 35.2780537 ], [ 140.1234192, 35.2780981 ], [ 140.1231814, 35.2782015 ], [ 140.1230948, 35.2782556 ], [ 140.1229112, 35.2784183 ], [ 140.1227315, 35.2786134 ], [ 140.1226787, 35.278699 ], [ 140.122667, 35.2787462 ], [ 140.1226376, 35.2789933 ], [ 140.1227256, 35.2793231 ], [ 140.1229361, 35.2797819 ], [ 140.1230954, 35.280071 ], [ 140.1231781, 35.2801405 ], [ 140.1234253, 35.2802798 ], [ 140.1236202, 35.2803302 ], [ 140.1240575, 35.2804785 ], [ 140.1239538, 35.2806778 ], [ 140.1238987, 35.2811427 ], [ 140.123956, 35.2813466 ], [ 140.123977, 35.2813948 ], [ 140.1240086, 35.2814389 ], [ 140.1240498, 35.2814773 ], [ 140.1240991, 35.2815086 ], [ 140.1241547, 35.2815318 ], [ 140.1242146, 35.281546 ], [ 140.1244381, 35.2815503 ], [ 140.1245071, 35.2815442 ], [ 140.124573, 35.2815263 ], [ 140.124795, 35.281444 ], [ 140.1251143, 35.2814241 ], [ 140.1253296, 35.2814236 ], [ 140.1253212, 35.2814434 ], [ 140.1251687, 35.2816164 ], [ 140.1250554, 35.2818036 ], [ 140.1250306, 35.281859 ], [ 140.1249936, 35.2819998 ], [ 140.124995, 35.2820476 ], [ 140.1250066, 35.2820945 ], [ 140.1252252, 35.2822507 ], [ 140.1253821, 35.2823425 ], [ 140.1253386, 35.282527 ], [ 140.12531, 35.2826124 ], [ 140.1251927, 35.2827168 ], [ 140.1251622, 35.2827646 ], [ 140.1251438, 35.2828165 ], [ 140.1251158, 35.2829412 ], [ 140.1251112, 35.2830103 ], [ 140.1251211, 35.2831193 ], [ 140.1251326, 35.2831727 ], [ 140.1251569, 35.2832233 ], [ 140.1253074, 35.2833853 ], [ 140.1254747, 35.283524 ], [ 140.1255332, 35.2835619 ], [ 140.1256306, 35.2835935 ], [ 140.1256306, 35.2809039 ], [ 140.125442, 35.2808823 ], [ 140.1251003, 35.2808832 ], [ 140.1246871, 35.2809082 ], [ 140.1245872, 35.2809283 ], [ 140.1245992, 35.2808093 ], [ 140.1246759, 35.2806688 ], [ 140.1247418, 35.2805285 ], [ 140.124761, 35.280467 ], [ 140.1247622, 35.2804035 ], [ 140.1247426, 35.2802478 ], [ 140.1247291, 35.2801942 ], [ 140.1247027, 35.2801439 ], [ 140.1246644, 35.280099 ], [ 140.1246159, 35.2800613 ], [ 140.1245591, 35.2800324 ], [ 140.1242632, 35.2799645 ], [ 140.1238577, 35.2798253 ], [ 140.1237143, 35.2797893 ], [ 140.1236346, 35.2797429 ], [ 140.1235504, 35.2795849 ], [ 140.1233512, 35.2791505 ], [ 140.1233008, 35.2789643 ], [ 140.1233123, 35.2788803 ], [ 140.1234269, 35.2787559 ], [ 140.1235379, 35.2786589 ], [ 140.1238645, 35.2785104 ], [ 140.1239423, 35.2784363 ], [ 140.1240636, 35.2782559 ], [ 140.1241295, 35.2781 ], [ 140.1241477, 35.2780106 ], [ 140.1241466, 35.2777303 ], [ 140.1241267, 35.2774728 ], [ 140.1241264, 35.2773761 ], [ 140.1241456, 35.2773155 ], [ 140.1242131, 35.2772294 ], [ 140.1242697, 35.2771203 ], [ 140.1242951, 35.2770344 ], [ 140.1243031, 35.2768834 ], [ 140.1242908, 35.2768346 ], [ 140.1242679, 35.2767885 ], [ 140.1241016, 35.2766067 ], [ 140.1238416, 35.2764147 ], [ 140.1237349, 35.2763229 ], [ 140.1237084, 35.2762512 ], [ 140.123646, 35.2758372 ], [ 140.1236333, 35.2748911 ], [ 140.1236759, 35.2746047 ], [ 140.1237318, 35.2743584 ], [ 140.1238386, 35.2741701 ], [ 140.1244794, 35.2735315 ], [ 140.124921, 35.2731823 ], [ 140.1251896, 35.2729449 ], [ 140.1252358, 35.2728926 ], [ 140.1253919, 35.2726535 ], [ 140.1254245, 35.2725053 ], [ 140.1254279, 35.2724541 ], [ 140.1253907, 35.2723022 ], [ 140.1253478, 35.2722187 ], [ 140.1252654, 35.2721123 ], [ 140.1252342, 35.2720163 ], [ 140.125203, 35.2719698 ], [ 140.1251551, 35.2719251 ], [ 140.12539, 35.271857 ], [ 140.1254613, 35.271828 ], [ 140.125541, 35.2717675 ], [ 140.1256306, 35.2716633 ], [ 140.1256306, 35.2699225 ], [ 140.1254852, 35.2700538 ] ] ] } },
{ "type": "Feature", "properties": { "FID": 8, "A52_001": "12", "A52_002": "12225", "A52_003": "君津市", "A52_004": "小櫃川水系日出沢川", "A52_005": " ", "A52_006": "昭和48年8月13日", "A52_007": "建1732", "A52_008": 0, "A52_009": " ", "A52_010": " ", "city": "君津市", "name": "小櫃川水系日出沢川", "date": "昭和48年8月13日", "notice": "建1732", "layer": "sabo_designated" }, "geometry": { "type": "Polygon", "coordinates": [ [ [ 140.1096431, 35.3084122 ], [ 140.1107771, 35.3088996 ], [ 140.1108399, 35.30892 ], [ 140.1109066, 35.3089295 ], [ 140.1128245, 35.3090383 ], [ 140.1128891, 35.3090367 ], [ 140.1129522, 35.3090249 ], [ 140.1130112, 35.3090032 ], [ 140.1130639, 35.3089724 ], [ 140.1131083, 35.3089339 ], [ 140.1131426, 35.3088889 ], [ 140.1131656, 35.3088394 ], [ 140.1131764, 35.3087871 ], [ 140.1131745, 35.3087341 ], [ 140.1131601, 35.3086824 ], [ 140.1131336, 35.308634 ], [ 140.1130961, 35.3085908 ], [ 140.1130491, 35.3085544 ], [ 140.1129943, 35.3085263 ], [ 140.1129338, 35.3085074 ], [ 140.1128701, 35.3084986 ], [ 140.1110207, 35.3083937 ], [ 140.1100382, 35.3079747 ], [ 140.1093646, 35.3074121 ], [ 140.1093115, 35.3073762 ], [ 140.1092505, 35.3073501 ], [ 140.1091842, 35.3073349 ], [ 140.1089863, 35.3073357 ], [ 140.1089791, 35.3073017 ], [ 140.1089521, 35.3072474 ], [ 140.1089115, 35.3071992 ], [ 140.1088592, 35.3071592 ], [ 140.1084636, 35.3069226 ], [ 140.1080046, 35.3068112 ], [ 140.1078846, 35.306819 ], [ 140.1076437, 35.3069082 ], [ 140.1069849, 35.3066449 ], [ 140.1069349, 35.3064229 ], [ 140.107022, 35.30631 ], [ 140.107042, 35.3062567 ], [ 140.1070481, 35.3062012 ], [ 140.1070403, 35.3061458 ], [ 140.1070188, 35.3060929 ], [ 140.1069845, 35.3060448 ], [ 140.1069389, 35.3060034 ], [ 140.1068839, 35.3059706 ], [ 140.1068219, 35.3059477 ], [ 140.1064167, 35.3058378 ], [ 140.1062962, 35.3058244 ], [ 140.106178, 35.3058478 ], [ 140.1059569, 35.3059681 ], [ 140.1056813, 35.3059781 ], [ 140.1050954, 35.3058712 ], [ 140.1050158, 35.3058648 ], [ 140.1041777, 35.3058813 ], [ 140.103317, 35.3059643 ], [ 140.1032826, 35.3059069 ], [ 140.1029798, 35.3055406 ], [ 140.1025292, 35.3051167 ], [ 140.1024368, 35.3050562 ], [ 140.1023822, 35.3050371 ], [ 140.102265, 35.3050243 ], [ 140.1015268, 35.3050528 ], [ 140.1012849, 35.3050203 ], [ 140.1008474, 35.3048529 ], [ 140.1006116, 35.3046219 ], [ 140.1005581, 35.3045921 ], [ 140.1004985, 35.3045714 ], [ 140.1004352, 35.3045607 ], [ 140.1003705, 35.3045603 ], [ 140.100307, 35.3045703 ], [ 140.1002471, 35.3045902 ], [ 140.100193, 35.3046193 ], [ 140.100147, 35.3046565 ], [ 140.1001106, 35.3047004 ], [ 140.1000854, 35.3047492 ], [ 140.1000723, 35.3048011 ], [ 140.1000718, 35.3048541 ], [ 140.100084, 35.3049062 ], [ 140.1001082, 35.3049554 ], [ 140.1003821, 35.3052415 ], [ 140.1004354, 35.3052845 ], [ 140.1004991, 35.3053166 ], [ 140.101047, 35.3055263 ], [ 140.1011332, 35.3055481 ], [ 140.1015233, 35.3055945 ], [ 140.1021367, 35.3055708 ], [ 140.1024687, 35.3058831 ], [ 140.1026654, 35.3061236 ], [ 140.1026476, 35.3062351 ], [ 140.1026457, 35.3062897 ], [ 140.1026572, 35.3063434 ], [ 140.1026816, 35.3063942 ], [ 140.102718, 35.3064399 ], [ 140.1027648, 35.3064787 ], [ 140.1028201, 35.3065091 ], [ 140.1028818, 35.3065296 ], [ 140.1029473, 35.3065397 ], [ 140.1030138, 35.3065387 ], [ 140.1042091, 35.3064218 ], [ 140.1049914, 35.3064064 ], [ 140.1055806, 35.3065139 ], [ 140.1056669, 35.3065201 ], [ 140.1061427, 35.306498 ], [ 140.1062012, 35.3064818 ], [ 140.1062697, 35.3064486 ], [ 140.1063663, 35.3068773 ], [ 140.1063831, 35.3069259 ], [ 140.1064106, 35.3069711 ], [ 140.1064479, 35.3070113 ], [ 140.1064936, 35.3070451 ], [ 140.1075529, 35.3074689 ], [ 140.1076704, 35.3074779 ], [ 140.1077287, 35.3074695 ], [ 140.1079976, 35.3073691 ], [ 140.1081655, 35.30741 ], [ 140.1083421, 35.3075179 ], [ 140.1083608, 35.3076851 ], [ 140.1083828, 35.3077342 ], [ 140.108416, 35.307779 ], [ 140.108459, 35.3078176 ], [ 140.1085103, 35.3078488 ], [ 140.108568, 35.3078712 ], [ 140.1086299, 35.3078841 ], [ 140.1089963, 35.3078768 ], [ 140.1096431, 35.3084122 ] ] ] } }
]
}
