{
"type": "FeatureCollection",
"name": "steep_slope_danger",
"crs": { "type": "name", "properties": { "name": "urn:ogc:def:crs:OGC:1.3:CRS84" } },
"xy_coordinate_resolution": 1e-07,
"features": [
{ "type": "Feature", "properties": { "A47_001": "12", "A47_002": "12226", "A47_003": "富津市", "A47_004": "相川", "A47_005": "富津市相川", "A47_006": "1991/5/31", "A47_007": "千第555号", "A47_008": "     2.0", "city": "富津市", "name": "相川", "location": "富津市相川", "date": "1991/5/31", "notice": "千第555号", "layer": "steep_slope_danger" }, "geometry": { "type": "Polygon", "coordinates": [ [ [ 139.8749347, 35.200081 ], [ 139.8754896, 35.2001363 ], [ 139.8759167, 35.2006344 ], [ 139.8767454, 35.2004641 ], [ 139.8769242, 35.2003364 ], [ 139.8762118, 35.1998653 ], [ 139.8762686, 35.1995475 ], [ 139.8759834, 35.1991728 ], [ 139.8758585, 35.1990281 ], [ 139.8756059, 35.1988819 ], [ 139.874906, 35.1992669 ], [ 139.874906, 35.2000576 ], [ 139.8749347, 35.200081 ] ] ] } },
{ "type": "Feature", "properties": { "A47_001": "12", "A47_002": "12226", "A47_003": "富津市", "A47_004": "数馬", "A47_005": "富津市数馬", "A47_006": "1978/1/27", "A47_007": "千第80号", "A47_008": "     2.6", "city": "富津市", "name": "数馬", "location": "富津市数馬", "date": "1978/1/27", "notice": "千第80号", "layer": "steep_slope_danger" }, "geometry": { "type": "Polygon", "coordinates": [ [ [ 139.8754199, 35.216327 ], [ 139.875827, 35.2160289 ], [ 139.8763913, 35.2165372 ], [ 139.8767146, 35.2173144 ], [ 139.8779512, 35.2175799 ], [ 139.8781229, 35.2178397 ], [ 139.8792601, 35.2178468 ], [ 139.8798251, 35.2176743 ], [ 139.8785182, 35.2172417 ], [ 139.8776898, 35.2170417 ], [ 139.8772973, 35.2168343 ], [ 139.876774, 35.2164195 ], [ 139.8765472, 35.2162121 ], [ 139.8761633, 35.2158116 ], [ 139.8755266, 35.2152251 ], [ 139.8752698, 35.215107 ], [ 139.874906, 35.2154803 ], [ 139.874906, 35.2158469 ], [ 139.8754199, 35.216327 ] ] ] } },
{ "type": "Feature", "properties": { "A47_001": "12", "A47_002": "12226", "A47_003": "富津市", "A47_004": "湊", "A47_005": "富津市湊", "A47_006": "1983/5/4", "A47_007": "千第388号", "A47_008": "     3.6", "city": "富津市", "name": "湊", "location": "富津市湊", "date": "1983/5/4", "notice": "千第388号", "layer": "steep_slope_danger" }, "geometry": { "type": "Polygon", "coordinates": [ [ [ 139.8750202, 35.2239699 ], [ 139.8751395, 35.2238478 ], [ 139.8752304, 35.2236746 ], [ 139.8754036, 35.223456 ], [ 139.8758522, 35.2232118 ], [ 139.8756903, 35.2228654 ], [ 139.8750529, 35.2221456 ], [ 139.874906, 35.2219966 ], [ 139.874906, 35.2240051 ], [ 139.8750202, 35.2239699 ] ] ] } },
{ "type": "Feature", "properties": { "A47_001": "12", "A47_002": "12225", "A47_003": "君津市", "A47_004": "糸川", "A47_005": "", "A47_006": "1992/2/21", "A47_007": "千第89号", "A47_008": "     0.8", "city": "君津市", "name": "糸川", "location": "", "date": "1992/2/21", "notice": "千第89号", "layer": "steep_slope_danger" }, "geometry": { "type": "Polygon", "coordinates": [ [ [ 139.9975818, 35.2878268 ], [ 139.9978669, 35.2878288 ], [ 139.9978198, 35.2875269 ], [ 139.9976626, 35.2874928 ], [ 139.9975351, 35.2874371 ], [ 139.9973277, 35.2872857 ], [ 139.9972136, 35.2872387 ], [ 139.9968535, 35.2871657 ], [ 139.9967916, 35.2871637 ], [ 139.9966846, 35.287175 ], [ 139.9964673, 35.2872715 ], [ 139.9963916, 35.2872813 ], [ 139.9963538, 35.2875589 ], [ 139.997518, 35.287927 ], [ 139.9975818, 35.2878268 ] ] ] } },
{ "type": "Feature", "properties": { "A47_001": "12", "A47_002": "12225", "A47_003": "君津市", "A47_004": "大井戸2", "A47_005": "君津市大井戸", "A47_006": "1992/2/21", "A47_007": "千第89号", "A47_008": "     0.2", "city": "君津市", "name": "大井戸2", "location": "君津市大井戸", "date": "1992/2/21", "notice": "千第89号", "layer": "steep_slope_danger" }, "geometry": { "type": "Polygon", "coordinates": [ [ [ 139.9827532, 35.2941937 ], [ 139.9826628, 35.293857 ], [ 139.9826867, 35.2938524 ], [ 139.9826776, 35.2936049 ], [ 139.9823216, 35.2936607 ], [ 139.9823744, 35.2943007 ], [ 139.9827532, 35.2941937 ] ] ] } },
{ "type": "Feature", "properties": { "A47_001": "12", "A47_002": "12225", "A47_003": "君津市", "A47_004": "大井戸", "A47_005": "君津市大井戸", "A47_006": "1978/1/27", "A47_007": "千第79号", "A47_008": "     1.3", "city": "君津市", "name": "大井戸", "location": "君津市大井戸", "date": "1978/1/27", "notice": "千第79号", "layer": "steep_slope_danger" }, "geometry": { "type": "Polygon", "coordinates": [ [ [ 139.9922814, 35.2956091 ], [ 139.9932502, 35.2956149 ], [ 139.993629, 35.2952678 ], [ 139.9940223, 35.2950697 ], [ 139.9930897, 35.2943482 ], [ 139.9928063, 35.294111 ], [ 139.9926964, 35.2938508 ], [ 139.9923783, 35.2941862 ], [ 139.9921642, 35.2946258 ], [ 139.9918808, 35.2951579 ], [ 139.9914832, 35.2955686 ], [ 139.9922814, 35.2956091 ] ] ] } },
{ "type": "Feature", "properties": { "A47_001": "12", "A47_002": "12225", "A47_003": "君津市", "A47_004": "釜生", "A47_005": "君津市釜生", "A47_006": "1978/9/5", "A47_007": "千第712号", "A47_008": "     2.1", "city": "君津市", "name": "釜生", "location": "君津市釜生", "date": "1978/9/5", "notice": "千第712号", "layer": "steep_slope_danger" }, "geometry": { "type": "Polygon", "coordinates": [ [ [ 140.1174651, 35.2313016 ], [ 140.1174239, 35.2311557 ], [ 140.1175405, 35.2310965 ], [ 140.1176456, 35.2310188 ], [ 140.1177809, 35.2309507 ], [ 140.1178569, 35.2308572 ], [ 140.1175178, 35.2303075 ], [ 140.1172254, 35.2295531 ], [ 140.1171026, 35.2293368 ], [ 140.1169622, 35.2288748 ], [ 140.116816, 35.228752 ], [ 140.1165002, 35.228752 ], [ 140.1162079, 35.228828 ], [ 140.1159155, 35.229021 ], [ 140.1158862, 35.2292607 ], [ 140.1159681, 35.2292666 ], [ 140.1159681, 35.2298689 ], [ 140.1160266, 35.2300268 ], [ 140.1160909, 35.230325 ], [ 140.1164301, 35.2307636 ], [ 140.1165295, 35.2310209 ], [ 140.1167459, 35.2312197 ], [ 140.1174651, 35.2313016 ] ] ] } },
{ "type": "Feature", "properties": { "A47_001": "12", "A47_002": "12225", "A47_003": "君津市", "A47_004": "大戸見", "A47_005": "君津市大戸見", "A47_006": "1983/5/4", "A47_007": "千第388号", "A47_008": "     1.0", "city": "君津市", "name": "大戸見", "location": "君津市大戸見", "date": "1983/5/4", "notice": "千第388号", "layer": "steep_slope_danger" }, "geometry": { "type": "Polygon", "coordinates": [ [ [ 140.057138, 35.2454266 ], [ 140.0572901, 35.2452888 ], [ 140.0574049, 35.2452515 ], [ 140.0575369, 35.2452716 ], [ 140.0574049, 35.2449186 ], [ 140.0573159, 35.2448211 ], [ 140.057161, 35.244557 ], [ 140.0568668, 35.2440075 ], [ 140.0572126, 35.2438511 ], [ 140.0571969, 35.2436401 ], [ 140.0570763, 35.2434766 ], [ 140.0569041, 35.2431293 ], [ 140.0569013, 35.2429256 ], [ 140.056554, 35.2430404 ], [ 140.0565913, 35.2432269 ], [ 140.0561695, 35.2435254 ], [ 140.056445, 35.2438898 ], [ 140.0563517, 35.2439264 ], [ 140.056445, 35.244217 ], [ 140.0565698, 35.2444365 ], [ 140.0567893, 35.244656 ], [ 140.0568812, 35.2449803 ], [ 140.057138, 35.2454266 ] ] ] } },
{ "type": "Feature", "properties": { "A47_001": "12", "A47_002": "12225", "A47_003": "君津市", "A47_004": "怒田", "A47_005": "君津市怒田", "A47_006": "1987/4/28", "A47_007": "千第418号", "A47_008": "     2.9", "city": "君津市", "name": "怒田", "location": "君津市怒田", "date": "1987/4/28", "notice": "千第418号", "layer": "steep_slope_danger" }, "geometry": { "type": "Polygon", "coordinates": [ [ [ 140.0939249, 35.2773861 ], [ 140.0936701, 35.2771534 ], [ 140.0933673, 35.2770158 ], [ 140.0931927, 35.2769828 ], [ 140.0930358, 35.2770213 ], [ 140.0928268, 35.2771171 ], [ 140.0926372, 35.2771593 ], [ 140.0924606, 35.2771608 ], [ 140.0923037, 35.2772041 ], [ 140.091909, 35.2774338 ], [ 140.091265, 35.277893 ], [ 140.0911437, 35.2781555 ], [ 140.0911209, 35.2782843 ], [ 140.0911217, 35.2785418 ], [ 140.0919135, 35.2786953 ], [ 140.0929946, 35.2783644 ], [ 140.0930773, 35.2784528 ], [ 140.0939689, 35.2774754 ], [ 140.0939249, 35.2773861 ] ] ] } },
{ "type": "Feature", "properties": { "A47_001": "12", "A47_002": "12225", "A47_003": "君津市", "A47_004": "怒田2", "A47_005": "君津市怒田字鶴巻", "A47_006": "1996/1/9", "A47_007": "千第11号", "A47_008": "     1.8", "city": "君津市", "name": "怒田2", "location": "君津市怒田字鶴巻", "date": "1996/1/9", "notice": "千第11号", "layer": "steep_slope_danger" }, "geometry": { "type": "Polygon", "coordinates": [ [ [ 140.0905086, 35.2801358 ], [ 140.0908509, 35.2801729 ], [ 140.0910078, 35.2801586 ], [ 140.0912845, 35.2800474 ], [ 140.0909279, 35.2793285 ], [ 140.0906798, 35.2791004 ], [ 140.0906308, 35.2781903 ], [ 140.0893462, 35.2780021 ], [ 140.0893241, 35.278773 ], [ 140.0895659, 35.2787352 ], [ 140.0897691, 35.2787452 ], [ 140.089869, 35.278798 ], [ 140.0902205, 35.278952 ], [ 140.0902277, 35.2792972 ], [ 140.0904844, 35.2794854 ], [ 140.090443, 35.2795575 ], [ 140.0904088, 35.280073 ], [ 140.0905086, 35.2801358 ] ] ] } },
{ "type": "Feature", "properties": { "A47_001": "12", "A47_002": "12225", "A47_003": "君津市", "A47_004": "久留里市場", "A47_005": "君津市久留里市場字安住原", "A47_006": "1998/3/31", "A47_007": "千第371号", "A47_008": "     0.1", "city": "君津市", "name": "久留里市場", "location": "君津市久留里市場字安住原", "date": "1998/3/31", "notice": "千第371号", "layer": "steep_slope_danger" }, "geometry": { "type": "Polygon", "coordinates": [ [ [ 140.0802823, 35.293577 ], [ 140.0803343, 35.2934673 ], [ 140.0805065, 35.2934239 ], [ 140.0806964, 35.2932918 ], [ 140.0806751, 35.2931438 ], [ 140.0806056, 35.2930635 ], [ 140.0805273, 35.2931584 ], [ 140.0803966, 35.2931938 ], [ 140.0800686, 35.2933691 ], [ 140.0802823, 35.293577 ] ] ] } },
{ "type": "Feature", "properties": { "A47_001": "12", "A47_002": "12225", "A47_003": "君津市", "A47_004": "長谷川", "A47_005": "君津市長谷川字下平田", "A47_006": "1976/12/14", "A47_007": "千第777号", "A47_008": "     0.3", "city": "君津市", "name": "長谷川", "location": "君津市長谷川字下平田", "date": "1976/12/14", "notice": "千第777号", "layer": "steep_slope_danger" }, "geometry": { "type": "Polygon", "coordinates": [ [ [ 140.0804169, 35.3250134 ], [ 140.0805038, 35.32432 ], [ 140.0799735, 35.3243896 ], [ 140.0797561, 35.324149 ], [ 140.079304, 35.3245055 ], [ 140.079317, 35.3250641 ], [ 140.0804169, 35.3250134 ] ] ] } }
]
}
